DataType=double
version=3
OpenSimVersion=4.6-2026-06-22-85aaf64
endheader
time	/forceset/tau_pelvis_tilt	/forceset/tau_pelvis_list	/forceset/tau_pelvis_rotation	/forceset/tau_pelvis_tx	/forceset/tau_pelvis_ty	/forceset/tau_pelvis_tz	/forceset/tau_hip_flexion_r	/forceset/tau_hip_adduction_r	/forceset/tau_hip_rotation_r	/forceset/tau_knee_angle_r	/forceset/tau_knee_angle_r_beta	/forceset/tau_ankle_angle_r	/forceset/tau_subtalar_angle_r	/forceset/tau_mtp_angle_r	/forceset/tau_hip_flexion_l	/forceset/tau_hip_adduction_l	/forceset/tau_hip_rotation_l	/forceset/tau_knee_angle_l	/forceset/tau_knee_angle_l_beta	/forceset/tau_ankle_angle_l	/forceset/tau_subtalar_angle_l	/forceset/tau_mtp_angle_l	/forceset/tau_lumbar_extension	/forceset/tau_lumbar_bending	/forceset/tau_lumbar_rotation	/forceset/tau_arm_flex_r	/forceset/tau_arm_add_r	/forceset/tau_arm_rot_r	/forceset/tau_elbow_flex_r	/forceset/tau_pro_sup_r	/forceset/tau_wrist_flex_r	/forceset/tau_wrist_dev_r	/forceset/tau_arm_flex_l	/forceset/tau_arm_add_l	/forceset/tau_arm_rot_l	/forceset/tau_elbow_flex_l	/forceset/tau_pro_sup_l	/forceset/tau_wrist_flex_l	/forceset/tau_wrist_dev_l
0	0.006422076613206893	0.01108075103019673	-0.01321964763455779	-0.00796606547545908	-0.05402744805433637	-0.005695382929708926	-0.00247525514947954	-0.005614622598773922	0.0002125830822895577	-0.0009387597353376504	3.023066351910779e-06	-0.0003936062771027253	9.38573634103838e-05	1.828600665992932e-05	-0.006307797794457263	-0.000768131529034043	0.0006654398149095636	0.0001755253712798313	3.378516383915167e-06	-0.0006406859979655633	0.000259712555738625	2.137559573193597e-05	-0.01857404813707244	0.02533448278242738	-0.02071292398341161	-0.01633803973191092	-0.002658685291930845	0.01964238687951998	0.02224283055916517	0.02252538357341664	0.02110281826693768	0.007992025668743883	-0.002393037624046651	-0.002488676507577043	-0.001530054479458106	-0.002551740971139338	-7.025875943512227e-05	-0.0002855263192815325	-0.0001348867037813433
0.005	0.01136738183610276	0.03540380136517804	-0.04015819943092126	-0.008630949108627608	-0.1120369641307361	-0.003883856133540441	-0.01265903174466451	-0.006715877843469819	0.000517178460700026	0.00265685908939202	6.88506197674882e-06	-0.0009565276252842825	0.0002280122742785613	3.394921947957613e-05	-0.01069249722947007	-0.00667994714085357	0.0003422441634518219	0.0002910205105132545	6.807642549493601e-06	-0.0009471891916725621	9.319766955823153e-05	3.815799981621522e-05	-0.04212960705384566	0.03555691218011869	-0.05721286294152748	0.007457372314654881	0.02316830863280825	-0.01354507926883076	-0.01443250905881113	-0.01094182497583615	-0.005507936415240674	-0.01118675504747596	-0.003843979039202258	-0.003714895275231274	-0.002683905079526241	-0.003748779490838976	-0.0001279954662241377	-0.0003848186391331383	-0.000283606134812556
0.01	0.01631268705899863	0.05972685170015934	-0.06709675122728471	-0.009295832741796132	-0.1700464802071358	-0.002072329337371957	-0.02284280833984948	-0.007817133088165716	0.0008217738391104942	0.006252477914121692	1.074705760158686e-05	-0.00151944897346584	0.0003621671851467388	4.961243229922295e-05	-0.01507719666448288	-0.0125917627526731	1.904851199408015e-05	0.0004065156497466777	1.023676871507203e-05	-0.001253692385379561	-7.331721662216197e-05	5.494040390049446e-05	-0.06568516597061889	0.04577934157781	-0.09371280189964334	0.03125278436122068	0.04899530255754735	-0.0467325454171815	-0.05110784867678742	-0.04440903352508893	-0.03211869109741903	-0.03036553576369579	-0.005294920454357866	-0.004941114042885505	-0.003837755679594377	-0.004945818010538615	-0.0001857321730131531	-0.0004841109589847443	-0.0004323255658437687
0.015	0.001847331586416909	0.06922956104235541	-0.07327664140754159	-0.01311158456683262	-0.1672688580685472	-2.57627635733028e-05	-0.02300756573747625	-0.005537531381371502	0.0003670266229640911	0.005636220385188326	1.066176263282661e-05	-0.001519915234483458	0.0004109028767635275	5.017489951471892e-05	-0.01282511272793942	-0.0131380351486277	0.0004341918035863116	-0.0003499795056302421	1.0071983133088e-05	-0.001278094305039634	-1.247226807835819e-05	5.536261808796969e-05	-0.08514798913981529	0.04405692370374401	-0.113244370315745	0.02258018788402923	0.04194256815691449	-0.03791185932675657	-0.04056421381108859	-0.03390734575470484	-0.0223849422437962	-0.02655961898928556	-0.001660781624018841	-0.001193064918351761	-0.001227262751571056	-0.006003040914912194	-0.0001572951962172108	-0.0006445449802989189	-0.0001363028607715293
0.02	-0.01261802388616481	0.07873227038455147	-0.07945653158779847	-0.0169273363918691	-0.1644912359299586	0.002020803810225351	-0.02317232313510303	-0.003257929674577288	-8.772059318231201e-05	0.005019962856254961	1.057646766406636e-05	-0.001520381495501076	0.0004596385683803162	5.07373667302149e-05	-0.01057302879139597	-0.0136843075445823	0.000849335095178543	-0.001106474661007162	9.907197551103961e-06	-0.001302496224699707	4.837268046544558e-05	5.578483227544493e-05	-0.1046108123090117	0.04233450582967803	-0.1327759387318467	0.01390759140683779	0.03488983375628164	-0.02909117323633164	-0.03002057894538974	-0.02340565798432075	-0.01265119339017338	-0.02275370221487532	0.001973357206320185	0.002554984206181982	0.001383230176452265	-0.007060263819285774	-0.0001288582194212685	-0.0008049790016130935	0.0001597198443007102
0.025	-0.04040020487328216	0.07667400758586139	-0.06911032162208049	-0.01610548051406101	-0.1261125302047642	0.002108888487401325	-0.02133750331369539	-0.003607636284678973	-1.392697871540195e-05	0.004487845101035707	8.270376704106389e-06	-0.001134708509719359	0.000320457335017413	3.739625294745245e-05	-0.008175919173094771	-0.009125427276724492	0.0005109126268050899	-0.00155045105021079	7.711864810880508e-06	-0.0009328400971414783	4.346308475274109e-05	4.073212829290579e-05	-0.109311106583518	0.03821628901967878	-0.131527240129227	0.01363079680217384	0.04213013977904577	-0.02813852261673101	-0.03293087909344277	-0.02477081162351643	-0.01523185514364278	-0.02108047833510129	0.00287392169545973	0.00539362789325887	0.002489147999009854	-0.006392384616552171	-0.0001007386262591245	-0.0007570664773345983	0.0002713771793551364
0.03	-0.0681823858603995	0.0746157447871713	-0.05876411165636249	-0.01528362463625292	-0.08773382447956979	0.002196973164577299	-0.01950268349228775	-0.003957342894780658	5.986663575150812e-05	0.003955727345816454	5.964285744146415e-06	-0.0007490355239376408	0.0001812761016545098	2.405513916469e-05	-0.005778809554793573	-0.004566547008866684	0.0001724901584316368	-0.001994427439414418	5.516532070657055e-06	-0.0005631839695832493	3.855348904003661e-05	2.567942431036668e-05	-0.1140114008580242	0.03409807220967952	-0.1302785415266072	0.01335400219750989	0.04937044580180991	-0.02718587199713038	-0.03584117924149581	-0.02613596526271212	-0.01781251689711218	-0.01940725445532726	0.003774486184599274	0.00823227158033576	0.003595065821567443	-0.005724505413818567	-7.261903309698041e-05	-0.000709153953056103	0.0003830345144095625
0.035	-0.1006072744454994	0.06355027872438405	-0.03981104574792198	-0.01359234010440453	-0.03555585030996194	0.003126270694081465	-0.01693095786788625	-0.003483097490318181	-0.0002003433131022628	0.003301309863965292	3.023647468773755e-06	-0.0003116521381828902	4.536512094804815e-05	9.090380068332974e-06	-0.001609405217010963	-0.001055066223865311	0.0002714458020002083	-0.002473271486329499	2.694610153223795e-06	-0.0001552562786730718	5.049762728344042e-05	8.324347526002108e-06	-0.1148670876002881	0.02025701416473442	-0.1192655589460715	0.000360367338622781	0.04152317864234171	-0.010403362215292	-0.02653697604196778	-0.01350277893201868	-0.01336018147106713	-0.002966327389214205	0.004995092855604196	0.01020416425111134	0.004802719316425031	-0.004864053161442005	-2.999618632451016e-05	-0.0006508767012472355	0.000527619248765322
0.04	-0.1330321630305993	0.0524848126615968	-0.02085797983948148	-0.01190105557255614	0.01662212385964589	0.004055568223585632	-0.01435923224348475	-0.003008852085855703	-0.0004605532619560337	0.002646892382114131	8.300919340109498e-08	0.0001257312475718603	-9.054585975841348e-05	-5.874379028024048e-06	0.002559999120771646	0.002456414561136062	0.0003704014455687796	-0.002952115533244581	-1.273117642094646e-07	0.0002526714122371057	6.244176552684422e-05	-9.030729258362465e-06	-0.115722774342552	0.006415956119789314	-0.1082525763655358	-0.01263326752026432	0.03367591148287352	0.006379147566546372	-0.01723277284243975	-0.0008695926013252441	-0.008907846045022084	0.01347459967689885	0.006215699526609116	0.01217605692188693	0.006010372811282617	-0.004003600909065442	1.262666044796009e-05	-0.000592599449438368	0.0006722039831210815
0.045	-0.1630355827847442	0.03841888188901879	-0.003334613369347892	-0.005030357676540369	0.07239532293013971	0.006339190757215076	-0.01214881691046958	-0.0004177483617896638	-0.0003869543504791597	0.003226759773727831	-3.230099674170978e-06	0.000539841536371396	-0.0001756193707256367	-2.424812263432093e-05	0.008952252241899912	0.002416345072478805	0.0001199233857089077	-0.003949699046222101	-3.485961386946112e-06	0.0007747656795472401	-5.357088312702782e-05	-2.665827653372531e-05	-0.1142921252851099	-0.01875965532017929	-0.09699131094207444	-0.0008891849407552214	0.02314480821838101	-0.007632066923478798	-0.0143869862424667	-0.007152492340317371	-0.005559564713619214	-0.003901113609154175	0.005431710115119481	0.008378649512573543	0.004479405067191627	-0.001447522574991145	5.395596437264587e-05	-0.0002930415758443754	0.0005036919065455435
0.05	-0.1930390025388891	0.02435295111644077	0.0141887531007857	0.001840340219475402	0.1281685220006336	0.00862281329084452	-0.009938401577454412	0.002173355362276376	-0.0003133554390022856	0.00380662716534153	-6.54320854174305e-06	0.0009539518251709317	-0.0002606928816928599	-4.262186624061781e-05	0.01534450536302817	0.002376275583821548	-0.0001305546741509643	-0.004947282559199621	-6.84461100968276e-06	0.001296859946857374	-0.0001695835317808999	-4.428582380908815e-05	-0.1128614762276678	-0.04393526676014789	-0.08573004551861306	0.01085489763875388	0.0126137049538885	-0.02164328141350397	-0.01154119964249364	-0.0134353920793095	-0.002211283382216345	-0.0212768268952072	0.004647720703629845	0.004581242103260157	0.002948437323100638	0.001108555759083153	9.528526829733165e-05	6.516297749617198e-06	0.0003351798299700055
0.055	-0.2192534930882749	0.007368785955484466	0.0259619547813178	0.004863189151657679	0.1775165638645526	0.01351628900139609	-0.006614674437294777	0.005754322982546905	-0.0004507378607389136	0.003502345761403924	-9.04871048269516e-06	0.001240592437700155	-0.0002512765851556972	-5.575387017031226e-05	0.02049647359745969	-0.0001220377648935315	-1.017846628369031e-05	-0.005846383491309688	-9.459351569877271e-06	0.001694375479555406	-0.000299716187591768	-5.631890409654324e-05	-0.1133818792496213	-0.07730867458915201	-0.07924401670088793	0.01155129113770035	0.004795061873090226	-0.02364785906402848	-0.01335081992236346	-0.01493144854813475	-0.004705837025016054	-0.01980238723462747	0.004568527391676864	0.002666534229498707	0.002428612002899242	0.003111647620480531	0.0001327910137337992	0.0002312259633343547	0.0002838842256087957
0.06	-0.2454679836376606	-0.009615379205471845	0.0377351564618499	0.007886038083839956	0.2268646057284716	0.01840976471194766	-0.003290947297135143	0.009335290602817436	-0.0005881202824755415	0.003198064357466319	-1.155421242364727e-05	0.001527233050229379	-0.0002418602886185344	-6.888587410000671e-05	0.02564844183189121	-0.002620351113608611	0.0001101977415835837	-0.006745484423419753	-1.207409213007178e-05	0.002091891012253438	-0.000429848843402636	-6.835198438399833e-05	-0.1139022822715747	-0.1106820824181561	-0.0727579878831628	0.01224768463664683	-0.003023581207708052	-0.02565243671455299	-0.01516044020223328	-0.01642750501696001	-0.007200390667815763	-0.01832794757404775	0.004489334079723884	0.0007518263557372566	0.001908786682697847	0.005114739481877909	0.0001702967591702667	0.0004559356289190921	0.0002325886212475859
0.065	-0.2689659727557206	-0.02901732514469585	0.04453744049850157	0.005717816232563503	0.2695601923013884	0.01781805251516079	0.003437668961893325	0.009758356069343894	-0.0006936908839444376	0.000728258072975526	-1.402809149079931e-05	0.001945741024189856	-0.0003294499796844658	-8.203407217102073e-05	0.02816471834013268	-0.002565077900143969	0.0002366308112295721	-0.00741357958090761	-1.410010287217507e-05	0.002441203746294037	-0.0005387512994064247	-7.980398934735298e-05	-0.1152109842403423	-0.1327064084393098	-0.06826447036054864	-0.001621356028284985	-0.004013654185247987	-0.008439968501683635	-0.004320963232943897	-0.002649900652440714	0.0002833077894062374	-0.004968661708981068	0.003026802112978264	-0.0006911663457602965	0.0009992710323745856	0.006002795435469763	0.0001789610015930379	0.0005403766171865402	0.0001441944259871289
0.06999999999999999	-0.2924639618737805	-0.04841927108391985	0.05133972453515324	0.003549594381287049	0.3122557788743053	0.01722634031837391	0.01016628522092179	0.01018142153587035	-0.0007992614854133338	-0.001741548211515267	-1.650197055795134e-05	0.002364248998150333	-0.0004170396707503972	-9.518227024203475e-05	0.03068099484837414	-0.002509804686679328	0.0003630638808755605	-0.008081674738395469	-1.612611361427835e-05	0.002790516480334636	-0.0006476537554102134	-9.125599431070761e-05	-0.1165196862091099	-0.1547307344604633	-0.06377095283793445	-0.01549039669321679	-0.005003727162787923	0.008772499711185724	0.006518513736345484	0.01112770371207858	0.007767006246628238	0.008390624156085612	0.001564270146232645	-0.00213415904725785	8.975538205132455e-05	0.006890851389061617	0.000187625244015809	0.0006248176054539882	5.580023072667195e-05
0.075	-0.308628144360623	-0.06637095015066187	0.05382952465266777	0.009131726343796021	0.3447982959237973	0.01655535819127741	0.01015115708412548	0.01077029228916008	-0.0005086917039939465	-0.0001324352929970045	-1.853749984111705e-05	0.002527004696321448	-0.000445709140190694	-0.0001049023086553328	0.03099402127638422	-0.003664467266110282	0.0001490035906151627	-0.006812473071039427	-1.815512619941034e-05	0.003005168013703974	-0.0007068865599856825	-9.988245332746325e-05	-0.1088299209142512	-0.1832810032127706	-0.05518001547180169	0.005465709666405403	-0.01293652007930454	-0.01780871272586176	-0.004828557039924915	-0.007498382073900344	0.0004904708727660442	-0.01412394994079473	0.001651747026150627	-0.005601970791970356	-0.0006914764043879882	0.009272362629445764	0.0002310314943792809	0.0009205846680959453	-2.03548246579596e-05
0.08	-0.3247923268474655	-0.08432262921740388	0.05631932477018228	0.01471385830630499	0.3773408129732894	0.01588437606418091	0.01013602894732918	0.01135916304244982	-0.0002181219225745591	0.001476677625521258	-2.057302912428276e-05	0.002689760394492563	-0.0004743786096309908	-0.0001146223470686308	0.0313070477043943	-0.004819129845541237	-6.505669964523505e-05	-0.005543271403683385	-2.018413878454233e-05	0.003219819547073312	-0.0007661193645611515	-0.0001085089123442189	-0.1011401556193924	-0.2118312719650778	-0.04658907810566892	0.0264218160260276	-0.02086931299582116	-0.04438992516290925	-0.01617562781619531	-0.02612446785987927	-0.006786064501096149	-0.03663852403767508	0.001739223906068608	-0.009069782536682863	-0.001472708190827301	0.01165387386982991	0.0002744377447427527	0.001216351730737902	-9.650988004259115e-05
0.08499999999999999	-0.3391153689791715	-0.103146834022681	0.0536325205014869	0.01033696584493842	0.4006025106166133	0.01327470573205147	0.01776088312646196	0.005958213138642639	-0.0005884351286400458	-0.00168825631533077	-2.1680317526487e-05	0.002999511293277237	-0.0006577205389722526	-0.0001181259226238634	0.02594380923624054	-0.001733879491679862	0.0003168654235151303	-0.003496700754897003	-2.06830533167271e-05	0.003350892761377444	-0.0008104447445330703	-0.0001174130434772448	-0.09777182123132534	-0.2189864580136161	-0.04299413297441392	-0.005625999542156518	-0.0132522369799766	-0.003440333737842268	0.002565555122754252	0.002945716656454505	0.004692822164877764	-0.001676092603285809	0.001700120664850246	-0.005731137851765137	-0.0005019249167832263	0.01116651474332206	0.0002799109594754342	0.001123329491643796	9.027970011360115e-06
0.09	-0.3534384111108775	-0.1219710388279581	0.05094571623279151	0.005960073383571839	0.4238642082599371	0.01066503539992203	0.02538573730559474	0.0005572632348354605	-0.0009587483347055325	-0.004853190256182798	-2.278760592869123e-05	0.003309262192061911	-0.0008410624683135142	-0.000121629498179096	0.02058057076808677	0.001351370862181513	0.0006987875466754956	-0.001450130106110621	-2.118196784891187e-05	0.003481965975681578	-0.0008547701245049892	-0.0001263171746102707	-0.09440348684325832	-0.2261416440621544	-0.03939918784315893	-0.03767381511034064	-0.00563516096413205	0.0375092576872247	0.02130673806170382	0.03201590117278828	0.01617170883085168	0.03328633883110346	0.001661017423631884	-0.002392493166847412	0.0004688583572608481	0.01067915561681421	0.0002853841742081157	0.00103030725254969	0.0001145658200653114
0.09499999999999999	-0.3585950096427232	-0.1379998587950272	0.05443921613851845	0.003091700521282912	0.4351360173164235	0.01001666828949322	0.02206905920275698	0.002494568254163007	-0.0001162690853779195	-0.002538695907190278	-2.306226499608525e-05	0.00316440194173817	-0.0006880821968635652	-0.0001239044018247729	0.02101757638188783	0.0008026306479873707	-0.0001792554994337015	-0.002112921821077655	-2.208525002610858e-05	0.003608625857865871	-0.0008959968963993707	-0.0001273291522617768	-0.08512504897321395	-0.2519357960127582	-0.03108686326213836	-0.00926012500810015	-0.00705020669003232	0.002345693993812279	0.003591992572123102	0.005302458129730214	0.004469737721212994	0.002932139829074231	-0.002437624637935292	-0.006959568495628846	-0.002447175911814799	0.01215507113976463	0.0002565285845570293	0.001232498569068384	-0.0002015031155082906
0.09999999999999999	-0.3637516081745689	-0.1540286787620963	0.05793271604424539	0.0002233276589939834	0.4464078263729097	0.009368301179064406	0.01875238109991922	0.004431873273490552	0.0007262101639496935	-0.0002242015581977579	-2.333692406347928e-05	0.003019541691414428	-0.0005351019254136161	-0.0001261793054704497	0.02145458199568888	0.0002538904337932281	-0.001057298545542899	-0.002775713536044689	-2.298853220330529e-05	0.003735285740050164	-0.0009372236682937521	-0.0001283411299132828	-0.07584661110316958	-0.2777299479633621	-0.02277453868111779	0.01915356509414034	-0.008465252415932588	-0.03281786969960015	-0.01412275291745761	-0.02141098491332786	-0.007232233388425688	-0.027422059172955	-0.006536266699502468	-0.01152664382441028	-0.005363210180890446	0.01363098666271504	0.0002276729949059428	0.001434689885587077	-0.0005175720510818926
0.105	-0.3642623756406443	-0.1692293591597245	0.0513584945550415	-0.008958884496180297	0.4490360818714481	0.007252652101980563	0.02029994028134708	0.006547264069867743	0.0001466459762398013	-0.002185049354095222	-2.394873929580769e-05	0.003352000901470552	-0.0007631540911673118	-0.000132932602559564	0.02213757634053173	0.0007136613602969876	-0.0005774213816068035	-0.003475288354242412	-2.250985802895519e-05	0.003698971244004061	-0.000938418914956737	-0.0001269735438100728	-0.07481957515700806	-0.2868435613342326	-0.02347862892139312	0.006268890387497248	-0.003705102343603715	-0.01630451966305724	-0.00899784563714884	-0.01134294916674474	-0.006285731014102785	-0.01078029832739016	-0.008403830773785859	-0.01049936609541713	-0.005698406713014745	0.012143276100089	0.000178349215014173	0.001230865294146268	-0.0005507271612451647
0.11	-0.3647731431067199	-0.1844300395573528	0.04478427306583761	-0.01814109665135458	0.4516643373699865	0.005137003024896718	0.02184749946277493	0.008662654866244932	-0.0004329182114700909	-0.004145897149992687	-2.45605545281361e-05	0.003684460111526675	-0.0009912062569210074	-0.0001396858996486782	0.02282057068537459	0.001173432286800747	-9.754421767070809e-05	-0.004174863172440137	-2.203118385460509e-05	0.003662656747957959	-0.0009396141616197218	-0.0001256059577068628	-0.07379253921084657	-0.2959571747051032	-0.02418271916166845	-0.00661578431914584	0.001055047728725159	0.0002088303734856604	-0.003872938356840066	-0.001274913420161629	-0.005339228639779882	0.005861462518174681	-0.01027139484806925	-0.009472088366423976	-0.006033603245139044	0.01065556553746296	0.0001290254351224032	0.001027040702705459	-0.0005838822714084366
0.115	-0.3606521578757193	-0.1893983782723193	0.0360890847495546	-0.01817294076106109	0.4522370713983104	0.002612995826200535	0.02135320703012384	0.009940861735248392	9.999754110199822e-05	-0.004085529109824376	-2.474028020373097e-05	0.003589933118481847	-0.0007611593345123542	-0.000141733737235981	0.01975860424226806	0.0005993825406060317	-0.0005049836536630825	-0.002837807247814478	-2.174047911180727e-05	0.00360280788513426	-0.001031222699571941	-0.0001211715067941853	-0.0664457054684913	-0.3040716441986869	-0.02234643469807856	0.001376184910487349	0.007901169037732362	-0.01055499900531548	-0.01362639376815023	-0.0104672669023762	-0.0104392532934822	-0.00253687040880749	-0.01052929293357919	-0.009401847447020193	-0.006068350507692584	0.01213857750579972	0.0001572901301634374	0.00123991914240375	-0.00059134328962654
0.12	-0.3565311726447187	-0.1943667169872857	0.02739389643327158	-0.01820478487076762	0.4528098054266343	8.898862750435051e-05	0.02085891459747275	0.01121906860425185	0.0006329132936740874	-0.004025161069656064	-2.492000587932584e-05	0.003495406125437019	-0.000531112412103701	-0.0001437815748232838	0.01669663779916154	2.533279441131635e-05	-0.000912423089655457	-0.001500751323188821	-2.144977436900944e-05	0.003542959022310561	-0.001122831237524161	-0.0001167370558815079	-0.05909887172613602	-0.3121861136922706	-0.02051015023448867	0.009368154140120539	0.01474729034673956	-0.02131882838411661	-0.02337984917946039	-0.01965962038459076	-0.01553927794718453	-0.01093520333578966	-0.01078719101908913	-0.009331606527616408	-0.006103097770246124	0.01362158947413649	0.0001855548252044715	0.001452797582102041	-0.0005988043078446434
0.125	-0.3531976299736091	-0.1939681308308726	0.01163688030010982	-0.01788920835949886	0.4558018337621448	-0.01074918380043569	0.02505131131658836	0.006823606741656187	0.0003096241429026069	-0.005118104810347033	-2.538103460421874e-05	0.003668740851891103	-0.0008417640441815661	-0.000141039800586735	0.0154531055475727	0.001474386753958538	-0.0005260854695949751	-0.0004747094437834633	-2.222741504379077e-05	0.003604161872505809	-0.0009743501671708493	-0.000126065342743426	-0.06028698920768324	-0.3082399701440884	-0.02650815339023166	0.004529060236578142	0.001067677790244404	-0.01508703808664913	-0.009983613497500503	-0.01032106197821473	-0.005569454327996669	-0.009737035509854726	-0.008801672160221789	-0.008467014286561991	-0.004824109950223178	0.01301589148160356	0.0002188725993515435	0.001363907623335532	-0.0004329350216780384
0.13	-0.3498640873024995	-0.1935695446744595	-0.004120135833051939	-0.0175736318482301	0.4587938620976553	-0.02158735622837573	0.02924370803570397	0.002428144879060524	-1.366500786887361e-05	-0.006211048551038003	-2.584206332911165e-05	0.003842075578345188	-0.001152415676259431	-0.0001382980263501862	0.01420957329598386	0.002923440713505759	-0.0001397478495344932	0.0005513324356218939	-2.300505571857209e-05	0.003665364722701056	-0.0008258690968175375	-0.000135393629605344	-0.06147510668923045	-0.3042938265959063	-0.03250615654597465	-0.0003100336669642542	-0.01261193476625076	-0.008855247789181649	0.003412622184459389	-0.0009825035718387036	0.00440036929119119	-0.008538867683919791	-0.006816153301354453	-0.007602422045507578	-0.003545122130200232	0.01241019348907064	0.0002521903734986155	0.001275017664569023	-0.0002670657355114335
0.135	-0.3469473046435391	-0.1897893558450392	-0.01877135477974968	-0.01505386444694699	0.4621388333964472	-0.03116421695251083	0.03183703217234334	-0.001570954120803836	-1.175788469488981e-05	-0.005824176314811585	-2.549009401050541e-05	0.003719540592639856	-0.001278772675102988	-0.0001289834201727418	0.01651978116388462	0.005046254216156561	-2.998629314849783e-05	-0.0002717627216021713	-2.379309933538621e-05	0.003754690338417602	-0.0006224786620685149	-0.0001438012454538905	-0.06545241533961815	-0.2997014839938772	-0.04196413064469769	-0.006815911245296375	-0.002721506185253215	-0.0009533400656153276	0.0008141613718439944	0.001746628933239794	0.001281407549337576	0.001223786994150336	-0.007633690680377542	-0.007158385517936852	-0.003877931445829842	0.01161373659692048	0.0002121363571486949	0.001160399798512469	-0.0003122402936686437
0.14	-0.3440305219845786	-0.186009167015619	-0.03342257372644742	-0.01253409704566388	0.465483804695239	-0.04074107767664593	0.0344303563089827	-0.005570053120668195	-9.850761520906002e-06	-0.005437304078585167	-2.513812469189917e-05	0.003597005606934525	-0.001405129673946544	-0.0001196688139952973	0.01882998903178539	0.007169067718807365	7.977526323749754e-05	-0.001094857878826236	-2.458114295220034e-05	0.003844015954134148	-0.0004190882273194923	-0.000152208861302437	-0.06942972399000583	-0.2951091413918482	-0.05142210474342073	-0.01332178882362849	0.007168922395744325	0.006948567657950993	-0.0017842994407714	0.004475761438318291	-0.001837554192516039	0.01098644167222046	-0.008451228059400632	-0.006714348990366125	-0.004210740761459451	0.01081727970477033	0.0001720823407987742	0.001045781932455915	-0.000357414851825854
0.145	-0.3406806999141306	-0.1807609081956457	-0.04475294235153101	-0.01140176520001729	0.4641637727495863	-0.03970658405898993	0.03359087140784367	0.0001057535356798666	0.0001935989342498818	-0.006558214773134109	-2.611712365609738e-05	0.003791104747924864	-0.001214457574985064	-0.0001330110125431724	0.02017854201004684	0.002413028197303786	-0.0001956055866396021	-0.001377156486886388	-2.392572058659917e-05	0.003835912363332267	-0.0007139901519713719	-0.0001430916089200937	-0.07188685200587933	-0.2969461003014819	-0.05945812855215944	-0.003928785621293355	0.01641726606405041	-0.006180986207099487	-0.01076181806877735	-0.005148479007026233	-0.004376402724858681	-0.002194055623804039	-0.009194717694041874	-0.009044035337934103	-0.005003101590408909	0.01177252184203733	0.0001831707781403662	0.001184791261790647	-0.0004330893109326874
0.15	-0.3373308778436826	-0.1755126493756725	-0.0560833109766146	-0.0102694333543707	0.4628437408039335	-0.03867209044133392	0.03275138650670464	0.005781560192027929	0.0003970486300206695	-0.00767912546768305	-2.709612262029559e-05	0.003985203888915204	-0.001023785476023584	-0.0001463532110910475	0.02152709498830829	-0.002343011324199792	-0.0004709864365167016	-0.001659455094946539	-2.327029822099801e-05	0.003827808772530386	-0.001008892076623252	-0.0001339743565377504	-0.07434398002175281	-0.2987830592111155	-0.06749415236089813	0.005464217581041785	0.0256656097323565	-0.01931054007214997	-0.0197393366967833	-0.01477271945237076	-0.006915251257201323	-0.01537455291982854	-0.009938207328683116	-0.01137372168550208	-0.005795462419358364	0.01272776397930433	0.0001942592154819583	0.001323800591125379	-0.0005087637700395208
0.155	-0.3364361848375839	-0.1674078339939967	-0.06328785329450226	-0.01540839577486821	0.4609077633007316	-0.04189983467843376	0.03471211221629025	0.005630386849237513	3.194819080545053e-05	-0.007434006825603379	-2.602605766177302e-05	0.003779670428522158	-0.001121294796084364	-0.0001338361499947825	0.02311416849659206	-0.001022910689932736	0.0001174474695932543	-0.00251291342217455	-2.372632649644689e-05	0.003790818063596818	-0.0007266764886593957	-0.0001389168970295102	-0.08437609357887202	-0.2994158829046549	-0.08018889462747765	-0.004038331855430741	0.01438082303812855	-0.008449645857737905	-0.01081317543652717	-0.005150337098029418	-0.003034289610972279	-0.004163329945294259	-0.007663235013216645	-0.00755930816811099	-0.003842839974613351	0.01148667220164696	0.0002184211627668054	0.001154897999941911	-0.0002907741349214775
0.16	-0.3355414918314852	-0.1593030186123209	-0.07049239561238994	-0.02054735819536572	0.4589717857975297	-0.04512757891553361	0.03667283792587585	0.005479213506447096	-0.0003331522484097684	-0.007188888183523708	-2.495599270325045e-05	0.003574136968129111	-0.001218804116145144	-0.0001213190888985175	0.02470124200487584	0.0002971899443343205	0.0007058813757032102	-0.003366371749402563	-2.418235477189577e-05	0.003753827354663251	-0.0004444609006955399	-0.00014385943752127	-0.09440820713599123	-0.3000487065981943	-0.09288363689405717	-0.01354088129190327	0.003096036343900597	0.002411248356674158	-0.001887014176271049	0.00447204525631192	0.0008466720352567657	0.007047893029240023	-0.005388262697750174	-0.003744894650719898	-0.001890217529868338	0.0102455804239896	0.0002425831100516525	0.000985995408758442	-7.27844998034341e-05
0.165	-0.3354325990497482	-0.1498900564018222	-0.07891574939082785	-0.01421162201605235	0.4556515082032936	-0.02951123840509638	0.03197939803345978	0.01652152844682052	-0.0003148990399882453	-0.008516534207561982	-2.684339840450263e-05	0.004023934276460182	-0.0007566802915395843	-0.0001544166423797861	0.02183233109169437	-0.01163864509033564	0.0002847261202730446	-0.002129446351665949	-2.225326213725363e-05	0.003757338104253768	-0.00124160711774219	-0.0001246949504933561	-0.09246231912632451	-0.3015756265838766	-0.09916813353702027	0.009943811419908015	0.03325786370585949	-0.02885859445531642	-0.02938677890997462	-0.0223636124992505	-0.01141288797480337	-0.02196617127354533	-0.007913991464099523	-0.009572942612930449	-0.004557552435208265	0.01335146227341026	0.0002500559667144667	0.001428495783980272	-0.0003726289251589386
0.17	-0.3353237062680112	-0.1404770941913235	-0.08733910316926574	-0.007875885836738981	0.4523312306090576	-0.01389489789465914	0.02728595814104371	0.02756384338719393	-0.0002966458315667222	-0.009844180231600256	-2.873080410575482e-05	0.004473731584791254	-0.0002945564669340242	-0.0001875141958610547	0.01896342017851291	-0.02357448012500559	-0.0001364291351571211	-0.0008925209539293362	-2.032416950261149e-05	0.003760848853844286	-0.00203875333478884	-0.0001055304634654423	-0.09051643111665782	-0.3031025465695589	-0.1054526301799834	0.0334285041317193	0.06341969106781839	-0.060128437267307	-0.05688654364367819	-0.04919927025481292	-0.02367244798486351	-0.05098023557633069	-0.01043972023044887	-0.015400990575141	-0.007224887340548191	0.01645734412283092	0.0002575288233772809	0.001870996159202103	-0.0006724733505144431
0.175	-0.3431509351253123	-0.1324872087651601	-0.08010959662523948	-0.02245189237024202	0.4564888906096103	-0.03365201946597336	0.03806398027606295	0.007185286451779844	0.00144687018499975	-0.009171654243721728	-2.563429910402113e-05	0.003788270976445381	-0.0008981159010285617	-0.0001407927633549716	0.02411036773683745	-0.007881340173000087	-0.000947803827955962	-0.004349239524864877	-2.318827210116769e-05	0.003682295705714533	-0.001038042900622222	-0.0001188743408433706	-0.1121967566298916	-0.2847396988225781	-0.1198294702546091	-0.00416230624123609	0.05251631580750236	-0.01203270545104577	-0.03230043673636308	-0.01546695010379305	-0.0160254041352093	-0.002349904845491343	-0.01092469224027071	-0.009074769328333284	-0.005821038442988054	0.0113037442493479	0.0001799941292167243	0.001142066466873498	-0.0005127896828944519
0.18	-0.3509781639826134	-0.1244973233389968	-0.07288009008121321	-0.03702789890374505	0.4606465506101631	-0.05340914103728758	0.04884200241108221	-0.01319327048363424	0.003190386201566223	-0.008499128255843201	-2.253779410228744e-05	0.003102810368099508	-0.001501675335123099	-9.40713308488885e-05	0.029257315295162	0.007811799779005421	-0.001759178520754803	-0.007805958095800417	-2.605237469972389e-05	0.00360374255758478	-3.733246645560467e-05	-0.000132218218221299	-0.1338770821431254	-0.2663768510755973	-0.1342063103292348	-0.04175311661419148	0.04161294054718635	0.03606302636521545	-0.007714329829047967	0.01826537004722681	-0.008378360285555097	0.046280425885348	-0.01140966425009256	-0.002748548081525571	-0.004417189545427917	0.00615014437586487	0.0001024594350561677	0.0004131367745448933	-0.0003531060152744606
0.185	-0.3412041685489663	-0.1235759499785291	-0.04571256528493616	-0.03602375304657351	0.4408572714997151	-0.03835537686126184	0.03555507405614745	-0.001414673113645068	-0.001172191995390924	-0.005555082904508459	-2.314658098108868e-05	0.003292005590815906	-0.001286682490222223	-0.000105860681021103	0.02280459270864574	-0.008481259955933292	0.001606796280737293	-0.006323330655515954	-2.329451806378326e-05	0.004412327313192018	-0.0005377969521413706	-0.0001715928769052594	-0.1213810350293418	-0.277907347759098	-0.1131111655398051	-0.007625343533561093	0.003557346123575065	-0.00909718543101308	-0.008156464197504777	-0.002553079561525427	0.0007824866358927545	-0.005573872714905145	-0.00757507041548999	0.005067109585497075	-0.001363305749685471	0.006786795287748403	0.0001147874684964111	0.0005384319354087837	-9.524564832671928e-05
0.19	-0.3314301731153193	-0.1226545766180615	-0.01854504048865911	-0.03501960718940199	0.4210679923892671	-0.02330161268523609	0.02226814570121271	0.01036392425634411	-0.005534770192348071	-0.002611037553173717	-2.375536785988991e-05	0.003481200813532304	-0.001071689645321348	-0.0001176500311933174	0.01635187012212948	-0.02477431969087201	0.00497277108222939	-0.004840703215231492	-2.053666142784264e-05	0.005220912068799257	-0.001038261437827137	-0.0002109675355892198	-0.1088849879155582	-0.2894378444425987	-0.09201602075037535	0.02650242954706929	-0.03449824830003622	-0.05425739722724161	-0.008598598565961586	-0.02337152917027766	0.009943333557340605	-0.0574281713151583	-0.003740476580887423	0.01288276725251972	0.001690578046056975	0.007423446199631936	0.0001271155019366543	0.000663727096272674	0.0001626147186210221
0.195	-0.318459836224008	-0.08908231405797271	-0.0560411913347203	0.003027580746476669	0.3863173965851156	0.07248641605495734	0.01869228000747384	0.04016770216293581	-0.001162290523870801	-0.009283197983805572	-2.000127343449311e-05	0.003274046257098959	0.0005991111343528751	-0.0001603161162997184	-0.03020910679067632	-0.05966018046190653	-0.001492987052370474	0.00856314704729871	-1.774269899140122e-05	0.001874051585025894	-0.00342870563581016	2.377032245689807e-05	-0.04900070751237125	-0.3274420846084499	-0.07886962653907334	0.01943338312339958	0.01367322907138539	-0.039772725389773	-0.01279727507686403	-0.020465725345431	0.002709959354164415	-0.04006442160772502	0.007912752249883812	0.006114468820770039	0.003926022109583151	0.01763757056735797	0.0005096387540975917	0.001952307013159023	0.0003725447091090386
0.2	-0.3054894993326967	-0.05551005149788393	-0.09353734218078148	0.04107476868235533	0.3515668007809642	0.1682744447951508	0.01511641431373497	0.06997148006952751	0.00321018914460647	-0.01595535841443742	-1.624717900909632e-05	0.003066891700665614	0.002269911914027098	-0.0002029822014061194	-0.07677008370348212	-0.09454604123294105	-0.007958745186970338	0.02196699730982891	-1.49487365549598e-05	-0.00147280889874747	-0.005819149833793184	0.0002585081805030159	0.01088357289081565	-0.3654463247743012	-0.06572323232777133	0.01236433669972987	0.06184470644280699	-0.02528805355230439	-0.01699595158776649	-0.01755992152058434	-0.004523414849011774	-0.02270067190029174	0.01956598108065505	-0.0006538296109796416	0.006161466173109328	0.027851694935084	0.0008921620062585291	0.003240886930045372	0.0005824746995970552
0.205	-0.315747925987504	-0.08592082271610778	-0.03913693262676469	-0.00505740092018957	0.3972918892819955	-0.02658915537463252	0.02325904968404768	0.002829116854304219	-0.0006178251856460873	-0.003354819047762299	-2.224264427302635e-05	0.002865222396544554	-0.001032139518596683	-9.615263829429979e-05	0.01916014147097575	0.005567412604683962	5.874487535934126e-05	-0.001206203791452018	-2.088271795471915e-05	0.003163845270723597	-0.0004185880938850982	-0.0001216449903582681	-0.09580904099589808	-0.2078562131414426	-0.08919261621309926	-0.002419535911258436	0.02687412370645209	-0.008145049918186029	-0.01178306436647809	-0.006707381109178017	-0.003446088417040324	-0.006706403088254752	-0.009687494020666741	-0.009434286500324615	-0.006291415403527234	0.01124985599914526	0.0001844231457165046	0.001201739802623213	-0.0005979876313981685
0.21	-0.3260063526423112	-0.1163315939343316	0.01526347692725209	-0.05118957052273447	0.4430169777830268	-0.2214527555444158	0.03140168505436039	-0.06431324636091908	-0.004445839515898645	0.009245720318912829	-2.823810953695638e-05	0.002663553092423493	-0.004334190951220464	1.067692481751979e-05	0.1150903666454336	0.105680866442309	0.008076234937689022	-0.02437940489273295	-2.68166993544785e-05	0.007800499440194664	0.004981973646022987	-0.0005017981612195522	-0.2025016548826118	-0.05026610150858407	-0.1126620000984272	-0.01720340852224675	-0.008096459029902813	0.008997953715932332	-0.006570177145189685	0.004145159302228302	-0.002368761985068875	0.00928786572378223	-0.03894096912198853	-0.01821474338966959	-0.01874429698016379	-0.005351982936793467	-0.00052331571482552	-0.0008374073247989461	-0.001778449962393392
0.215	-0.304658038787627	-0.07695184732177934	-0.02435914785810223	-0.01144553975259809	0.3917784404189739	-0.1127297101767327	0.01852480942459589	-0.02223784782982729	0.001070358970674691	0.004788524151046774	-2.388643117531248e-05	0.003065712557357184	-0.002080567503762211	-8.897518051845223e-05	0.0621258241506404	0.06335303618206306	0.0009336261564754081	-0.007556709079739769	-2.158064639172374e-05	0.004684495256577402	0.001922286534941861	-0.0002670592072774429	-0.1388384635844828	-0.09617118432244959	-0.1013207706984471	-0.005929931985280308	0.06295288119926774	-0.0005442763453582533	-0.0377555063248566	-0.01616917034102168	-0.02557345864482165	0.009864758560007918	-0.01918167831141302	-0.02000429462947154	-0.01110344051068473	0.0006336452216148623	-0.0002043856729109245	-0.0001941647410700301	-0.0009987253427872652
0.22	-0.2833097249329428	-0.03757210070922708	-0.06398177264345654	0.0282984910175383	0.3405399030549209	-0.004006664809049603	0.005647933794831384	0.01983755070126449	0.006586557457248027	0.0003313279831807187	-1.953475281366858e-05	0.003467872022290874	0.0001730559436960419	-0.0001886272858544242	0.009161281655847186	0.02102520592181713	-0.006208982624738205	0.00926598673325341	-1.634459342896898e-05	0.00156849107296014	-0.001137400576139265	-3.23202533353336e-05	-0.07517527228635366	-0.1420762671363151	-0.08997954129846691	0.005343544551686132	0.1340022214284383	-0.01008650640664884	-0.06894083550452353	-0.03648349998427165	-0.04877815530457444	0.01044165139623361	0.00057761249916248	-0.02179384586927348	-0.003462584041205662	0.006619273380023192	0.0001145443690036709	0.000449077842658886	-0.0002190007231811384
0.225	-0.2719306888251353	-0.03063072397626565	-0.04648746409603204	0.01502199763383088	0.299044365774028	-0.009150469086755155	-0.001628207883900041	0.0170236119650852	0.001066179597049015	0.002862044242103541	-1.685015107876388e-05	0.002482872993619567	-0.0002022852286825808	-0.000120337017257973	0.00200727439601484	0.01629728437860635	-0.00156527072679917	0.008379491144602486	-1.425635468187395e-05	0.001727164094996451	-0.0004943798454724137	-6.754009089904427e-05	-0.07602226956025569	-0.1335456721494583	-0.08172200378796358	-0.00736507296365646	0.06432268903905064	0.003525938121589043	-0.02648124330865216	-0.008836319199627615	-0.01687832555912501	0.01061008511239056	0.002776389957354487	-0.01068399915550597	-0.0004359503723413548	0.00763987508006116	0.0002107577671853529	0.0007033662953591332	7.392065545129788e-05
0.23	-0.2605516527173277	-0.02368934724330422	-0.02899315554860752	0.001745504250123469	0.2575488284931351	-0.0142942733644607	-0.008904349562631466	0.01420967322890592	-0.004454198263149997	0.005392760501026363	-1.416554934385917e-05	0.001497873964948259	-0.0005776264010612034	-5.204674866152168e-05	-0.005146732863817506	0.01156936283539556	0.003078441171139865	0.007492995555951563	-1.216811593477893e-05	0.001885837117032761	0.0001486408851944372	-0.0001027599284627549	-0.07686926683415771	-0.1250150771626014	-0.07346446627746028	-0.02007369047899905	-0.005356843350337004	0.01713838264982692	0.01597834888721921	0.01881086158501642	0.01502150418632442	0.01077851882854751	0.004975167415546494	0.0004258475582615426	0.002590683296522953	0.008660476780099128	0.0003069711653670349	0.0009576547480593804	0.0003668420340837341
0.235	-0.2517368646288365	-0.008763551975262499	-0.03247108943719636	-0.009443100772180364	0.2191139857843842	-0.01143954311589523	-0.01505176585647266	0.01400448886926912	-0.001883996003425958	0.005661587656993009	-1.263118689317462e-05	0.001720989825414224	-0.0002749414405515536	-7.888829245662224e-05	-0.0088700500647176	0.005009024306545905	0.0005142114927849403	0.006406761372790534	-9.523071657129256e-06	0.001711501561847176	-0.0004632013358829889	-7.270486880890945e-05	-0.08597428000899457	-0.1077039532285558	-0.08678350954362765	-0.003513004105589879	0.02913982111639038	-0.005247495952808921	-0.01235911225433226	-0.004821688280437094	-0.002443199329242719	-0.004397473352908118	0.0008717192575501727	0.0001064363752776659	0.0009401312981503901	0.005457633090554586	0.0002026146756696891	0.0005470369060254647	0.0001729103435059067
0.24	-0.2429220765403452	0.006162243292779221	-0.0359490233257852	-0.0206317057944842	0.1806791430756333	-0.008584812867329764	-0.02119918215031385	0.01379930450963232	0.0006862062562980797	0.005930414812959655	-1.109682444249007e-05	0.001944105685880189	2.774351995809623e-05	-0.0001057298362517228	-0.0125933672656177	-0.001551314222303752	-0.002050018185569985	0.005320527189629506	-6.878027379479588e-06	0.001537166006661591	-0.001075043556960415	-4.264980915506395e-05	-0.09507929318383142	-0.09039282929451017	-0.100102552809795	0.0130476822678193	0.06363648558311778	-0.02763337455544477	-0.04069657339588374	-0.0284542381458906	-0.01990790284480986	-0.01957346553436375	-0.003231728900446149	-0.0002129748077062109	-0.0007104207002221721	0.002254789401010045	9.825818597234334e-05	0.000136419063991549	-2.102134707192067e-05
0.245	-0.2316861796219946	0.02538297115359757	-0.05018612797472636	-0.03360295902484739	0.137290231413958	-0.01841907518386413	-0.01892639139347007	0.0007624422057700308	0.001370609637659567	0.007966386063873626	-6.054696579009467e-06	0.0007275176596156674	-6.829527305717527e-05	-4.679275892173428e-05	-0.01667448251880815	0.004301295652950136	-0.001423222511576354	0.004917116400712001	-5.50123559282656e-06	0.0008726516969206306	-0.0002760935387305442	-3.183692235992828e-05	-0.1147762924897147	-0.06930407260090159	-0.126499820062711	-0.004649523563625684	0.05810975077357185	-0.006539925236678442	-0.03028127454534599	-0.0130146055443585	-0.01596337522585454	0.001728026602882403	-0.004057223872379732	0.004832579984145526	-0.0002354780856706913	-0.0005002899939165979	-5.275687800880594e-05	-0.0002011370409239067	7.40875935296086e-06
0.25	-0.2204502827036441	0.04460369901441592	-0.06442323262366752	-0.04657421225521059	0.09390131975228282	-0.02825333750039849	-0.01665360063662629	-0.01227442009809226	0.002055013019021054	0.0100023573147876	-1.012568715528862e-06	-0.0004890703666488542	-0.0001643340660724468	1.214431840825423e-05	-0.02075559777199861	0.01015390552820403	-0.0007964268375827239	0.004513705611794495	-4.124443806173532e-06	0.0002081373871796702	0.0005228564794993268	-2.102403556479261e-05	-0.134473291795598	-0.04821531590729299	-0.1528970873156271	-0.02234672939507066	0.05258301596402592	0.01455352408208788	-0.01986597569480825	0.002425027057173602	-0.01201884760689922	0.02302951874012855	-0.004882718844313316	0.009878134775997263	0.0002394645288807897	-0.00325536938884324	-0.0002037719419899552	-0.0005386931458393625	3.583886577784239e-05
0.255	-0.199083370134061	0.04819691458836151	-0.06999642731194496	-0.05093933853442476	0.04068706335132277	-0.02302940180487578	-0.02915266406848595	-0.006279152862428496	0.001248466189273838	0.008804779673588619	-1.711674688868347e-06	0.0003369795984209399	1.778687384939361e-06	-3.050226066834714e-05	-0.02397758537776745	-0.008824947942120858	-0.001216999902611403	0.002422074163923531	5.342169165371335e-07	0.0006581264817196085	-0.0005928663387440139	-1.454655882345044e-05	-0.138065027843662	-0.03242356158253173	-0.1579654041516365	0.003951091907778018	0.07036512862809505	-0.02262725999245809	-0.04214246250360022	-0.02415349383154638	-0.01789231360299159	-0.01523687114944548	-0.005462248421223022	0.008997034871360164	0.0002698867016678606	-0.004247457121531842	-0.0001228342485358928	-0.0005745240167650691	4.498788825453899e-05
0.26	-0.177716457564478	0.05179013016230708	-0.07556962200022241	-0.05530446481363893	-0.01252719304963728	-0.01780546610935307	-0.0416517275003456	-0.0002838856267647372	0.0004419193595266218	0.007607202032389639	-2.410780662207833e-06	0.001163029563490734	0.0001678914408423255	-7.31488397449485e-05	-0.02719957298353629	-0.02780380141244574	-0.001637572967640082	0.000330442716052567	5.192877639247799e-06	0.001108115576259547	-0.001708589156987355	-8.069082082108273e-06	-0.1416567638917261	-0.01663180725777047	-0.1630337209876458	0.0302489132106267	0.08814724129216416	-0.05980804406700406	-0.0644189493123922	-0.05073201472026636	-0.02376577959908396	-0.05350326103901951	-0.00604177799813273	0.008115934966723066	0.0003003088744549315	-0.005239544854220444	-4.189655508183033e-05	-0.0006103548876907758	5.413691073123558e-05
0.265	-0.1590486134661538	0.06018147274667798	-0.08677291296817266	-0.05806097318745968	-0.06902977760250635	-0.01416282932927825	-0.03090216419122198	-0.01854442351102381	0.001138679677902657	0.005491812382741436	5.431328034577343e-06	-0.0002745127023115797	-7.40226776406853e-05	4.696401743910673e-06	-0.03611019612803394	-0.0277029468526098	-0.003252601411748976	-0.002740995573298794	4.932423384043837e-06	-0.000413555325569172	-0.001047578449701137	6.247134600589244e-05	-0.1349645770405851	-0.0164462827785469	-0.1645820543426094	0.003707748348102031	0.068742219337843	-0.02269178394269843	-0.03764274856454754	-0.02210536706493652	-0.01493060414347242	-0.015926455970049	0.003276764627276421	0.01826500831333451	0.007101456838856935	-0.007964598056352801	-4.302564592318195e-05	-0.001063325444361582	0.0008103198869706919
0.27	-0.1403807693678296	0.06857281533104888	-0.09797620393612294	-0.06081748156128044	-0.1255323621553754	-0.01052019254920342	-0.02015260088209835	-0.03680496139528289	0.001835439996278691	0.003376422733093232	1.327343673136252e-05	-0.001712054968113893	-0.0003159367961236961	8.254164323276984e-05	-0.04502081927253159	-0.02760209229277385	-0.00486762985585787	-0.005812433862650155	4.671969128839875e-06	-0.001935226227397891	-0.0003865677424149197	0.0001330117740938931	-0.1282723901894443	-0.01626075829932334	-0.1661303876975729	-0.02283341651442264	0.04933719738352185	0.01442447618160721	-0.0108665478167029	0.006521280590393323	-0.006095428687860883	0.02165034909892151	0.01259530725268557	0.02841408165994596	0.01390260480325894	-0.01068965125848516	-4.415473676453358e-05	-0.001516296001032388	0.001566502863210148
0.275	-0.1029217536740953	0.05435495964450424	-0.08436508660177164	-0.05196186079651261	-0.150780610120764	-0.02595943774293972	-0.03391159213088735	-0.02908853803049343	0.002605770446609662	0.008738756056324813	1.206551697734586e-05	-0.001580469365585182	0.0001136088313015952	5.598069890222149e-05	-0.03311530634018018	-0.0181274797018773	-0.005008209443522881	-0.005464963777106251	8.453210468674734e-06	-0.0001428731940853128	-0.0007366708638267922	4.133540411022427e-05	-0.1303913616748816	0.01118846132580642	-0.1561299677179111	0.01294628803491448	0.07242217153458665	-0.03408661677158035	-0.04618836072160602	-0.03327854470840394	-0.02179651553411087	-0.02565851216338478	-0.008426513368975366	0.01824612902179415	-0.0001395203292275443	-0.01080766400466999	-0.0004137934124648441	-0.001338600093455341	-0.0001432127039447293
0.28	-0.06546273798036094	0.04013710395795959	-0.07075396926742035	-0.04310624003174478	-0.1760288580861525	-0.04139868293667603	-0.04767058337967636	-0.02137211466570398	0.003376100896940633	0.01410108937955639	1.085759722332919e-05	-0.001448883763056471	0.0005431544587268865	2.941975457167314e-05	-0.02120979340782876	-0.008652867110980742	-0.005148789031187892	-0.005117493691562347	1.223445180850959e-05	0.001649479839227265	-0.001086773985238665	-5.03409658734446e-05	-0.132510333160319	0.03863768095093618	-0.1461295477382493	0.04872599258425161	0.09550714568565141	-0.0825977097247679	-0.08151017362650913	-0.0730783700072012	-0.03749760238036086	-0.07296737342569107	-0.0294483339906363	0.008078176383642343	-0.01418164546171403	-0.01092567675085482	-0.0007834320881651546	-0.001160904185878294	-0.001852928271099607
0.285	-0.05768041129419624	0.009411342362328696	-0.05436574357089297	-0.03392596354404678	-0.1658171755400125	-0.08943355831230572	-0.03721301910941996	-0.0297820624644314	0.005712151073393271	0.008911237352026931	7.084373398611973e-06	-0.0006746737779849369	-0.0004268932537016738	2.280859415040082e-05	0.02620398737103357	0.0203912093377632	-0.004246004779290637	-0.01804009774835056	8.228217277720336e-06	-0.002180932137889322	0.000930363462770401	0.0001121544939312701	-0.1153854766687891	0.08438982867724928	-0.1018545003253768	0.02280641850718306	0.07465896919563778	-0.04001507565391183	-0.04776263440836222	-0.03720308640344835	-0.02072507953080083	-0.03435619807741511	-0.01738019227332154	-0.002989744513418144	-0.00620508868181307	-0.01860447598824312	-0.0005695741053370643	-0.00238626709245036	-0.0006061857065574673
0.29	-0.04989808460803154	-0.0213144192333022	-0.03797751787436559	-0.02474568705634879	-0.1556054929938726	-0.1374684336879354	-0.02675545483916356	-0.03819201026315883	0.008048201249845909	0.003721385324497466	3.311149573894751e-06	9.953620708659745e-05	-0.001396940966130234	1.61974337291285e-05	0.07361776814989592	0.04943528578650715	-0.003343220527393382	-0.03096270180513877	4.221982746931078e-06	-0.006011344115005909	0.002947500910779467	0.0002746499537359847	-0.09826062017725928	0.1301419764035624	-0.05757945291250423	-0.003113155569885492	0.05381079270562412	0.002567558416944236	-0.01401509519021532	-0.001327802799695517	-0.00395255668124081	0.004254977270860833	-0.005312050556006785	-0.01405766541047863	0.001771468098087889	-0.02628327522563142	-0.0003557161225089739	-0.003611629999022425	0.0006405568579846717
0.295	-0.02229959024681433	-0.0189613395014616	-0.009477374600940473	-0.01162510759813824	-0.08689356115790545	-0.1112200824610647	-0.02968721532673276	-0.03660917623320396	0.0007731715698825995	0.01391044344573599	3.016369509598928e-06	-0.00249463044905663	-0.001070070928302	0.0001444289022467298	0.05031979360830078	0.04486372344630791	0.000863348092179029	-0.01905474658170052	3.187739501521681e-06	0.0004832633275231375	0.002372945372136157	-7.302825858452557e-05	-0.07668683341030459	0.09921419972160461	-0.03979082502994866	0.01350967254617176	0.02457799206445027	-0.02324752844291518	-0.02061089775333108	-0.02038706018873446	-0.01069287296928995	-0.02024745334930537	-0.06073510092755	-0.02642888438248494	-0.0367520288039585	0.001652303431800745	-0.0006996494468077152	0.0007418602554816416	-0.004179663692717299
0.3	0.005298904114402887	-0.016608259769621	0.01902276867248464	0.001495471860072318	-0.0181816293219383	-0.08497173123419403	-0.03261897581430196	-0.03502634220324907	-0.006501858110080709	0.02409950156697452	2.721589445303106e-06	-0.005088797105199858	-0.0007432008904737658	0.0002726603707643312	0.02702181906670564	0.04029216110610866	0.005069916711751441	-0.007146791358262257	2.153496256112283e-06	0.006977870770052183	0.001798389833492848	-0.0004207064709050359	-0.05511304664334989	0.06828642303964681	-0.0220021971473931	0.03013250066222901	-0.004654808576723586	-0.0490626153027746	-0.02720670031644684	-0.0394463175777734	-0.0174331892573391	-0.04474988396947158	-0.1161581512990932	-0.03880010335449124	-0.07527552570600489	0.02958788208923291	-0.001043582771106456	0.005095350509985708	-0.008999884243419269
