replay
version=1
nRows=109
nColumns=40
inDegrees=no
endheader
time	/jointset/ground_pelvis/pelvis_tilt/value	/jointset/ground_pelvis/pelvis_list/value	/jointset/ground_pelvis/pelvis_rotation/value	/jointset/ground_pelvis/pelvis_tx/value	/jointset/ground_pelvis/pelvis_ty/value	/jointset/ground_pelvis/pelvis_tz/value	/jointset/hip_r/hip_flexion_r/value	/jointset/hip_r/hip_adduction_r/value	/jointset/hip_r/hip_rotation_r/value	/jointset/walker_knee_r/knee_angle_r/value	/jointset/patellofemoral_r/knee_angle_r_beta/value	/jointset/ankle_r/ankle_angle_r/value	/jointset/subtalar_r/subtalar_angle_r/value	/jointset/mtp_r/mtp_angle_r/value	/jointset/hip_l/hip_flexion_l/value	/jointset/hip_l/hip_adduction_l/value	/jointset/hip_l/hip_rotation_l/value	/jointset/walker_knee_l/knee_angle_l/value	/jointset/patellofemoral_l/knee_angle_l_beta/value	/jointset/ankle_l/ankle_angle_l/value	/jointset/subtalar_l/subtalar_angle_l/value	/jointset/mtp_l/mtp_angle_l/value	/jointset/back/lumbar_extension/value	/jointset/back/lumbar_bending/value	/jointset/back/lumbar_rotation/value	/jointset/acromial_r/arm_flex_r/value	/jointset/acromial_r/arm_add_r/value	/jointset/acromial_r/arm_rot_r/value	/jointset/elbow_r/elbow_flex_r/value	/jointset/radioulnar_r/pro_sup_r/value	/jointset/radius_hand_r/wrist_flex_r/value	/jointset/radius_hand_r/wrist_dev_r/value	/jointset/acromial_l/arm_flex_l/value	/jointset/acromial_l/arm_add_l/value	/jointset/acromial_l/arm_rot_l/value	/jointset/elbow_l/elbow_flex_l/value	/jointset/radioulnar_l/pro_sup_l/value	/jointset/radius_hand_l/wrist_flex_l/value	/jointset/radius_hand_l/wrist_dev_l/value
0	-0.1363105751	-0.1603116403	-0.3034291019	1.167007587	1.046732768	-0.09918548445	0.2353744546	0.1756130624	0.2358110624	0.1500206681	0.1500206681	-0.1259226279	-0.1445641893	2.229184763e-06	0.2142345886	-0.163024647	-0.1517890463	0.1679145689	0.1679145689	-0.01364378967	-0.1233570014	5.86505826e-06	0.2318851943	0.9322516879	-0.8005473443	-0.6919184383	-1.294161444	-0.9720367169	0.5836378842	0.2073568157	0.4967459271	-0.784487304	0.05337829224	0.6747985535	-0.9991891455	1.64166623	0.1955668376	-0.0001713106039	0.0001302874375
0.002777778	-0.1361810797	-0.160567795	-0.3038393472	1.167215779	1.048339676	-0.09918419492	0.2349458825	0.1754847257	0.2358531587	0.1501280746	0.1501280746	-0.1259165372	-0.1445833669	2.277877085e-06	0.2137042918	-0.1629761071	-0.1517808099	0.1680213784	0.1680213784	-0.01362448301	-0.1234218929	6.026243853e-06	0.2326533619	0.9323480863	-0.800320038	-0.6926716889	-1.29475662	-0.9714143799	0.5833709745	0.2075696339	0.4968154209	-0.7844808559	0.05366001446	0.6748956883	-0.9990938772	1.641669463	0.195566029	-0.0001625484807	0.0001340853467
0.005555556	-0.1360546553	-0.1608349509	-0.3042340125	1.167419023	1.049851838	-0.09918187024	0.2345202584	0.175364875	0.2358891166	0.1502266097	0.1502266097	-0.1259205926	-0.1446013428	2.292389483e-06	0.2131832442	-0.162944785	-0.1517466508	0.1681271054	0.1681271054	-0.01361698223	-0.1234511733	6.088722536e-06	0.233417372	0.9324420132	-0.800148502	-0.6932939175	-1.295274577	-0.9708639217	0.5831426655	0.2080096286	0.4969933329	-0.7844443739	0.05391552853	0.6749433204	-0.9990242469	1.641675345	0.1955670271	-0.000156979809	0.0001372674709
0.008333333	-0.1359315738	-0.1611112844	-0.3046092412	1.167617621	1.051262243	-0.09917855323	0.2340964508	0.1752510173	0.235925215	0.1503201722	0.1503201722	-0.1259275009	-0.1446270408	2.357037212e-06	0.2126714507	-0.1629300785	-0.1516955949	0.168230106	0.168230106	-0.01361353583	-0.123468465	6.103157831e-06	0.2341741047	0.9325279029	-0.8000200819	-0.6938105844	-1.295730075	-0.9704098145	0.5829063823	0.2085374214	0.4972178627	-0.7843634365	0.05413939943	0.6749398749	-0.9989808421	1.641689426	0.1955687412	-0.0001531785514	0.0001387271371
0.011111111	-0.1358123262	-0.1613950938	-0.3049612434	1.167811863	1.05256394	-0.09917428705	0.2336735583	0.1751408604	0.2359674969	0.1504126151	0.1504126151	-0.1259302272	-0.1446692205	2.476048777e-06	0.212169202	-0.1629315863	-0.1516364205	0.1683288902	0.1683288902	-0.01360640166	-0.123497057	6.141847844e-06	0.2349207264	0.9326004913	-0.7999224347	-0.6942507398	-1.296137588	-0.9700765012	0.5826178583	0.2090089446	0.4974310874	-0.7842233048	0.05432638108	0.6748838625	-0.9989641446	1.641717063	0.1955701224	-0.0001497758224	0.0001374121623
0.013888889	-0.1356970434	-0.1616847083	-0.3052902121	1.168001484	1.053752973	-0.09916871416	0.2332516197	0.1750336586	0.2360177138	0.1505061953	0.1505061953	-0.1259259995	-0.1447305649	2.610859524e-06	0.2116773702	-0.1629495158	-0.151572804	0.1684237058	0.1684237058	-0.01359224642	-0.1235468001	6.218349732e-06	0.2356518832	0.9326569324	-0.799852973	-0.6946417907	-1.296509968	-0.9698549017	0.5822595119	0.2093479882	0.4976072543	-0.7840379364	0.05447645445	0.6747751656	-0.9989738376	1.641758839	0.1955704584	-0.0001463452749	0.0001329825319
0.016666667	-0.135585235	-0.1619784206	-0.30560153	1.168185491	1.054829286	-0.09916094822	0.232831758	0.1749305687	0.2360721275	0.1506011009	0.1506011009	-0.1259174691	-0.1448059	2.737442881e-06	0.2111974047	-0.1629847401	-0.1515018679	0.1685169912	0.1685169912	-0.01357352591	-0.1236100503	6.27742792e-06	0.2363587285	0.9326973638	-0.7998217802	-0.6950059948	-1.296858167	-0.9696923509	0.5818469597	0.2095775332	0.49775536	-0.7838618388	0.05459632205	0.6746154177	-0.9990086414	1.641809178	0.1955694467	-0.0001436272564	0.0001260015444
0.019444444	-0.135476418	-0.1622745618	-0.3059008923	1.168362843	1.055793079	-0.09915006916	0.232415213	0.1748329177	0.2361265919	0.1506973794	0.1506973794	-0.1259076638	-0.1448895805	2.843306964e-06	0.2107308664	-0.1630382242	-0.1514202483	0.1686113716	0.1686113716	-0.01355304558	-0.1236779496	6.301812514e-06	0.2370322972	0.9327221813	-0.7998398963	-0.6953650052	-1.297193058	-0.9695340047	0.5813978405	0.209732968	0.4978823037	-0.7837543337	0.05469309314	0.6744063809	-0.9990672241	1.641862075	0.1955668037	-0.0001423989659	0.0001170971028
0.022222222	-0.135370508	-0.1625715955	-0.3061935367	1.16853257	1.056644912	-0.09913532918	0.2320034891	0.1747418521	0.2361773342	0.150794896	0.150794896	-0.1258992771	-0.1449765697	2.925922573e-06	0.2102795947	-0.163110637	-0.1513250325	0.1687090449	0.1687090449	-0.01353323209	-0.1237426932	6.311055907e-06	0.2376644198	0.9327322843	-0.7999165885	-0.6957381344	-1.297523495	-0.9693317419	0.5809283932	0.2098505221	0.4979908857	-0.7837700067	0.05477362946	0.6741510493	-0.9991476745	1.641912147	0.1955623215	-0.0001432577097	0.0001068854294
0.025	-0.1352699683	-0.1628686948	-0.3064816115	1.168694236	1.057388029	-0.09911723623	0.2315996703	0.1746569087	0.2362236842	0.1508921802	0.1508921802	-0.1258924545	-0.1450659769	2.987527233e-06	0.2098468953	-0.1632001509	-0.1512170323	0.1688087374	0.1688087374	-0.01351396806	-0.123804542	6.316957432e-06	0.2382518342	0.9327318918	-0.8000472131	-0.6961286592	-1.297843325	-0.9690817184	0.5804458877	0.2099255162	0.4980903908	-0.783909974	0.05484333098	0.6738614257	-0.9992437954	1.641958711	0.1955563972	-0.0001457943071	9.58611699e-05
0.027777778	-0.1351784026	-0.1631653328	-0.3067659224	1.16884764	1.058026872	-0.09909685621	0.2312075542	0.1745769063	0.2362664011	0.1509871738	0.1509871738	-0.1258861978	-0.1451587821	3.033148442e-06	0.2094367194	-0.1633038185	-0.1510987673	0.1689076065	0.1689076065	-0.01349399744	-0.1238673577	6.318938578e-06	0.2387934675	0.9327266966	-0.8002208628	-0.6965325341	-1.298139735	-0.9687996231	0.5799533268	0.2099365263	0.4981917079	-0.784152366	0.05490692977	0.6735535554	-0.9993474705	1.642003201	0.195549687	-0.000149152325	8.4457988e-05
0.030555556	-0.1350994302	-0.1634609682	-0.3070473205	1.168992589	1.05856589	-0.09907525005	0.2308309607	0.1745006759	0.2363062871	0.1510778301	0.1510778301	-0.1258795098	-0.145255998	3.071176083e-06	0.2090530232	-0.1634186987	-0.1509727955	0.1690027999	0.1690027999	-0.01347205467	-0.1239349801	6.315567499e-06	0.2392882745	0.9327223878	-0.8004266144	-0.6969452988	-1.298400007	-0.9685009737	0.5794532558	0.2098666005	0.4983022302	-0.7844773547	0.05496913164	0.673243501	-0.999450592	1.642047064	0.1955428352	-0.0001524709396	7.310426014e-05
0.033333333	-0.1350365638	-0.1637547189	-0.3073285359	1.16912898	1.059009924	-0.09905315853	0.230473467	0.1744274207	0.2363438636	0.151162321	0.151162321	-0.1258721111	-0.1453576857	3.103293157e-06	0.2086992229	-0.1635422691	-0.1508410426	0.1690919218	0.1690919218	-0.01344725242	-0.1240092205	6.304162414e-06	0.2397348818	0.9327239636	-0.8006562436	-0.6973580888	-1.298618482	-0.9682024731	0.5789526493	0.2097143398	0.4984227029	-0.784847167	0.05503404523	0.6729452996	-0.9995463542	1.642090937	0.1955364033	-0.0001550991144	6.222779792e-05
0.036111111	-0.1349930401	-0.1640449611	-0.30761641	1.169256917	1.05936469	-0.09903061764	0.2301380528	0.1743571381	0.2363789688	0.1512392758	0.1512392758	-0.1258653086	-0.1454617567	3.118508127e-06	0.2083774969	-0.1636729105	-0.1507039704	0.1691735949	0.1691735949	-0.0134195625	-0.1240873983	6.277296162e-06	0.2401311559	0.9327348753	-0.8009075707	-0.6977527713	-1.298805178	-0.9679233759	0.5784690199	0.2095021147	0.4985475494	-0.7851789112	0.05510445506	0.6726684612	-0.9996308404	1.642133648	0.1955307819	-0.0001568520777	5.225855239e-05
0.038888889	-0.1349720013	-0.164329966	-0.3079183393	1.169376533	1.059636028	-0.09900756409	0.2298275549	0.1742899207	0.2364113662	0.151307373	0.151307373	-0.1258606169	-0.1455658697	3.117374598e-06	0.2080897855	-0.1638091083	-0.1505618549	0.1692465598	0.1692465598	-0.01338908554	-0.1241661771	6.222053828e-06	0.2404748029	0.9327583233	-0.8011792656	-0.6981095166	-1.298972466	-0.9676819554	0.5780209225	0.2092481443	0.4986764842	-0.7853804209	0.05518295921	0.6724218738	-0.9997005671	1.642173792	0.1955263405	-0.0001576075317	4.362562133e-05
0.041666667	-0.1349763695	-0.1646080574	-0.3082413418	1.169488007	1.059829821	-0.09898396262	0.229544529	0.1742258034	0.2364408945	0.1513653861	0.1513653861	-0.1258594472	-0.1456678638	3.111030444e-06	0.2078378665	-0.1639493096	-0.150415049	0.1693096262	0.1693096262	-0.01335589714	-0.1242423473	6.123943415e-06	0.2407637831	0.9327976136	-0.8014699002	-0.6984097926	-1.299132312	-0.9674936938	0.5776256324	0.2089615343	0.4988164451	-0.785363642	0.05527213074	0.6722139492	-0.9997522468	1.64221005	0.1955234891	-0.0001572538404	3.67405492e-05
0.044444444	-0.1350066977	-0.1648782933	-0.308586494	1.169592207	1.059952539	-0.09896027508	0.2292883355	0.1741639439	0.2364679644	0.1514136423	0.1514136423	-0.1258616416	-0.145767597	3.11033817e-06	0.2076223775	-0.1640914399	-0.1502645358	0.1693630203	0.1693630203	-0.0133196066	-0.1243155002	5.99807863e-06	0.2410013073	0.9328580771	-0.8017767932	-0.6986597557	-1.299287171	-0.9673533823	0.5772865567	0.208648574	0.4989724805	-0.7851594292	0.05537405814	0.6720461157	-0.9997848995	1.642242212	0.1955231775	-0.000155759155	3.177471325e-05
0.047222222	-0.1350617035	-0.1651403145	-0.3089502922	1.169690531	1.060011107	-0.09893734539	0.2290558528	0.1741028453	0.2364934262	0.1514536561	0.1514536561	-0.1258658623	-0.145866501	3.116535947e-06	0.2074430627	-0.1642330436	-0.1501117813	0.1694080535	0.1694080535	-0.01327945982	-0.1243873598	5.869465689e-06	0.2411946239	0.9329466165	-0.8020963003	-0.698884669	-1.299431861	-0.9672412536	0.5769969982	0.2083194523	0.4991432675	-0.7848923151	0.05549046005	0.6719144182	-0.9997992957	1.642270913	0.1955267644	-0.0001531464607	2.869918383e-05
0.05	-0.135139987	-0.1653938119	-0.3093291576	1.169784394	1.060012466	-0.09891601981	0.2288438054	0.174041039	0.2365182072	0.1514869634	0.1514869634	-0.1258707917	-0.1459661101	3.121707101e-06	0.2072995284	-0.1643716955	-0.1499583361	0.169446025	0.169446025	-0.01323468847	-0.1244596111	5.736858904e-06	0.2413509287	0.9330701906	-0.8024246578	-0.699110265	-1.2995607	-0.9671382488	0.5767505235	0.2079899871	0.4993228594	-0.7846912594	0.05562306218	0.6718147468	-0.9997962418	1.642296819	0.1955356143	-0.0001494530256	2.746280197e-05
0.052777778	-0.1352398726	-0.1656380211	-0.3097202633	1.169875156	1.059963324	-0.09889685248	0.2286488253	0.1739771176	0.2365433705	0.1515150187	0.1515150187	-0.1258755286	-0.1460669097	3.115374944e-06	0.2071907931	-0.1645051053	-0.1498057982	0.1694779527	0.1694779527	-0.01318492049	-0.1245332047	5.583293182e-06	0.2414765691	0.9332338117	-0.8027584304	-0.6993563075	-1.299672205	-0.9670309908	0.5765370041	0.2076689161	0.4995085592	-0.7846541909	0.05577323255	0.6717432956	-0.9997766798	1.642320726	0.1955502255	-0.000144696292	2.794069667e-05
0.055555556	-0.135358826	-0.1658702552	-0.3101235435	1.169963976	1.059869433	-0.09887926028	0.2284674714	0.173909765	0.2365702112	0.1515389408	0.1515389408	-0.1258806695	-0.1461649994	3.104222568e-06	0.2071139564	-0.1646313934	-0.1496556065	0.1695038987	0.1695038987	-0.01313137778	-0.1246064725	5.429385059e-06	0.2415751774	0.9334346315	-0.8030959921	-0.699618647	-1.29978255	-0.9669255154	0.5763301018	0.2073125767	0.4997302512	-0.7847447739	0.05594086173	0.6716975167	-0.99974212	1.642343883	0.1955676396	-0.0001387288371	2.974479957e-05
0.058333333	-0.1354940187	-0.1660873824	-0.3105397171	1.170051957	1.059736317	-0.09886236584	0.2282961918	0.1738377333	0.2366001948	0.1515597729	0.1515597729	-0.1258872208	-0.1462554293	3.093114385e-06	0.2070654854	-0.1647488225	-0.1495092926	0.1695236211	0.1695236211	-0.01307567669	-0.1246769993	5.277660518e-06	0.2416494536	0.9336678734	-0.8034359738	-0.6998870494	-1.299912341	-0.9668326847	0.5760993826	0.2068647216	0.5000255055	-0.784893252	0.05612548971	0.6716751705	-0.9996942201	1.642367676	0.1955840363	-0.0001313980209	3.242560245e-05
0.061111111	-0.1356425321	-0.1662863898	-0.3109696301	1.170140179	1.059569501	-0.09884527767	0.2281313531	0.1737599107	0.2366348938	0.1515785484	0.1515785484	-0.1258962328	-0.1463333839	3.07629429e-06	0.2070416775	-0.1648557902	-0.1493685219	0.1695368104	0.1695368104	-0.01301938821	-0.1247422817	5.09593563e-06	0.2417016934	0.9339288618	-0.8037768086	-0.7001515811	-1.300081741	-0.9667636207	0.5758153678	0.206272674	0.5004291939	-0.7850313975	0.05632666815	0.6716739733	-0.9996347109	1.642393488	0.195595684	-0.0001226068046	3.554435477e-05
0.063888889	-0.1358021492	-0.1664669505	-0.3114138606	1.170228832	1.059374074	-0.09882707184	0.2279710521	0.1736780357	0.2366739496	0.1515954397	0.1515954397	-0.1259084438	-0.1463968726	3.051785743e-06	0.2070403313	-0.1649538139	-0.1492330598	0.1695439878	0.1695439878	-0.01296258166	-0.1248010827	4.882868062e-06	0.2417320211	0.9342146284	-0.8041200937	-0.7004124808	-1.300294868	-0.966728275	0.5754816853	0.2055533708	0.5009324632	-0.7851256377	0.05654336507	0.6716901639	-0.9995681718	1.642421517	0.1956021832	-0.0001125508124	3.884081009e-05
0.066666667	-0.135971571	-0.1666322177	-0.3118726181	1.170316953	1.059154554	-0.09880678592	0.2278156369	0.1735975361	0.2367144704	0.1516095028	0.1516095028	-0.1259241617	-0.1464475568	3.031913325e-06	0.2070612151	-0.1650484501	-0.1491001713	0.1695467727	0.1695467727	-0.01290337714	-0.1248538385	4.685266231e-06	0.2417377612	0.9345244006	-0.804471575	-0.7006830376	-1.300535166	-0.9667338452	0.575144596	0.2048086256	0.501474296	-0.7851856245	0.05677378835	0.6717180596	-0.9995028965	1.642450436	0.1956074644	-0.0001018136548	4.228873491e-05
0.069444444	-0.13614939	-0.1667856426	-0.3123462721	1.170403493	1.058915444	-0.09878344058	0.2276654031	0.173524162	0.2367536098	0.1516197446	0.1516197446	-0.1259437068	-0.1464874008	3.025974263e-06	0.2071039149	-0.1651455887	-0.1489671991	0.1695467441	0.1695467441	-0.0128397574	-0.124900962	4.512125415e-06	0.2417155023	0.9348576093	-0.8048368739	-0.7009771947	-1.300784919	-0.966785636	0.5748527056	0.2041384401	0.5019963008	-0.7852214673	0.05701613835	0.6717518369	-0.999447451	1.642478888	0.195615755	-9.109963698e-05	4.589318555e-05
0.072222222	-0.1363340337	-0.1669302606	-0.312835021	1.170487694	1.058661251	-0.09875626596	0.2275200331	0.1734627014	0.2367893142	0.1516253806	0.1516253806	-0.1259672668	-0.1465173792	3.043788356e-06	0.2071674438	-0.1652501663	-0.1488321855	0.1695453073	0.1695453073	-0.01277022964	-0.124942755	4.33500435e-06	0.2416626522	0.9352140487	-0.8052200052	-0.7013061847	-1.301030409	-0.9668852053	0.574641576	0.2036136321	0.5024621734	-0.7852403552	0.0572689418	0.6717859571	-0.9994085364	1.642505773	0.1956304527	-8.104933853e-05	4.963924041e-05
0.075	-0.1365240104	-0.1670655568	-0.3133364088	1.170571024	1.058396377	-0.09872614567	0.2273762126	0.1734103012	0.2368237766	0.1516269588	0.1516269588	-0.1259937709	-0.1465307539	3.114294757e-06	0.2072489574	-0.1653596317	-0.1486965049	0.1695434398	0.1695434398	-0.01269720832	-0.1249796752	4.164371415e-06	0.2415868508	0.935595815	-0.8056161081	-0.7016647672	-1.301285637	-0.9670199968	0.5744551437	0.2031418251	0.5029544867	-0.7852451367	0.05753279188	0.6718170869	-0.9993788271	1.642531316	0.1956487714	-7.111064592e-05	5.3228513e-05
0.077777778	-0.1367178315	-0.1671894424	-0.3138468458	1.170655948	1.058125179	-0.0986946997	0.2272292397	0.1733607001	0.2368611525	0.1516256132	0.1516256132	-0.1260216504	-0.1465173412	3.23590705e-06	0.2073446991	-0.1654680892	-0.1485630939	0.169541874	0.169541874	-0.01262487637	-0.1250122313	4.003063618e-06	0.2415002351	0.9360060905	-0.8060162391	-0.7020412304	-1.30157678	-0.9671731424	0.5741971062	0.2025679406	0.5035998172	-0.7852409774	0.05780921805	0.6718429003	-0.9993446887	1.642556335	0.1956651545	-6.020557594e-05	5.62466196e-05
0.080555556	-0.1369139227	-0.1672998636	-0.3143628732	1.170744935	1.057852023	-0.09866353633	0.2270743087	0.1733076728	0.2369057242	0.1516224708	0.1516224708	-0.1260494366	-0.1464669974	3.352914882e-06	0.2074507232	-0.1655696698	-0.1484350436	0.1695412404	0.1695412404	-0.01255743193	-0.1250408787	3.809753261e-06	0.241414676	0.9364481374	-0.8064112041	-0.7024251785	-1.301929608	-0.9673307646	0.5737724162	0.2017534576	0.5045101807	-0.7852398137	0.05809977221	0.6718611133	-0.9992924597	1.642581654	0.1956740538	-4.728776295e-05	5.828994793e-05
0.083333333	-0.1371115959	-0.1673955108	-0.3148842674	1.170839306	1.057580509	-0.0986331718	0.2269096307	0.1732478624	0.2369584362	0.1516182626	0.1516182626	-0.1260761471	-0.146373396	3.404546682e-06	0.2075637994	-0.1656615344	-0.1483137459	0.1695422193	0.1695422193	-0.01249556301	-0.125066816	3.552847799e-06	0.2413362214	0.9369221138	-0.8067959929	-0.7028161019	-1.302352386	-0.9674938864	0.5731462859	0.200680922	0.5057032828	-0.78525199	0.05840540868	0.6718724605	-0.9992162724	1.642608317	0.1956742071	-3.186300793e-05	5.915058437e-05
0.086111111	-0.1373121595	-0.1674767181	-0.315417874	1.170937803	1.057312519	-0.09860170003	0.22674018	0.1731842758	0.2370126373	0.1516128464	0.1516128464	-0.1261017272	-0.1462386788	3.414161845e-06	0.2076824151	-0.165747584	-0.1481966286	0.1695457209	0.1695457209	-0.0124320842	-0.1250929459	3.280686013e-06	0.241258033	0.9374210964	-0.8071752249	-0.7032322525	-1.302815703	-0.9676866605	0.5724149486	0.1995462517	0.5070348588	-0.7852614722	0.05872576946	0.6718843595	-0.9991277991	1.642637914	0.1956739331	-1.469080606e-05	5.907763008e-05
0.088888889	-0.1375169442	-0.1675441368	-0.3159715357	1.171038808	1.057049727	-0.09856688662	0.2265715495	0.173120823	0.2370607409	0.1516059369	0.1516059369	-0.1261262828	-0.1460662015	3.422591166e-06	0.2078049464	-0.1658326722	-0.1480806813	0.1695526093	0.1695526093	-0.01235874268	-0.1251223243	3.029620416e-06	0.2411709944	0.9379371959	-0.8075546523	-0.703692746	-1.303286007	-0.9679291864	0.5716904009	0.1985321335	0.5083737071	-0.7852319198	0.0590604104	0.6719051014	-0.9990412091	1.64267222	0.1956828654	3.171817788e-06	5.841019008e-05
0.091666667	-0.1377268077	-0.1675982976	-0.3165522373	1.171140775	1.056793823	-0.09852666063	0.2264087123	0.1730609019	0.2370957869	0.1515973561	0.1515973561	-0.1261499845	-0.1458587345	3.476290737e-06	0.2079294419	-0.165921072	-0.1479633566	0.1695634238	0.1695634238	-0.0122678778	-0.1251576946	2.807121388e-06	0.2410663272	0.9384625097	-0.8079394992	-0.7042130242	-1.303732412	-0.968230887	0.571075197	0.1977629486	0.5096345375	-0.7851120727	0.05940869284	0.6719423189	-0.9989700011	1.64271309	0.1957099666	2.056180495e-05	5.752624883e-05
0.094444444	-0.1379399253	-0.1676361095	-0.3171535386	1.171243375	1.056546325	-0.09848139748	0.2262527593	0.1729994176	0.2371186809	0.1515890974	0.1515890974	-0.1261732881	-0.1456091132	3.630849882e-06	0.2080551506	-0.1660075542	-0.1478474339	0.1695752184	0.1695752184	-0.01216078812	-0.1251985507	2.637300518e-06	0.2409495101	0.9389889515	-0.8083297268	-0.7047831048	-1.304147878	-0.968560837	0.5705617977	0.197187089	0.5108426906	-0.7849082412	0.05976541532	0.6719943703	-0.9989153779	1.642761584	0.1957538335	3.708982583e-05	5.66791187e-05
0.097222222	-0.1381524994	-0.1676516796	-0.3177586272	1.17134723	1.056308607	-0.09843335784	0.2261018826	0.1729247335	0.2371363279	0.1515847918	0.1515847918	-0.1261969192	-0.1453025418	3.883516403e-06	0.2081823696	-0.1660795627	-0.1477397307	0.169582367	0.169582367	-0.01204568689	-0.125241928	2.540860876e-06	0.2408373249	0.9395083531	-0.8087213648	-0.7053749767	-1.304542861	-0.968863678	0.5700594244	0.1966594503	0.512074156	-0.7846883328	0.06012178808	0.6720525289	-0.9988689587	1.642818047	0.1958050849	5.309270149e-05	5.603516107e-05
0.1	-0.1383606412	-0.1676390982	-0.3183503335	1.171453003	1.056082046	-0.09838485837	0.2259541122	0.1728250591	0.2371557141	0.1515880208	0.1515880208	-0.1262217108	-0.1449241145	4.13703368e-06	0.2083113866	-0.1661243569	-0.147647079	0.169579146	0.169579146	-0.0119309876	-0.1252848207	2.502945437e-06	0.24074703	0.9400126122	-0.8091105151	-0.7059610504	-1.30492766	-0.9690879962	0.5694760478	0.1960643259	0.5133803162	-0.7845351178	0.06046887943	0.6721079397	-0.9988220396	1.642882743	0.1958541511	6.90345837e-05	5.579758897e-05
0.102777778	-0.1385614369	-0.1675963516	-0.3189136423	1.171560848	1.055867743	-0.09833766539	0.2258076126	0.1726943534	0.2371802491	0.1516009929	0.1516009929	-0.1262484888	-0.1444720376	4.249017183e-06	0.2084434643	-0.1661350181	-0.147571992	0.1695624364	0.1695624364	-0.01182283186	-0.1253241506	2.485814836e-06	0.2406934543	0.9404963626	-0.8094971527	-0.7065201036	-1.305307116	-0.9692012552	0.5687523409	0.1953483745	0.5147578808	-0.7845224145	0.06079920741	0.67215271	-0.9987689482	1.642953786	0.1958939694	8.523734114e-05	5.609484076e-05
0.105555556	-0.1387558775	-0.1675368892	-0.3194426341	1.171668831	1.055665712	-0.09829130773	0.2256612065	0.1725496002	0.2371994823	0.151620753	0.151620753	-0.1262777173	-0.1439966665	4.215552948e-06	0.2085836147	-0.1661279653	-0.1475002267	0.1695395124	0.1695395124	-0.01171818838	-0.1253563827	2.444005799e-06	0.2406806239	0.9409650293	-0.8098958129	-0.7070537615	-1.305666659	-0.9692292489	0.5679567665	0.1945834566	0.516085097	-0.7846359166	0.06111130477	0.6721826108	-0.9987164337	1.643020969	0.1959274645	0.0001009973077	5.669440728e-05
0.108333333	-0.1389459398	-0.1674780276	-0.3199335242	1.171774499	1.05547569	-0.09824476891	0.225513837	0.1724135061	0.237199382	0.1516430227	0.1516430227	-0.126309662	-0.1435613773	4.122583671e-06	0.2087378204	-0.1661254161	-0.1474131932	0.1695202975	0.1695202975	-0.01161172505	-0.1253779127	2.360659227e-06	0.2407100347	0.9414266637	-0.8103249337	-0.7075690354	-1.305987257	-0.9692095895	0.5671894641	0.1938461671	0.5172321085	-0.7848275156	0.06140521064	0.6721943136	-0.9986743802	1.643072011	0.195960054	0.0001153534995	5.727090333e-05
0.111111111	-0.139133576	-0.1674368704	-0.3203825149	1.171875435	1.055297421	-0.09819705458	0.2253643788	0.1723084764	0.2371661586	0.1516635097	0.1516635097	-0.1263444265	-0.1432283483	4.122484899e-06	0.2089119514	-0.1661492845	-0.1472925476	0.1695145978	0.1695145978	-0.01149826073	-0.1253853693	2.243927611e-06	0.240783242	0.9418891426	-0.8108027105	-0.7080724715	-1.306250538	-0.9691765752	0.5665480881	0.1931852105	0.5180929644	-0.7850377911	0.06168092806	0.6721846176	-0.9986524801	1.643094955	0.1959970231	0.0001273818693	5.752052065e-05
0.113888889	-0.1393183673	-0.1674226951	-0.3207907416	1.171970513	1.055131007	-0.09814746551	0.2252094635	0.1722468042	0.2371003849	0.1516783483	0.1516783483	-0.126381197	-0.1430156557	4.299010302e-06	0.2091048289	-0.1662115175	-0.1471361471	0.1695257057	0.1695257057	-0.01137850867	-0.1253819664	2.114478258e-06	0.2408951059	0.942356701	-0.8113263111	-0.7085624196	-1.306445194	-0.969152461	0.5660507558	0.1925903145	0.518664691	-0.7852170912	0.06193715826	0.6721556156	-0.998651487	1.643091066	0.1960383101	0.0001367955293	5.743131893e-05
0.116666667	-0.1394968439	-0.1674345997	-0.3211657609	1.172060287	1.054977016	-0.09809568212	0.2250428875	0.1722276356	0.2370212827	0.1516842302	0.1516842302	-0.1264180734	-0.1428840815	4.572870832e-06	0.209306183	-0.166311122	-0.1469629107	0.1695484558	0.1695484558	-0.01126085138	-0.1253794862	1.991954163e-06	0.2410318202	0.9428288829	-0.811865532	-0.7090265969	-1.30656864	-0.969146749	0.5656126436	0.1919988586	0.5190586397	-0.7853387499	0.06217090831	0.672116291	-0.9986605178	1.643078751	0.1960769074	0.0001441573622	5.734700814e-05
0.119444444	-0.1396654458	-0.1674709503	-0.3215154374	1.172145428	1.054836033	-0.0980414191	0.2248584183	0.1722491729	0.2369491648	0.1516778842	0.1516778842	-0.1264530467	-0.1427904663	4.844658918e-06	0.2095053474	-0.1664461917	-0.1467930024	0.1695771803	0.1695771803	-0.01115420588	-0.1253903819	1.894619792e-06	0.2411793286	0.9433048688	-0.812388596	-0.7094515426	-1.306618842	-0.969168559	0.5651419096	0.1913501336	0.5193896579	-0.785379464	0.06237906095	0.6720760961	-0.9986679406	1.643077502	0.1961053534	0.0001501495181	5.761487937e-05
0.122222222	-0.1398212962	-0.1675296185	-0.3218475703	1.172226573	1.054708636	-0.09798460241	0.2246513284	0.1723088057	0.2369019459	0.1516567794	0.1516567794	-0.1264842234	-0.1426965436	5.009543141e-06	0.209693046	-0.1666140636	-0.1466443325	0.1696068418	0.1696068418	-0.01106616013	-0.125425548	1.841434801e-06	0.2413252335	0.9437842558	-0.8128677664	-0.7098262836	-1.306595559	-0.9692251557	0.5645595412	0.1905953149	0.5197570695	-0.785323097	0.06255924947	0.6720434709	-0.9986631191	1.643104415	0.1961177027	0.000155397664	5.847710001e-05
0.125	-0.1399659643	-0.1676051372	-0.3221701189	1.172304119	1.054595409	-0.09792667113	0.2244271412	0.1723983348	0.2368806292	0.1516237993	0.1516237993	-0.1265107448	-0.1426007947	5.036084902e-06	0.2098691536	-0.1668067812	-0.1465189959	0.1696367212	0.1696367212	-0.01099437024	-0.1254838223	1.806326221e-06	0.2414677034	0.9442700033	-0.8133037852	-0.7101627038	-1.306511944	-0.9693076165	0.5638821351	0.1897580942	0.5201556469	-0.7852056597	0.06271473438	0.672019355	-0.9986426281	1.643159201	0.1961192471	0.0001597867502	5.96900534e-05
0.127777778	-0.1401030193	-0.1676905152	-0.3224911307	1.172378346	1.054496942	-0.09786973902	0.2241960143	0.1725070425	0.2368786485	0.1515842882	0.1515842882	-0.1265321918	-0.1425181821	4.970482295e-06	0.2100376671	-0.1670140055	-0.1464120184	0.1696680443	0.1696680443	-0.01093203875	-0.1255586203	1.767284456e-06	0.2416096298	0.9447665547	-0.8137101399	-0.7104829945	-1.306387049	-0.9693999306	0.563169334	0.1888976702	0.5205309308	-0.7850883715	0.06285129337	0.6720012974	-0.9986062661	1.643233808	0.1961202907	0.0001628332443	6.076655507e-05
0.130555556	-0.140236042	-0.1677787232	-0.3228186089	1.172449537	1.054413821	-0.0978159226	0.2239681636	0.1726241667	0.2368893648	0.1515436265	0.1515436265	-0.1265481304	-0.1424637113	4.901630225e-06	0.2102026426	-0.1672253631	-0.14631836	0.1697020623	0.1697020623	-0.01087234902	-0.1256433046	1.733090328e-06	0.2417539743	0.9452783102	-0.8141004263	-0.7108093807	-1.306239748	-0.9694864479	0.5624812089	0.1880784451	0.5208242006	-0.7850352394	0.06297470967	0.6719868073	-0.9985538629	1.643320184	0.1961311157	0.0001640191285	6.119623225e-05
0.133333333	-0.1403663151	-0.1678616536	-0.3231551472	1.172518077	1.054346555	-0.09776756804	0.223751924	0.1727361645	0.2369038032	0.1515077039	0.1515077039	-0.1265598074	-0.1424469723	4.904663874e-06	0.210367468	-0.1674275475	-0.1462300929	0.169738871	0.169738871	-0.01080937256	-0.1257285471	1.707682285e-06	0.2419054965	0.9458046067	-0.8144900335	-0.7111551368	-1.306083869	-0.9695592715	0.5618671719	0.187349677	0.5209817307	-0.7850779909	0.06309019845	0.6719747194	-0.9984890177	1.643410029	0.1961572199	0.00016341227	6.07851592e-05
0.136111111	-0.1404900144	-0.1679288284	-0.3234912912	1.172584595	1.054295477	-0.09772753794	0.2235514254	0.1728233256	0.2369077884	0.1514835189	0.1514835189	-0.1265722599	-0.1424654954	4.965197092e-06	0.2105340465	-0.1676007242	-0.1461328493	0.169775981	0.169775981	-0.01073915525	-0.1257990648	1.66342523e-06	0.2420730156	0.9463335296	-0.8148983574	-0.7115135728	-1.305922463	-0.9696266847	0.5613519755	0.1867178478	0.5209681514	-0.7851718497	0.06320170635	0.671966872	-0.9984237306	1.643494437	0.1961934584	0.0001624479804	6.006525175e-05
0.138888889	-0.1406026722	-0.1679695044	-0.323815796	1.172649756	1.054260892	-0.09769877885	0.2233702554	0.1728651348	0.236886267	0.1514781432	0.1514781432	-0.1265910931	-0.1425151771	5.033456341e-06	0.2107042049	-0.1677242045	-0.1460112038	0.1698106149	0.1698106149	-0.0106579866	-0.1258388108	1.60986717e-06	0.2422662427	0.9468516675	-0.8153456617	-0.7118758891	-1.305757459	-0.9696982262	0.5609563884	0.1861818187	0.5207517737	-0.7852618154	0.06331301494	0.6719655309	-0.9983711375	1.643564411	0.1962332531	0.0001627467555	5.970223948e-05
0.141666667	-0.1407001092	-0.1679739594	-0.3241181109	1.172714214	1.054243107	-0.09768407077	0.2232115595	0.1728427135	0.2368253016	0.1514979106	0.1514979106	-0.1266215254	-0.1425916361	5.038636553e-06	0.2108796392	-0.1677789883	-0.1458508606	0.1698402897	0.1698402897	-0.01056243399	-0.1258333147	1.5942008e-06	0.2424943246	0.9473468687	-0.8158507909	-0.712233882	-1.305590657	-0.9697821306	0.5606963674	0.1857419434	0.5203041929	-0.785298456	0.06342761188	0.6719727487	-0.9983434087	1.643611577	0.196270141	0.0001657809331	6.034336169e-05
0.144444444	-0.1407814257	-0.1679468992	-0.3244013752	1.17277821	1.054242659	-0.09768343011	0.2230713029	0.1727613504	0.2367311469	0.1515396346	0.1515396346	-0.1266621599	-0.1426862161	4.975888363e-06	0.2110574773	-0.1677709446	-0.1456582275	0.1698655354	0.1698655354	-0.01045339701	-0.1257905098	1.649731484e-06	0.2427510606	0.9478255923	-0.8164047548	-0.7125800127	-1.305417285	-0.9698778371	0.560526843	0.1853866768	0.5196758977	-0.7852832421	0.06354454925	0.6719871629	-0.9983384327	1.643637139	0.1962992557	0.0001707895066	6.198981887e-05
0.147222222	-0.1408482471	-0.1679041403	-0.3246792149	1.172841668	1.054260258	-0.09769474849	0.2229398872	0.172644925	0.2366255719	0.1515927729	0.1515927729	-0.126706491	-0.1427869644	4.888420722e-06	0.2112313266	-0.1677250888	-0.1454555924	0.1698892117	0.1698892117	-0.01033511348	-0.1257355647	1.765946307e-06	0.2430184659	0.9483086209	-0.8169772457	-0.7129065738	-1.305227379	-0.9699779728	0.5603562533	0.1850878038	0.5189842346	-0.785252269	0.06365944989	0.6720047721	-0.9983431213	1.643649673	0.1963169458	0.0001753080652	6.411366849e-05
0.15	-0.1409022858	-0.1678618253	-0.3249653563	1.172904509	1.054296621	-0.09771587441	0.222807528	0.1725177941	0.2365306008	0.1516465071	0.1516465071	-0.126747896	-0.1428818532	4.800526391e-06	0.2113947649	-0.1676669505	-0.1452654617	0.169914289	0.169914289	-0.01021190047	-0.1256940926	1.903091053e-06	0.2432784928	0.9488171131	-0.8175377617	-0.7132050593	-1.305010833	-0.9700744613	0.5600920723	0.1848071801	0.518356042	-0.7852372013	0.06376783222	0.672021502	-0.9983441296	1.643657942	0.1963195691	0.000176842977	6.613069092e-05
0.152777778	-0.1409443403	-0.1678309574	-0.3252692979	1.172966599	1.054352206	-0.09774536964	0.2226675389	0.1723968289	0.2364613212	0.1516938324	0.1516938324	-0.1267821815	-0.1429631883	4.720043193e-06	0.2115434714	-0.1676140431	-0.1451023633	0.1699432127	0.1699432127	-0.01008751851	-0.1256830117	2.003738914e-06	0.2435185891	0.9493657668	-0.8180679889	-0.713470829	-1.304762568	-0.9701651787	0.5596750523	0.1845145797	0.5178813527	-0.7852540266	0.06386689158	0.6720344224	-0.9983322218	1.643668278	0.1963061417	0.0001739044565	6.75560658e-05
0.155555556	-0.1409715963	-0.1678018627	-0.3255839226	1.173027597	1.054426439	-0.09778463165	0.2225258458	0.1722689331	0.2364052798	0.1517431704	0.1517431704	-0.1268148395	-0.1430405534	4.649852063e-06	0.2116815714	-0.1675517362	-0.1449492342	0.1699762815	0.1699762815	-0.009963554658	-0.1256846105	2.047769099e-06	0.2437479731	0.9499433852	-0.8185977	-0.7137184279	-1.304497651	-0.9702737895	0.5591785447	0.1842447214	0.5174751606	-0.7852751406	0.06396056817	0.6720451976	-0.9983144852	1.643677255	0.1962864068	0.00016899811	6.847977991e-05
0.158333333	-0.1409803523	-0.1677597073	-0.325898005	1.173087111	1.054518484	-0.09783576242	0.222391549	0.17211355	0.2363431723	0.1518067937	0.1518067937	-0.1268538324	-0.1431278938	4.586178255e-06	0.2118153069	-0.1674573891	-0.1447811698	0.1700132365	0.1700132365	-0.009841056901	-0.1256724799	2.046123905e-06	0.2439813311	0.9505323146	-0.8191686457	-0.713967746	-1.304236197	-0.9704307811	0.5587089923	0.1840535839	0.5170046421	-0.7852648682	0.06405450427	0.6720566493	-0.9983020799	1.643679033	0.1962727988	0.0001655967481	6.914700626e-05
0.161111111	-0.1409670751	-0.1676903108	-0.3262007653	1.173144769	1.054627526	-0.09790075667	0.2222734033	0.1719111027	0.2362563009	0.1518965002	0.1518965002	-0.1269068903	-0.1432387643	4.514810102e-06	0.2119506987	-0.1673094116	-0.1445740564	0.1700538544	0.1700538544	-0.009721017884	-0.1256210075	2.037573666e-06	0.2442329733	0.9511156496	-0.8198213546	-0.7142391426	-1.303997773	-0.9706663723	0.5583692682	0.1839999314	0.5163373859	-0.7851914525	0.06415414489	0.6720715589	-0.9983057809	1.643668171	0.1962774006	0.0001670517518	6.981647748e-05
0.163888889	-0.1409333653	-0.1676041675	-0.3264998885	1.173200645	1.054753588	-0.09797738501	0.2221658552	0.1716791556	0.2361510011	0.1520075486	0.1520075486	-0.126970305	-0.1433699826	4.417412936e-06	0.2120831133	-0.1671261551	-0.1443356727	0.1700992725	0.1700992725	-0.009601771518	-0.1255360145	2.085659515e-06	0.2444955967	0.9517051101	-0.8205445723	-0.7145423449	-1.303779717	-0.9709865723	0.5581235736	0.1840679707	0.5155092066	-0.7850675149	0.06425660221	0.6720908653	-0.9983217008	1.643654189	0.1962980592	0.0001732343651	7.024997648e-05
0.166666667	-0.140887456	-0.1675438603	-0.3268269993	1.173255382	1.054897797	-0.09805793563	0.2220446762	0.1714835256	0.2360661169	0.1521137065	0.1521137065	-0.1270254412	-0.1434965878	4.279120888e-06	0.2121940047	-0.1669778693	-0.144115164	0.1701523936	0.1701523936	-0.009478125911	-0.1254641365	2.255929732e-06	0.2447336964	0.9523496422	-0.8212598562	-0.7148717564	-1.303550685	-0.9713640249	0.5577558886	0.1841251797	0.5147905634	-0.7849533216	0.06434814342	0.672113119	-0.9983269709	1.643666008	0.1963141154	0.0001795794824	6.952084338e-05
0.169444444	-0.1408380203	-0.1675542006	-0.327215237	1.17330966	1.055061364	-0.09813433729	0.2218842756	0.1713933008	0.2360426273	0.1521872487	0.1521872487	-0.127052651	-0.1435921518	4.076768738e-06	0.2122638307	-0.1669383364	-0.1439643417	0.1702162319	0.1702162319	-0.009344570169	-0.1254546766	2.583608702e-06	0.2449098601	0.953100766	-0.8218844975	-0.7152186836	-1.30327777	-0.9717667174	0.5570376734	0.1840103616	0.5144848203	-0.7849017492	0.064414297	0.6721367199	-0.998297551	1.643733804	0.1963036481	0.0001813054331	6.658999358e-05
0.172222222	-0.1407919104	-0.1676699432	-0.3276909976	1.17336378	1.055245202	-0.09820010697	0.2216653335	0.171462687	0.2361166049	0.1522071814	0.1522071814	-0.127036143	-0.1436357852	3.788253685e-06	0.2122773694	-0.1670656098	-0.1439278343	0.1702927041	0.1702927041	-0.009198826897	-0.1255470225	2.995769096e-06	0.2449926473	0.9539984131	-0.8223510792	-0.715571918	-1.302932006	-0.9721698347	0.5557862313	0.1835943621	0.5148341633	-0.7849481531	0.06444274073	0.6721595615	-0.9982152003	1.643881119	0.1962494659	0.0001744038994	6.055726682e-05
0.175	-0.1407426048	-0.1678510782	-0.3282305698	1.173415369	1.055447902	-0.09826052812	0.2214156914	0.1716355983	0.2362872926	0.1522019917	0.1522019917	-0.1269886647	-0.1436476033	3.571111576e-06	0.2122523567	-0.1673010187	-0.1439967105	0.1703757728	0.1703757728	-0.00906280636	-0.1257081779	3.211513388e-06	0.2449968345	0.9549963542	-0.8227053223	-0.7159307672	-1.30251207	-0.9726100927	0.5541673885	0.1830037319	0.5155997452	-0.7850257189	0.0644372176	0.6721759505	-0.9981038379	1.644082505	0.1961699318	0.0001603394485	5.274975612e-05
0.177777778	-0.1406775649	-0.1680240686	-0.3287884926	1.173460858	1.055667019	-0.09832611174	0.2211844981	0.171806721	0.2365380065	0.152222496	0.152222496	-0.1269358605	-0.1436661324	3.642313872e-06	0.2122211267	-0.1675337059	-0.1441387218	0.1704555806	0.1704555806	-0.008969185315	-0.1258726109	3.012763414e-06	0.2449571828	0.9560099693	-0.8230423603	-0.716307792	-1.302029724	-0.9731489003	0.5525057118	0.182445322	0.5163487417	-0.7850131984	0.06440874622	0.6721787347	-0.9980061752	1.64429059	0.1960994813	0.0001429985055	4.575108745e-05
0.180555556	-0.1405841616	-0.1681154298	-0.329319948	1.173496703	1.05590011	-0.09840733702	0.2210209547	0.1718709754	0.2368524211	0.1523195271	0.1523195271	-0.1269035368	-0.1437298251	4.150770778e-06	0.212215771	-0.1676529605	-0.1443220912	0.1705219465	0.1705219465	-0.008950380457	-0.1259746712	2.408854968e-06	0.244907826	0.9569549524	-0.8234561538	-0.7167273955	-1.301497857	-0.9738425952	0.5511294531	0.1820715174	0.5166834714	-0.7847745579	0.06436848276	0.6721610258	-0.9979648046	1.644458003	0.1960727189	0.0001262765347	4.251392213e-05
0.183333333	-0.1404463079	-0.1680927281	-0.3297801934	1.173521841	1.056146076	-0.0985122219	0.2209366567	0.17176837	0.2371795236	0.1525131061	0.1525131061	-0.1269084291	-0.1438527686	4.906516599e-06	0.2122465685	-0.1675973419	-0.1444902451	0.1705691824	0.1705691824	-0.008996581399	-0.1259689974	1.709590956e-06	0.2448822817	0.9577878212	-0.8240308751	-0.7172249215	-1.300941646	-0.974683545	0.5501980502	0.1819413011	0.5164096688	-0.7842927056	0.0643289577	0.672130132	-0.9980054166	1.644558089	0.1961013551	0.0001139390414	4.43388804e-05
0.186111111	-0.1402402519	-0.1680149608	-0.3301236914	1.173540691	1.056406843	-0.09864333323	0.2208591373	0.1715389895	0.2373902818	0.1527546795	0.1527546795	-0.1269466652	-0.1439951093	5.28808597e-06	0.2122753363	-0.1674149613	-0.1445304575	0.170602154	0.170602154	-0.009003972085	-0.1258554673	1.468119716e-06	0.2449135487	0.9585554901	-0.8248309199	-0.7178330445	-1.300411985	-0.9755282346	0.5494855567	0.1819811016	0.5157456499	-0.7838285106	0.0643056182	0.6721246236	-0.9981164046	1.644610563	0.1961456078	0.0001093710365	4.813131906e-05
0.188888889	-0.1399412622	-0.1679531742	-0.3303044732	1.173558405	1.056684743	-0.09880250077	0.2207045838	0.1712360199	0.2373449771	0.1529864561	0.1529864561	-0.1270113402	-0.144109994	4.882299412e-06	0.2122574801	-0.1671683295	-0.144322134	0.170627302	0.170627302	-0.008856269168	-0.1256402753	2.151885958e-06	0.2450354546	0.9593165083	-0.825919209	-0.7185708796	-1.299962516	-0.9762146679	0.5487101411	0.1820923518	0.5149806352	-0.7836658319	0.06431425731	0.672187102	-0.9982813538	1.64464156	0.1961585871	0.0001157843482	5.000606314e-05
0.191666667	-0.1395311658	-0.1679716826	-0.3302909818	1.173580021	1.056981444	-0.0989891956	0.2203984509	0.1709140677	0.2369266361	0.1531546272	0.1531546272	-0.1270935997	-0.1441543133	3.667318376e-06	0.2121499494	-0.1669206216	-0.1437703409	0.1706459164	0.1706459164	-0.008454167183	-0.1253352164	4.072517316e-06	0.2452757591	0.960125543	-0.827339274	-0.7194502829	-1.299636353	-0.9766100021	0.5476112014	0.1821437805	0.5144333923	-0.7840316874	0.06436745753	0.6723587091	-0.998484444	1.644678495	0.1960969958	0.0001357698251	4.610887162e-05
0.194444444	-0.1390859123	-0.1680414365	-0.3302709037	1.173609163	1.057289009	-0.0991677094	0.2199992272	0.1706550802	0.2363601666	0.1532625692	0.1532625692	-0.1271602605	-0.1441371728	2.392038116e-06	0.2119262347	-0.1667516565	-0.1431674792	0.1705800152	0.1705800152	-0.007948460963	-0.1250311203	6.487995827e-06	0.2455510172	0.9609889435	-0.8288255045	-0.7205485149	-1.299332794	-0.9770157687	0.546276458	0.1820351491	0.5143271795	-0.784724922	0.06443168843	0.6726615868	-0.9987163346	1.644766867	0.1959740434	0.0001628458725	3.72587137e-05
0.197222222	-0.1387540476	-0.1680626707	-0.3305993406	1.173648438	1.057592098	-0.09927540548	0.2196675048	0.1705624315	0.2361322488	0.1533568455	0.1533568455	-0.1271597858	-0.1441080471	1.939165098e-06	0.2115730709	-0.1667547379	-0.1431021634	0.1702910253	0.1702910253	-0.007681883468	-0.124879768	8.304882941e-06	0.2456920178	0.9618770419	-0.8298751721	-0.7220039029	-1.298842126	-0.9780685973	0.5450624001	0.1817327467	0.5147728544	-0.7852468539	0.06443819507	0.6731035352	-0.9989726876	1.644965575	0.1958465191	0.0001840323833	2.791857353e-05
0.2	-0.1386857741	-0.1679352527	-0.3316334182	1.173700452	1.057875175	-0.09924919271	0.2195653394	0.1707406332	0.2367340687	0.1534839275	0.1534839275	-0.1270408129	-0.1441173698	2.504041181e-06	0.2110777244	-0.1670238802	-0.1441675971	0.169639769	0.169639769	-0.008001869018	-0.1250340149	8.990466528e-06	0.2455274153	0.9627606086	-0.8299814841	-0.7239623528	-1.297953691	-0.9804104343	0.5443324708	0.1812297575	0.5158530309	-0.7851126357	0.06431771241	0.6736922419	-0.999249558	1.645333464	0.1957723922	0.0001864094419	2.274442366e-05
0.202777778	-0.1389692743	-0.1675963034	-0.3335690188	1.173765877	1.058128846	-0.09905600471	0.2197941074	0.1712390203	0.2384459214	0.153675551	0.153675551	-0.126783591	-0.1442008981	3.646797796e-06	0.2104479467	-0.1675988368	-0.146692622	0.1685593964	0.1685593964	-0.009114471783	-0.125575612	7.96806591e-06	0.2449651921	0.9636212699	-0.8288662747	-0.7264855133	-1.296547289	-0.9843883913	0.5443219495	0.1805529943	0.5175434428	-0.7840406249	0.06402812026	0.6744203207	-0.9995472217	1.64590356	0.195788883	0.0001618695261	2.524327763e-05
0.205555556	-0.1394479076	-0.1671286386	-0.3359665636	1.173838202	1.058368337	-0.09878185606	0.2202203565	0.1718830481	0.2407135975	0.153907956	0.153907956	-0.126492009	-0.1443408757	5.043125357e-06	0.2097756062	-0.1683049788	-0.1499601698	0.1672661874	0.1672661874	-0.01065719153	-0.1263087847	4.234856773e-06	0.2442304679	0.9644806317	-0.8271577732	-0.7292926437	-1.294860142	-0.9892092025	0.5447459065	0.179870839	0.5194343886	-0.7825374296	0.06363442731	0.6752195577	-0.999881129	1.64660562	0.1958494452	0.0001234109295	3.215192665e-05
0.208333333	-0.1399033673	-0.1666526976	-0.3382311695	1.173909487	1.058615309	-0.09854217753	0.2206519855	0.1724421131	0.2427777818	0.1541430443	0.1541430443	-0.1263015462	-0.1445092793	6.035188362e-06	0.2091716505	-0.1689171834	-0.1529969463	0.1660434415	0.1660434415	-0.01212268912	-0.1269696726	-8.068024648e-07	0.2436238099	0.9653710277	-0.8257065305	-0.732026788	-1.293218744	-0.9938085139	0.5451868829	0.1793726217	0.5210477236	-0.7812997488	0.06322841512	0.6760065074	-1.000269694	1.647343893	0.1958863185	8.959131004e-05	3.758983626e-05
0.211111111	-0.1401212876	-0.1662878114	-0.3397824736	1.173972376	1.058891301	-0.09845001797	0.2209012348	0.1726889095	0.2438971685	0.154343212	0.154343212	-0.1263448613	-0.1446819534	5.90083463e-06	0.2087437685	-0.1692172815	-0.1548529124	0.1651654875	0.1651654875	-0.01300954546	-0.1273012472	-3.377792155e-06	0.2434368599	0.9663247107	-0.8253429754	-0.7343508462	-1.291943146	-0.9971616754	0.5452328928	0.1792281389	0.5219437416	-0.7810024182	0.06290036295	0.6766987057	-1.000729347	1.648023102	0.195832738	7.949663174e-05	3.448516052e-05
0.213888889	-0.1400206433	-0.1660755792	-0.3404421606	1.174024291	1.059203849	-0.09854220775	0.2208945404	0.172549985	0.2438775836	0.1544999834	0.1544999834	-0.1266345669	-0.1448390086	4.689454105e-06	0.2085157737	-0.1691334453	-0.1552487453	0.1647297348	0.1647297348	-0.01315483006	-0.1272342251	-1.433525863e-06	0.243726186	0.9673534275	-0.8262965339	-0.7361091024	-1.291119799	-0.9989508943	0.544712456	0.1794172335	0.5220478919	-0.7817725151	0.06269121463	0.6772497034	-1.001246196	1.64857239	0.1956745903	9.713956226e-05	2.076120509e-05
0.216666667	-0.1396935148	-0.1659562919	-0.3405486003	1.174068478	1.059542019	-0.09875712383	0.2207054498	0.172152594	0.2432303012	0.1546420823	0.1546420823	-0.1270273714	-0.1449624091	3.225298265e-06	0.2084045817	-0.1687811759	-0.1547686038	0.1646082755	0.1646082755	-0.0128377393	-0.1269415832	3.016062456e-06	0.244247058	0.9684426501	-0.8280221598	-0.7373718999	-1.290532757	-0.99975705	0.5437673824	0.1797120298	0.5217129021	-0.7830502801	0.0625781808	0.6776599762	-1.001768254	1.648952412	0.1954666162	0.0001264741555	2.451660469e-06
0.219444444	-0.1392447133	-0.1658632491	-0.3404717533	1.174108528	1.059893438	-0.0990268518	0.2204182886	0.1716373562	0.2425107966	0.1548000051	0.1548000051	-0.127369396	-0.1450329969	2.263850114e-06	0.2083224805	-0.1682874979	-0.1540502979	0.1646596244	0.1646596244	-0.01236796079	-0.1266127249	7.250490298e-06	0.2447380614	0.9695765803	-0.8299264807	-0.7382295689	-1.289947455	-1.000216878	0.5425592416	0.1799517043	0.5212493043	-0.7842806303	0.06253423735	0.6779334231	-1.002241365	1.649125228	0.1952684084	0.0001508283072	-1.306030604e-05
0.222222222	-0.138771705	-0.1657377882	-0.3405409397	1.174148003	1.060246145	-0.09929029374	0.2201106275	0.1711322264	0.2422059743	0.1549983517	0.1549983517	-0.1275281193	-0.1450361195	1.940149717e-06	0.2081936798	-0.1677687098	-0.1536568128	0.1647554923	0.1647554923	-0.01202164566	-0.1264152515	9.304006792e-06	0.2449730631	0.9707427057	-0.8314870448	-0.7387796496	-1.289160993	-1.000896788	0.5412370348	0.1800670075	0.5208767159	-0.7850215268	0.06253400536	0.6780780295	-1.002619294	1.649063888	0.1951320902	0.0001566470074	-1.900872135e-05
0.225	-0.1383126841	-0.1655732581	-0.3408068429	1.174189577	1.060591954	-0.09953462494	0.2198077451	0.1706696646	0.2423169594	0.1552284091	0.1552284091	-0.1275272194	-0.1449909777	1.892943127e-06	0.2080160494	-0.167258715	-0.153628054	0.1648591193	0.1648591193	-0.01183084221	-0.1263495466	9.338500714e-06	0.2449736343	0.9719432632	-0.8326827689	-0.7391227937	-1.288186493	-1.001858629	0.5398790214	0.180122501	0.5205831939	-0.7853083517	0.06256240825	0.6781297034	-1.002912043	1.64882777	0.1950538774	0.0001464800479	-1.673854235e-05
0.227777778	-0.1378788525	-0.1653858627	-0.3411963025	1.174235476	1.060924419	-0.09976854335	0.2195110972	0.1702392014	0.2426282644	0.155467022	0.155467022	-0.1274603609	-0.1449321593	1.807015274e-06	0.2078194377	-0.1667541748	-0.1537709663	0.164974359	0.164974359	-0.01171855049	-0.1263405381	8.444709822e-06	0.2448718804	0.9731864523	-0.833716457	-0.7393538792	-1.287131295	-1.00294169	0.5385348315	0.1801852787	0.5203035296	-0.7853498407	0.06260892008	0.6781367148	-1.003154733	1.648515309	0.1950048505	0.0001296643893	-1.16130323e-05
0.230555556	-0.137480997	-0.1651916832	-0.3416361599	1.174287897	1.061237141	-0.1000007678	0.2192217286	0.1698301339	0.2429243701	0.1556911999	0.1556911999	-0.1274213789	-0.1448946252	1.56523648e-06	0.2076331612	-0.1662514812	-0.1538924742	0.1651049831	0.1651049831	-0.01160753175	-0.1263126483	7.850179052e-06	0.2448002198	0.9744801631	-0.8347915418	-0.7395592779	-1.286100302	-1.003989526	0.5372550526	0.1803005675	0.5199974312	-0.7853323053	0.06266303048	0.6781472113	-1.003382515	1.648225215	0.1949560144	0.0001152453252	-9.389626397e-06
0.233333333	-0.1371243264	-0.1650072244	-0.3420798719	1.174347357	1.061524744	-0.1002366418	0.2189359046	0.1694423549	0.2430753455	0.1558842105	0.1558842105	-0.1274626907	-0.1448983106	1.223646947e-06	0.2074716185	-0.1657562934	-0.1538804698	0.1652503018	0.1652503018	-0.01144680932	-0.1262252206	8.323268303e-06	0.244834558	0.9758345941	-0.8360284976	-0.7397901273	-1.28515103	-1.004916165	0.5360519029	0.180479793	0.5196717259	-0.7853677032	0.06271707573	0.678193572	-1.003615485	1.648017774	0.1948980965	0.0001081856894	-1.35048797e-05
0.236111111	-0.1368017911	-0.1648504726	-0.3425395532	1.174410642	1.061784095	-0.1004740861	0.2186393535	0.1690996255	0.2431413112	0.1560429463	0.1560429463	-0.1275442944	-0.1449290016	8.026867476e-07	0.2073166005	-0.1652952419	-0.153802444	0.1654000158	0.1654000158	-0.01124365402	-0.1261158695	9.479084098e-06	0.2449237968	0.9772656608	-0.8373623794	-0.7400321798	-1.284240121	-1.005781823	0.5348508529	0.1806553935	0.5194275283	-0.7854204742	0.06276975724	0.6782731156	-1.003840152	1.647867138	0.1948658187	0.0001048673394	-2.157784755e-05
0.238888889	-0.1365047447	-0.1647396666	-0.3430352274	1.174474016	1.062012356	-0.1007100189	0.2183164587	0.1688289934	0.2432080518	0.1561662232	0.1561662232	-0.1276135851	-0.1449677609	3.136422088e-07	0.2071456053	-0.1648978595	-0.1537501436	0.1655426447	0.1655426447	-0.01101307757	-0.1260328135	1.074488469e-05	0.2449992717	0.9787900774	-0.8387029744	-0.7402596769	-1.283311676	-1.006662606	0.5335631613	0.1807488791	0.5193797571	-0.7854362068	0.06282055325	0.6783783384	-1.004038511	1.647735762	0.1948997888	0.0001006088732	-3.041067268e-05
0.241666667	-0.1362251127	-0.1646907136	-0.3435849994	1.174533785	1.062206479	-0.100941676	0.2179539508	0.1686542985	0.243357141	0.1562543147	0.1562543147	-0.1276214311	-0.1449964185	-2.509161986e-07	0.2069383931	-0.1645903613	-0.1538102385	0.1656672242	0.1656672242	-0.01077046822	-0.1260204397	1.153549271e-05	0.2449962169	0.9804219858	-0.8399661131	-0.7404457088	-1.282313862	-1.007627209	0.5321060297	0.1806894775	0.5196307087	-0.785363659	0.06286865776	0.6785020959	-1.004194551	1.647587856	0.1950355329	9.109570603e-05	-3.69266623e-05
0.244444444	-0.1359626835	-0.1646841718	-0.3441771723	1.174587219	1.062360394	-0.1011711467	0.2175726148	0.1685506636	0.2436062542	0.156327416	0.156327416	-0.1275718602	-0.1450092503	-7.999189052e-07	0.2067078429	-0.1643484383	-0.1539922093	0.1657692128	0.1657692128	-0.01053897463	-0.1260666942	1.166225308e-05	0.2449175519	0.9821367357	-0.8411642511	-0.7405972942	-1.281239759	-1.008688251	0.5305264416	0.1805092223	0.5200827318	-0.7851877726	0.06291063832	0.6786438651	-1.004321716	1.647414058	0.1952337105	7.610365514e-05	-4.00067044e-05
0.247222222	-0.1357234709	-0.164673336	-0.3447771816	1.174632353	1.062465673	-0.1014042523	0.2172197	0.1684558047	0.2439238424	0.1564210238	0.1564210238	-0.1275099013	-0.1450101522	-1.168392571e-06	0.2064925732	-0.1641089572	-0.1542460964	0.1658490074	0.1658490074	-0.01034771915	-0.1261161123	1.141253076e-05	0.2448192219	0.9838799022	-0.842384607	-0.7407527334	-1.280116435	-1.009815558	0.5289742775	0.1803076655	0.520489858	-0.7849187278	0.06294105926	0.6788082781	-1.004455942	1.647225222	0.1953973712	5.861652652e-05	-4.012326997e-05
0.25	-0.1355139291	-0.1646107531	-0.3453499328	1.17466727	1.062513793	-0.1016469078	0.2169435268	0.1683066325	0.2442769898	0.156571005	0.156571005	-0.1274816988	-0.1450032648	-1.211924657e-06	0.2063322806	-0.1638079133	-0.1545203394	0.1659071893	0.1659071893	-0.01022589572	-0.1261121691	1.131518976e-05	0.244759651	0.9855964172	-0.8437167935	-0.7409565049	-1.278971605	-1.010976012	0.5276046802	0.1801708535	0.5206100495	-0.7845646203	0.06295438453	0.6790001217	-1.004633462	1.647032484	0.1954280556	4.188245661e-05	-3.792988406e-05
0.252777778	-0.1353341889	-0.1644735491	-0.3458683776	1.174690297	1.062497735	-0.1019033616	0.2167672815	0.1680673054	0.2446392462	0.1567958781	0.1567958781	-0.1275181556	-0.1449918634	-9.499877219e-07	0.2062466763	-0.1634107347	-0.1547779605	0.1659416432	0.1659416432	-0.01018527384	-0.1260171077	1.189176671e-05	0.2447726779	0.987255725	-0.8452237359	-0.7412495687	-1.277822382	-1.012135492	0.5265068286	0.180147538	0.5202954913	-0.7841539056	0.0629471416	0.6792233116	-1.00487668	1.64684529	0.1952630828	2.862796347e-05	-3.411961013e-05
0.255555556	-0.1351581429	-0.1643372307	-0.3463378248	1.174700626	1.062416644	-0.1021711643	0.2166123904	0.1678104437	0.2450107571	0.1570451004	0.1570451004	-0.1275889182	-0.1449761228	-8.691422243e-07	0.2061740259	-0.1630001197	-0.1550409068	0.1659392877	0.1659392877	-0.01016802763	-0.1258678187	1.293503175e-05	0.2447892516	0.9889248057	-0.8468593447	-0.7416364078	-1.276644686	-1.013258976	0.5254959001	0.180155925	0.5197774214	-0.7837875253	0.06292418843	0.6794781541	-1.005153824	1.646667313	0.1949829265	1.881125255e-05	-2.928029498e-05
0.258333333	-0.134952998	-0.164301751	-0.3467715394	1.174697625	1.06227122	-0.1024461813	0.2163746947	0.1676354715	0.2453983685	0.157251022	0.157251022	-0.127647975	-0.144955665	-1.325094022e-06	0.2060320929	-0.1626877625	-0.1553457932	0.1658844387	0.1658844387	-0.01009887174	-0.1257198191	1.404181887e-05	0.2447141391	0.9906945475	-0.8485504764	-0.7420994586	-1.275404763	-1.014307295	0.524313016	0.1800717564	0.5193981413	-0.7835723337	0.06289224696	0.6797638229	-1.005419912	1.646501042	0.1947037131	1.166912236e-05	-2.413406746e-05
0.261111111	-0.1346876444	-0.1644641725	-0.3471830001	1.174680596	1.062061917	-0.1027242534	0.2159536766	0.1676393278	0.2458091809	0.1573479305	0.1573479305	-0.1276497681	-0.1449305925	-2.382059362e-06	0.2057413247	-0.1625827012	-0.1557296987	0.1657613858	0.1657613858	-0.009904863	-0.1256275946	1.486757419e-05	0.2444544742	0.9926531249	-0.8502251293	-0.7426071164	-1.2740697	-1.015240389	0.522699669	0.1797694623	0.5195059053	-0.783600646	0.06285744932	0.6800794122	-1.005630749	1.646348924	0.1945394712	6.421981986e-06	-1.967396121e-05
0.263888889	-0.1343997839	-0.1648191632	-0.3475983828	1.17464787	1.061779416	-0.1030009847	0.2153908693	0.1678371587	0.2462549105	0.1573360689	0.1573360689	-0.1275812402	-0.1449092676	-3.678425666e-06	0.205328379	-0.1627061708	-0.1562484652	0.1655473872	0.1655473872	-0.009604792787	-0.1256079586	1.520727168e-05	0.2440278441	0.9948061011	-0.8518498995	-0.7431979212	-1.272614679	-1.016146373	0.5206778267	0.1792347302	0.5201461827	-0.7838392041	0.0628150664	0.6804316876	-1.005757938	1.646199938	0.1945298959	2.463924394e-06	-1.70044221e-05
0.266666667	-0.1342168986	-0.1652287588	-0.3480603106	1.174596601	1.061401666	-0.1032717209	0.2149125357	0.1681384626	0.2467525991	0.1573008847	0.1573008847	-0.127471881	-0.1449103951	-4.57835783e-06	0.2049584084	-0.1629659395	-0.1569818083	0.1652106065	0.1652106065	-0.009336321095	-0.1256288964	1.517269384e-05	0.243596744	0.9970526552	-0.853442089	-0.7440251579	-1.271024771	-1.017282308	0.5186448341	0.1785700841	0.5209768095	-0.7840938473	0.06274669338	0.6808377555	-1.005792917	1.646024907	0.1946183284	-1.98847742e-07	-1.713733606e-05
0.269444444	-0.134273045	-0.1655463788	-0.3486120746	1.174523946	1.060905703	-0.10353186	0.2147576695	0.1684461694	0.2473185714	0.1573330212	0.1573330212	-0.1273541481	-0.1449530928	-4.571387566e-06	0.204806772	-0.1632626122	-0.1580100047	0.1647189342	0.1647189342	-0.009244640174	-0.1256551664	1.52043791e-05	0.2433353681	0.9992855473	-0.8550238274	-0.7452652706	-1.269285337	-1.018915131	0.5170315103	0.1778432368	0.5216520316	-0.7841506944	0.06263326643	0.6813156264	-1.005727816	1.645792778	0.1947416807	-1.006086508e-06	-2.1216206e-05
0.272222222	-0.1346755088	-0.1656488208	-0.3492856904	1.174427794	1.0602718	-0.1037782121	0.2151210129	0.1686752762	0.2479652439	0.1575071337	0.1575071337	-0.1272567687	-0.1450498982	-3.570873198e-06	0.2050158318	-0.1635088527	-0.1593992379	0.1640439085	0.1640439085	-0.009443400065	-0.1256551006	1.572746159e-05	0.2433874859	1.001412313	-0.8566157196	-0.7470798424	-1.267383811	-1.021253431	0.5162029869	0.1770576444	0.5219039938	-0.7838302606	0.06245914528	0.6818823809	-1.005564079	1.645479492	0.1948375013	1.731053055e-07	-2.937554947e-05
0.275	-0.1353301818	-0.1655840255	-0.3500347545	1.174311004	1.059504639	-0.1040173915	0.2158678502	0.1688258145	0.248684963	0.1577837108	0.1577837108	-0.1271787563	-0.1451671609	-2.563093625e-06	0.2054772123	-0.1637032892	-0.1611198461	0.1631814924	0.1631814924	-0.009815256902	-0.1256231539	1.642099294e-05	0.2436556093	1.003444543	-0.8582145877	-0.7494136755	-1.265328118	-1.024092749	0.5159767451	0.1760886968	0.5218497835	-0.7832908594	0.06223195792	0.6825469407	-1.005376807	1.645117341	0.1948482357	-2.435869922e-06	-3.31894468e-05
0.277777778	-0.1360522337	-0.1654765711	-0.3507786201	1.174178626	1.058619913	-0.104260313	0.2167154456	0.1689353083	0.2494623299	0.1580726061	0.1580726061	-0.1271052534	-0.1452509303	-2.555144301e-06	0.2059691416	-0.1638824467	-0.1631005559	0.1621380738	0.1621380738	-0.01013964137	-0.1255646507	1.653347841e-05	0.2439319707	1.005439756	-0.8598051307	-0.752099021	-1.26313725	-1.027039438	0.5159162702	0.1747543544	0.5217892639	-0.7828321852	0.0619693579	0.6833144966	-1.005274981	1.644764187	0.1947186102	-1.724272541e-05	-2.012463874e-05
0.280555556	-0.1366565739	-0.1654511032	-0.3514377114	1.174035691	1.057633394	-0.1045178076	0.217380863	0.1690406698	0.2502832339	0.1582842446	0.1582842446	-0.1270205498	-0.1452479032	-3.890113776e-06	0.2062690841	-0.164082203	-0.1652713175	0.160919613	0.160919613	-0.01019657327	-0.1254838646	1.55226839e-05	0.2440068174	1.007454915	-0.8613707048	-0.7549524406	-1.260832422	-1.029696289	0.5155768571	0.1728670679	0.5220370435	-0.7827398646	0.06168853099	0.6841900036	-1.00536821	1.644477859	0.1943936906	-5.273578435e-05	2.256172088e-05
0.283333333	-0.1370864779	-0.1655781642	-0.3519581261	1.17388243	1.056550805	-0.1048013383	0.2177683248	0.1691711222	0.2511326309	0.1583839257	0.1583839257	-0.1269157066	-0.1451493241	-6.011135004e-06	0.2063382225	-0.1643288515	-0.167546173	0.1595718388	0.1595718388	-0.009948270896	-0.1254217975	1.420351911e-05	0.2438341421	1.009544177	-0.8629317838	-0.7578319583	-1.258423823	-1.031899718	0.5146903059	0.1704138439	0.5227669505	-0.783139987	0.0614007914	0.6851469765	-1.005671961	1.644233198	0.1938951861	-0.0001089522252	9.429819471e-05
0.286111111	-0.1375721097	-0.1658073551	-0.3523424007	1.173708357	1.055355343	-0.1051238709	0.2182001032	0.1693401352	0.2519920312	0.1584585796	0.1584585796	-0.1267984345	-0.1450443741	-7.697393533e-06	0.2065486361	-0.1646288501	-0.1698025136	0.1582295378	0.1582295378	-0.009763350784	-0.1255050449	1.448083812e-05	0.2437358717	1.011756909	-0.8645921179	-0.7607245757	-1.255892818	-1.034009307	0.513399197	0.1677209816	0.5238551802	-0.783807533	0.0611053912	0.6860890504	-1.005989798	1.643819589	0.1934166476	-0.0001661398182	0.0001656713762
0.288888889	-0.1383818303	-0.1660711292	-0.3526027651	1.173501473	1.054027231	-0.1054983761	0.2190545999	0.1695590002	0.2528441851	0.1586117387	0.1586117387	-0.126678968	-0.1450346726	-7.991913531e-06	0.2073262411	-0.1649861924	-0.1719154355	0.1570377169	0.1570377169	-0.01006629915	-0.1258748422	1.619838721e-05	0.2440814162	1.014141902	-0.8664628196	-0.7636560791	-1.253214661	-1.036457323	0.5119120381	0.1651171711	0.5251574512	-0.7844637254	0.06080034074	0.6869103897	-1.00609555	1.643001649	0.19317562	-0.0002018228168	0.0002052400393
0.291666667	-0.1397594009	-0.1663069686	-0.3527483711	1.173250886	1.052548803	-0.1059373212	0.2206767685	0.1698350452	0.2536665752	0.1589380152	0.1589380152	-0.1265765418	-0.14521663	-6.586499352e-06	0.2090606682	-0.1654014774	-0.173762315	0.1561299488	0.1561299488	-0.01124304826	-0.1266589355	1.689871972e-05	0.2452118236	1.016743248	-0.8686510118	-0.766671172	-1.250367818	-1.039635472	0.5104405321	0.1628280817	0.5265745653	-0.7848316457	0.06048077998	0.6875148547	-1.005788914	1.641577373	0.1933677875	-0.0001961735655	0.0001854035394
0.294444444	-0.1415902558	-0.166539205	-0.3527053898	1.172964022	1.050933135	-0.1064493926	0.2229179866	0.1701220496	0.254330886	0.1593954496	0.1593954496	-0.1266394655	-0.1456250034	-4.989417145e-06	0.2116276458	-0.1658282633	-0.1752135122	0.1555001059	0.1555001059	-0.01306734867	-0.1277254306	1.498901965e-05	0.2470810686	1.019539527	-0.8712682348	-0.7697311007	-1.247411577	-1.043351786	0.5090513838	0.1607614362	0.5279812429	-0.7849830735	0.06009079503	0.6879533418	-1.005278155	1.639837125	0.1938568656	-0.0001634571158	0.0001217507914
0.297222222	-0.143483936	-0.1668600587	-0.3523347604	1.172662548	1.049216986	-0.1070405611	0.2252495445	0.1703326775	0.2546272302	0.159837227	0.159837227	-0.1271143071	-0.1462487851	-5.089435745e-06	0.2145078622	-0.166183752	-0.1761333091	0.1550362192	0.1550362192	-0.01483776328	-0.1287364337	1.173684763e-05	0.2493464699	1.022459212	-0.8744323043	-0.7727114527	-1.244469224	-1.046970198	0.5076860165	0.1586585469	0.5291905074	-0.7852787898	0.05953484732	0.6883916518	-1.005090272	1.638449169	0.1942547464	-0.0001405415701	6.735624128e-05
0.3	-0.1450421401	-0.1673641989	-0.3514952667	1.172368625	1.047437791	-0.1077168707	0.2271321798	0.1703787699	0.2543446518	0.1601142862	0.1601142862	-0.1282489694	-0.1470773482	-7.559060987e-06	0.2171710948	-0.1663840171	-0.1763867601	0.1546247095	0.1546247095	-0.01583597241	-0.1293421399	1.08302907e-05	0.2516578452	1.025429859	-0.8782624451	-0.7754710757	-1.241666652	-1.049850646	0.5062722722	0.1563120793	0.529986925	-0.7861000472	0.05871636489	0.6890000783	-1.005764903	1.638088581	0.1941698258	-0.0001599338436	8.054043948e-05
