inDegrees=no
DataType=double
version=3
OpenSimVersion=4.6-2026-06-22-85aaf64
endheader
time	/jointset/ground_pelvis/pelvis_tilt/value	/jointset/ground_pelvis/pelvis_list/value	/jointset/ground_pelvis/pelvis_rotation/value	/jointset/ground_pelvis/pelvis_tx/value	/jointset/ground_pelvis/pelvis_ty/value	/jointset/ground_pelvis/pelvis_tz/value	/jointset/hip_r/hip_flexion_r/value	/jointset/hip_r/hip_adduction_r/value	/jointset/hip_r/hip_rotation_r/value	/jointset/hip_l/hip_flexion_l/value	/jointset/hip_l/hip_adduction_l/value	/jointset/hip_l/hip_rotation_l/value	/jointset/back/lumbar_extension/value	/jointset/back/lumbar_bending/value	/jointset/back/lumbar_rotation/value	/jointset/walker_knee_r/knee_angle_r/value	/jointset/patellofemoral_r/knee_angle_r_beta/value	/jointset/walker_knee_l/knee_angle_l/value	/jointset/patellofemoral_l/knee_angle_l_beta/value	/jointset/acromial_r/arm_flex_r/value	/jointset/acromial_r/arm_add_r/value	/jointset/acromial_r/arm_rot_r/value	/jointset/acromial_l/arm_flex_l/value	/jointset/acromial_l/arm_add_l/value	/jointset/acromial_l/arm_rot_l/value	/jointset/ankle_r/ankle_angle_r/value	/jointset/ankle_l/ankle_angle_l/value	/jointset/elbow_r/elbow_flex_r/value	/jointset/elbow_l/elbow_flex_l/value	/jointset/subtalar_r/subtalar_angle_r/value	/jointset/subtalar_l/subtalar_angle_l/value	/jointset/radioulnar_r/pro_sup_r/value	/jointset/radioulnar_l/pro_sup_l/value	/jointset/mtp_r/mtp_angle_r/value	/jointset/mtp_l/mtp_angle_l/value	/jointset/radius_hand_r/wrist_flex_r/value	/jointset/radius_hand_r/wrist_dev_r/value	/jointset/radius_hand_l/wrist_flex_l/value	/jointset/radius_hand_l/wrist_dev_l/value	/jointset/ground_pelvis/pelvis_tilt/speed	/jointset/ground_pelvis/pelvis_list/speed	/jointset/ground_pelvis/pelvis_rotation/speed	/jointset/ground_pelvis/pelvis_tx/speed	/jointset/ground_pelvis/pelvis_ty/speed	/jointset/ground_pelvis/pelvis_tz/speed	/jointset/hip_r/hip_flexion_r/speed	/jointset/hip_r/hip_adduction_r/speed	/jointset/hip_r/hip_rotation_r/speed	/jointset/hip_l/hip_flexion_l/speed	/jointset/hip_l/hip_adduction_l/speed	/jointset/hip_l/hip_rotation_l/speed	/jointset/back/lumbar_extension/speed	/jointset/back/lumbar_bending/speed	/jointset/back/lumbar_rotation/speed	/jointset/walker_knee_r/knee_angle_r/speed	/jointset/patellofemoral_r/knee_angle_r_beta/speed	/jointset/walker_knee_l/knee_angle_l/speed	/jointset/patellofemoral_l/knee_angle_l_beta/speed	/jointset/acromial_r/arm_flex_r/speed	/jointset/acromial_r/arm_add_r/speed	/jointset/acromial_r/arm_rot_r/speed	/jointset/acromial_l/arm_flex_l/speed	/jointset/acromial_l/arm_add_l/speed	/jointset/acromial_l/arm_rot_l/speed	/jointset/ankle_r/ankle_angle_r/speed	/jointset/ankle_l/ankle_angle_l/speed	/jointset/elbow_r/elbow_flex_r/speed	/jointset/elbow_l/elbow_flex_l/speed	/jointset/subtalar_r/subtalar_angle_r/speed	/jointset/subtalar_l/subtalar_angle_l/speed	/jointset/radioulnar_r/pro_sup_r/speed	/jointset/radioulnar_l/pro_sup_l/speed	/jointset/mtp_r/mtp_angle_r/speed	/jointset/mtp_l/mtp_angle_l/speed	/jointset/radius_hand_r/wrist_flex_r/speed	/jointset/radius_hand_r/wrist_dev_r/speed	/jointset/radius_hand_l/wrist_flex_l/speed	/jointset/radius_hand_l/wrist_dev_l/speed
0	-0.1363105750773164	-0.1603116402832198	-0.3034291019272479	1.167007586999401	1.046732768227243	-0.09918548444703959	0.2353744546392179	0.1756130624369598	0.2358110623803633	0.2142345886222566	-0.1630246469715969	-0.1517890463082546	0.23188519429009	0.9322516878703688	-0.8005473443350254	0.1500206680638426	0.1500206680638461	0.1679145688987206	0.167914568898727	-0.6919184382636868	-1.294161443538193	-0.9720367169445935	0.05337829223700742	0.674798553496177	-0.9991891455465494	-0.1259226278529148	-0.01364378967271584	0.5836378841642555	1.641666230380912	-0.1445641893095764	-0.1233570014358052	0.2073568156936869	0.1955668376436331	2.229184762598447e-06	5.865058260376995e-06	0.4967459271077195	-0.7844873039629063	-0.0001713106039431874	0.0001302874375089612	0.04716171314761899	-0.09000535579291949	-0.150032460121633	0.07587570395576283	0.5947004515963493	0.0002737652608674224	-0.1549736651222145	-0.04804345493009636	0.01702464784415126	-0.192598305019986	0.02066371919240287	-0.00279463066598368	0.2768789087351541	0.03445683600375767	0.09339186776549004	0.04073123413989416	0.04073123413989419	0.03843875123670674	0.03843875123670674	-0.2974366373766467	-0.2299629472071781	0.234165534591164	0.1054806419304286	0.04368451816973396	0.0388316110715439	0.004908355428380431	0.009995614637757898	-0.108785769712667	0.001359622673340249	-0.008192432122163357	-0.03260427653981711	0.01928765969254806	-0.0007508197620908776	4.145964376569203e-05	7.948323867588541e-05	-0.001931427151634333	-0.001301086474230805	0.003902492584005291	0.001341217278918792
0.005	-0.1360795930397853	-0.1607806754692115	-0.3041565298781576	1.167378754842391	1.049557327217548	-0.09918241139846747	0.2346051234123409	0.1753882197107018	0.2358821689853142	0.2132866065504097	-0.1629496242590325	-0.1517551738843647	0.2332649149936916	0.9324235973835295	-0.8001789229179808	0.1502074283161493	0.1502074283161483	0.1681060798773397	0.1681060798773414	-0.6931773484788293	-1.295176532515278	-0.9709669511754332	0.05386675827390897	0.6749378118827708	-0.9990361227457679	-0.1259192584046146	-0.01361795339413437	0.5831868357198507	1.641673711972029	-0.1445974155002762	-0.1234470274741771	0.2079143332388639	0.1955667235085377	2.320525792735706e-06	6.072787840311881e-06	0.4969495054909684	-0.784455918877016	-0.0001578884386097233	0.0001367213690815729	0.04516644260176237	-0.09726133317942678	-0.1401862760589163	0.07265023593196572	0.5337590396745406	0.0009465059820642291	-0.1529684351061074	-0.04236927087095876	0.01263118999236549	-0.1865792648984169	0.009452016767028067	0.01459596249685401	0.2744212784772558	0.03323796995284551	0.05643215267287127	0.03473031987264301	0.03473031987264304	0.03785230842477055	0.03785230842477055	-0.2112623413285892	-0.1789327965045637	0.1889708383011601	0.08885272233620041	0.01171494405301783	0.0222671074394746	-0.002151173145783303	0.001851670880364792	-0.08059966255863206	0.002708653800589559	-0.006832940690686491	-0.007999050403353854	0.1759631355351208	0.0004945806035440977	7.092188731547757e-06	1.465543178705755e-05	0.07176849139290496	0.01686043324092546	0.001740865634838387	0.001018690316186919
0.01	-0.1358595572439295	-0.1612807797607707	-0.3048234402460038	1.16773467738564	1.052056717575478	-0.09917610886907816	0.2338426741933816	0.1751846133752715	0.2359495062388484	0.2123689485614759	-0.16292906029459	-0.151660563060537	0.2346235261325805	0.9325733775768207	-0.7999584682720919	0.1503755457934811	0.1503755457934756	0.1682899586651207	0.1682899586651177	-0.694082410603455	-1.295979373032016	-0.9701947079092997	0.05425628895542951	0.6749126640125599	-0.9989675784901705	-0.1259300455547475	-0.01361014522305684	0.5827422269935756	1.64170407331919	-0.1446498676818127	-0.1234829210557829	0.2088388848206069	0.1955696775984648	2.420260854337286e-06	6.12208096313745e-06	0.4973476691310657	-0.7842886465063912	-0.0001511570267402234	0.0001383376903314407	0.04278321647748804	-0.1024329980199297	-0.1258254268962693	0.06977758405963164	0.4646329986464902	0.001565557587740162	-0.1522208619551312	-0.03954889859901864	0.01551690727746951	-0.1804686718547555	-0.001119780056358496	0.02150072930908591	0.2684350828501121	0.02560510805596597	0.03420515930313116	0.03327412414992071	0.03327412414992072	0.03538587490147005	0.03538587490147005	-0.1558974011699146	-0.1450635630685377	0.115156533380419	0.06590649977802199	-0.02207798455211666	0.005040192997905921	-0.0007542839448495218	0.002784371636182957	-0.1062098824607573	0.01051152509109977	-0.01588282845687515	-0.01095129383340104	0.1661012743189626	0.0004764702469173484	4.481725635142031e-05	1.610865583215792e-05	0.07590267558769938	0.05305382741960471	0.001226191198419604	-0.0005858268501787627
0.015	-0.1356519322879835	-0.1618017827509496	-0.3054165676126466	1.168075820273268	1.054197012575731	-0.09916592195678876	0.2330833587551517	0.1749918488297894	0.2360392337538414	0.2114838588362237	-0.1629614681316424	-0.1515455262837856	0.2359380161730703	0.9326750062060983	-0.7998352107255583	0.1505439996488105	0.1505439996488086	0.1684610371249884	0.1684610371249901	-0.6947901546624183	-1.296651486993485	-0.9697862250639575	0.05452764918630679	0.6747172960222033	-0.9989847991053985	-0.1259229371180627	-0.0135851593179038	0.5821003926134111	1.641778274296063	-0.1447593087668871	-0.1235710044636316	0.2094493978258412	0.1955702364047277	2.65454375194149e-06	6.232510375078494e-06	0.4976703251503968	-0.7839625319448543	-0.0001451458108959849	0.0001304641726679417	0.0403612192644992	-0.1056424522510015	-0.1125330054403602	0.06647716417564248	0.3915240742612645	0.002688079911904709	-0.1512645400379181	-0.03730030085893959	0.01956847211936992	-0.1732645248644961	-0.01202951773957003	0.02516737389126435	0.2556174047577271	0.01512157834938311	0.01295323460325786	0.03411678734250192	0.03411678734250193	0.03355528847375692	0.0335552884737569	-0.1314173632098177	-0.1258918697659743	0.0589114043614788	0.04401948688491315	-0.05572680942492281	-0.01166833899897364	0.003009691816769886	0.006663568414441118	-0.147093454870053	0.01800166851062816	-0.02679464685230127	-0.02256103919264345	0.08498388964937463	-0.0003077977749394605	4.628947345778711e-05	2.354965614236389e-05	0.05449404777351443	0.06584116807645643	0.001026896070908947	-0.002441559480918663
0.02	-0.1354550005176485	-0.1623339468252747	-0.3059598451572026	1.168397424959236	1.055972349046158	-0.09914743934412021	0.232332436525992	0.1748141765540313	0.2361371346940386	0.210639330246647	-0.1630512171017356	-0.1514023553966266	0.2371622648942771	0.9327253457072571	-0.7998503821731301	0.1507168073605017	0.1507168073605035	0.1686306093441259	0.1686306093441321	-0.6954387556434972	-1.297259390212145	-0.9694988458696349	0.05471030276739889	0.6743588199399664	-0.9990816608792586	-0.1259058283045995	-0.01354897375901836	0.581305596592225	1.641872418032823	-0.1449068245631301	-0.1236913211465753	0.209757523335847	0.1955660511203835	2.857091296590416e-06	6.312442996542132e-06	0.4979059527650887	-0.7837457431168134	-0.0001424020567148021	0.000115142302865276	0.03850594223308762	-0.1068974316784361	-0.1058854980615383	0.06196230339559065	0.3186495867163481	0.00488383773940375	-0.1488635783269672	-0.03351199070935292	0.01878627735916557	-0.1642442175845924	-0.02405623327274322	0.03275437347210106	0.2323385551369363	0.005089456808331872	-0.02116643833908173	0.0350156666946471	0.03501566669464711	0.03478337860936396	0.03478337860936392	-0.1322401700161104	-0.1193792659448563	0.0667150729726138	0.03042383986395372	-0.08732122130429953	-0.02681627045490296	0.003245866766519575	0.007264233129140712	-0.1673945388693766	0.01848862904627697	-0.03111271292437276	-0.02384460387142675	0.04514627622758894	-0.001421165995943933	3.212311516930907e-05	3.909939641195555e-06	0.04109131373204206	0.009323534021208777	-8.079346680263769e-05	-0.003565167705845438
0.025	-0.1352699931555158	-0.1628687106030622	-0.3064816129729005	1.168694237531744	1.057388024528176	-0.09911723912087175	0.23159968648386	0.1746569213860754	0.2362236830276737	0.2098469124544679	-0.1632001659093549	-0.1512170341348491	0.2382518600405939	0.9327319359655234	-0.8000471764597465	0.1508921791624857	0.1508921791624873	0.1688087343991924	0.1688087343991937	-0.6961297069009129	-1.297843290255871	-0.969082747875387	0.05484333753022654	0.6738614233172203	-0.9992437660247484	-0.1258924655145167	-0.01351396081089927	0.5804467088948034	1.641958690420488	-0.1450659639280183	-0.1238045745847724	0.209920012305701	0.1955563931121656	2.981316577329245e-06	6.326799355107595e-06	0.4980941639742488	-0.7839071207068468	-0.0001458034232132019	9.585930661504843e-05	0.0347946341961373	-0.1069046400888221	-0.1029810593547863	0.05672450864372728	0.2484853572236201	0.006989106332447318	-0.1434958660343395	-0.02961905206863084	0.01598562874070471	-0.1519540571104251	-0.0349501707412215	0.04087954693132163	0.2032941058734284	-0.001346196580653636	-0.05542509742707172	0.03473363240906571	0.03473363240906574	0.03591208976747882	0.03591208976747877	-0.1433017795374235	-0.111692974285989	0.09668601140273771	0.02370833083284667	-0.1085137481324442	-0.0364479964156337	0.002294006574476544	0.006986686984793772	-0.1756310488588549	0.01630191234149142	-0.03273806395026547	-0.02220816182359679	0.01613169837788717	-0.002315110916933857	1.886184695740611e-05	1.654232089812527e-06	0.03596055162658726	-0.06982837034620581	-0.001112804625570346	-0.004064085449007487
0.03	-0.1351140778599258	-0.1634019588326853	-0.306991250062122	1.168964287876036	1.058465850129722	-0.09907961973307113	0.2309048835905637	0.1745156962773887	0.2362985167079039	0.209127478097309	-0.1633949876188106	-0.1509985057703893	0.2391931519778479	0.932722955310662	-0.8003833713585972	0.1510601494676942	0.1510601494676956	0.1689841847053178	0.1689841847053141	-0.6968633879047438	-1.298351442182409	-0.9685623668888451	0.05495656873138475	0.6733049192552588	-0.9994303629301611	-0.1258809406657762	-0.01347664948050745	0.5795545810160404	1.642038253019456	-0.1452361555118264	-0.123920916668973	0.2098816641862646	0.195544169274957	3.058658264476312e-06	6.327201600488485e-06	0.4982832320983004	-0.7844035648233925	-0.0001518606179006361	7.534090182758206e-05	0.02686911561597462	-0.1062912124126325	-0.1010332074709827	0.05125741210912124	0.1835096345274553	0.007851503560259501	-0.1336847187927052	-0.02709996700169732	0.014100415997191	-0.1350508435765199	-0.04240539400732859	0.04603721454500686	0.1730172715117977	-0.001138908442771862	-0.07692668323282985	0.03205506798448539	0.03205506798448544	0.03371347903287973	0.03371347903287967	-0.1493320685821495	-0.08908001906938781	0.1084282698902272	0.02250241519617581	-0.1109641969904214	-0.03661297442401027	0.002510690229568928	0.008183586038231428	-0.1806906114059971	0.01580471356723542	-0.03553360049229118	-0.02508006227285111	-0.03518855948860652	-0.00244749759220919	1.336967773260415e-05	-1.671705632634153e-06	0.04143407968866945	-0.1247030765837466	-0.001143124742416378	-0.004059331120740967
0.035	-0.1350079931393514	-0.1639294033363788	-0.3074999994612196	1.169206751164653	1.059233109586439	-0.0990396951770868	0.2302694506286401	0.1743849068365145	0.2363652410114537	0.2085022802442739	-0.163619923830566	-0.1507594251654884	0.2399789328023696	0.9327292483280852	-0.8008044912994627	0.151209492805166	0.1512094928051664	0.1691419039264779	0.1691419039264751	-0.6975997072869558	-1.298733432050474	-0.968033384008479	0.05507544635957012	0.6727760671320758	-0.9995985644133482	-0.1258678705853233	-0.01343096514886107	0.5786603800551721	1.642116768143111	-0.1454199732659861	-0.1240559291678161	0.2095890480464724	0.1955328845604661	3.105350710396802e-06	6.303408508067146e-06	0.4984993720813046	-0.7850542258995877	-0.0001562726589758047	5.609666027511129e-05	0.01495550866146938	-0.1043513868782826	-0.1039064632283537	0.04575370559789841	0.1245294979948365	0.008130837023847329	-0.1199388396859387	-0.02519650176845361	0.01254555340132931	-0.114654098095097	-0.04727594966640972	0.04953885115927913	0.140843815497587	0.004278881444551482	-0.09125853482733107	0.02742555535967676	0.02742555535967679	0.02912849773855632	0.02912849773855627	-0.1413439708905305	-0.06612427864199041	0.09964070677482295	0.02555514053473397	-0.09884937736850249	-0.0299911352825923	0.002421959206024933	0.01007103424123255	-0.1733832223147022	0.01532808712483521	-0.0375396536795997	-0.02827401335128938	-0.07861848083555108	-0.001994268350754749	5.313287351764125e-06	-1.032085680680352e-05	0.04520815232701331	-0.1175111034847639	-0.0005985696382935787	-0.003555050397340498
0.04	-0.1349706154128344	-0.1644421206796031	-0.3080447138050085	1.169422082954614	1.059722498608025	-0.09899818618092891	0.229710991456612	0.1742639243354994	0.2364235347217032	0.2079846791117819	-0.1638648157051903	-0.1505036790213572	0.2405970777048307	0.9327719717854318	-0.8012933291240101	0.1513318379048486	0.1513318379048479	0.1692730125657745	0.1692730125657727	-0.6982383104795283	-1.299036768473682	-0.9676012015759106	0.05521718518129971	0.6723336982307169	-0.9997235094473049	-0.1258596749011719	-0.013376130261886	0.5778568142991597	1.642188801403004	-0.1456070135737023	-0.124197147563355	0.2091278735338361	0.1955249477899834	3.111851005155674e-06	6.199239777711425e-06	0.4987371760097107	-0.7853981733541437	-0.0001576150937899971	4.062354888324548e-05	-0.0006136820070083459	-0.100400348224918	-0.1154191853474726	0.04040481264653935	0.07236146047531264	0.008485279629679538	-0.1028952028345528	-0.0231771910580382	0.01072817867710719	-0.09201215535932594	-0.05038765915487903	0.05270343023712655	0.1059629026875853	0.01343326752645881	-0.1040138367055876	0.02125577286879304	0.02125577286879304	0.02306924628750273	0.0230692462875027	-0.1102455927264859	-0.05761864112675273	0.06970809077121667	0.03164689261386376	-0.07637090826077293	-0.01931039473196685	0.0005609317089051433	0.01184380816970879	-0.1444365294635822	0.01321196806240765	-0.03682262191489978	-0.02756242095115843	-0.1026119086262439	-0.001108319988954889	-2.707182732043439e-06	-3.382196080638735e-05	0.05009965784944811	-0.002017627927969326	8.471776197411336e-05	-0.002550879056498988
0.045	-0.1350158496385386	-0.1649313585192519	-0.308657839984126	1.169612301087747	1.059969142983249	-0.09895560933515615	0.2292401275015457	0.174151701390117	0.2364731235493215	0.207583736503346	-0.164119876579309	-0.1502340777155976	0.2410434752955061	0.9328733604212852	-0.8018398622836537	0.1514222575910944	0.1514222575910983	0.1693726710443376	0.169372671044337	-0.6987072113058672	-1.299317189958074	-0.9673305731919754	0.05539609353200046	0.6720170182725155	-0.9997891675316956	-0.1258623473131499	-0.013311901943617	0.5772259915621477	1.642248175999083	-0.1457873742606713	-0.1243300283371186	0.208567886530464	0.1955235042293721	3.111291200467486e-06	5.999186066982256e-06	0.4990173217816933	-0.7850988429453536	-0.0001553244183154693	3.098765996793095e-05	-0.01721132188779824	-0.09523254285904581	-0.1291360341747514	0.03595704889441358	0.02764549049913912	0.008380718486856911	-0.08608228346019986	-0.02199974726752008	0.009286610543551378	-0.06843673976792913	-0.05116305747656495	0.054836536995488	0.07399887499832443	0.02847480657738616	-0.1138679351082547	0.01521209673847534	0.01521209673847534	0.01704785225586126	0.01704785225586125	-0.08232120728964017	-0.0534670247657061	0.04231910810843281	0.04025086509841148	-0.05109869639084939	-0.007110273453990776	-0.001370944000727513	0.01399646511873473	-0.109182212423706	0.0106679961860872	-0.03561615387023755	-0.02592214074841808	-0.1184658633638818	0.0007965650272607684	1.486366589663287e-06	-4.532606776694079e-05	0.06092422726034041	0.09670158564805002	0.000823802331648627	-0.001311775583200085
0.05	-0.1351400417678437	-0.1653938236604379	-0.3093291216255079	1.169784399526436	1.060012445521866	-0.09891602639798601	0.2288438495793274	0.1740410492610985	0.2365181934088722	0.2072995931965737	-0.1643717099497957	-0.1499583192021146	0.2413510938689716	0.9330702460488305	-0.8024246935546563	0.1514869588233091	0.1514869588233176	0.1694460281595109	0.1694460281595115	-0.6991115872472307	-1.299560609442695	-0.9671402520417703	0.05562303800660358	0.6718147350530975	-0.9997961865261418	-0.1258707948161855	-0.0132346761508902	0.5767520957040978	1.642296782623035	-0.1459661201223804	-0.1244596914927807	0.2079723851937848	0.1955355701330841	3.116745728381255e-06	5.754713657225412e-06	0.4993360740454817	-0.7846816395556228	-0.0001494545714353943	2.742280231551201e-05	-0.03219684344738274	-0.08969126883979582	-0.1386813702531961	0.03315693486889426	-0.008975274167670287	0.007287716188635267	-0.07306078969540294	-0.02254886451242636	0.008920591450042016	-0.04529243469391823	-0.04909665770210063	0.05516631332647059	0.05045129580361209	0.05163206420320304	-0.1193330812491481	0.01096839125638024	0.01096839125638025	0.01254870093159563	0.01254870093159562	-0.08443563873632626	-0.04281784121781396	0.03758519727917214	0.05086134217481203	-0.03061221274740905	0.004145241245807444	-0.001749104714136815	0.01704279795283127	-0.08166577787876354	0.00890477921210176	-0.03617669181100207	-0.02627537371058953	-0.1168176419490308	0.004295465740316721	-3.014496912607666e-07	-5.158944041745734e-05	0.06554225457180385	0.04513156444836529	0.001516386324193055	-0.0001224665513407524
0.055	-0.1353337513694479	-0.1658249071525047	-0.3100417783222665	1.169946321449019	1.059891497300959	-0.09888270809742061	0.2285029246283414	0.173923552809836	0.2365645581144646	0.2071271023766288	-0.1646067796695628	-0.1496852893262774	0.241557821954382	0.9333917564630704	-0.8030284030027846	0.1515344278367701	0.1515344278367729	0.1694992408129022	0.1694992408129006	-0.6995666829504968	-1.299759488250258	-0.9669480319224539	0.05590592413117371	0.6717047125146073	-0.9997500942572118	-0.1258795398594754	-0.01314230105948141	0.5763741368890543	1.642339196217334	-0.1461458222861247	-0.1245921035715977	0.2073677021175072	0.1955640623186885	3.106228991567434e-06	5.493378643339472e-06	0.4996976992332595	-0.7847080689669584	-0.0001400098203878627	2.924867523298848e-05	-0.04473020417320497	-0.08213666358536922	-0.1465299366152596	0.03182636098288052	-0.03832945204945348	0.006210986154238351	-0.06400775920341956	-0.02468819294962793	0.009920374176843719	-0.0244041622319467	-0.04459711873339548	0.05373602588831766	0.03274212031065563	0.07604773964958114	-0.1218657037553999	0.008222848180471965	0.008222848180471974	0.008683578667022381	0.008683578667022381	-0.0956276204274729	-0.0407349852279697	0.03715643376450901	0.06220548775477529	-0.01383240915513216	0.0139698519687362	-0.001948048421629657	0.01959357570113795	-0.0754182313379069	0.008331574437299883	-0.03474564387037173	-0.02621263671760871	-0.1358760758766078	0.006359011939953241	-3.814741885626237e-06	-5.453698889051307e-05	0.08630524486964899	-0.04217790214851245	0.002288140154928896	0.0007658887388996866
0.06	-0.1355817758793649	-0.1662091356522759	-0.3107959072733107	1.170104808404453	1.059639896622826	-0.09885220271527652	0.228196786302249	0.1737917825620317	0.2366203479845397	0.2070485488847748	-0.1648143400224161	-0.1494240550544327	0.2416835368915793	0.9338214798268943	-0.8036405006497428	0.1515712236456556	0.1515712236456527	0.1695323361286087	0.1695323361286049	-0.7000481132300788	-1.300007972329179	-0.9667901518709541	0.05624421668516666	0.6716720548964819	-0.9996597061500294	-0.1258922666586001	-0.01304187702297428	0.5759389085587259	1.642382807526706	-0.1463039912629206	-0.1247170496489709	0.2065054195618726	0.1955917362868684	3.07950334101141e-06	5.193419530784336e-06	0.5002711007374819	-0.784968164308766	-0.0001263069092850121	3.421241991019234e-05	-0.0539228067724878	-0.07094927192149741	-0.1552702719674473	0.03178294800978028	-0.06123625705814129	0.006162548820105549	-0.05914613973797261	-0.02825838312914308	0.01269065724311117	-0.007717503457600338	-0.03809291093654523	0.0504480717294623	0.01804603651837351	0.09491724403681541	-0.1226883607811603	0.006699109426197808	0.006699109426197812	0.004501765857694385	0.004501765857694393	-0.09496946926262778	-0.0626599497610883	0.02384917015259763	0.07302391394393613	0.0003337553985564608	0.02186357654670155	-0.003341807048116241	0.02026237599216844	-0.1045735839927572	0.009383865241146878	-0.02756341703158939	-0.02328897313307353	-0.2198574336918391	0.003968178770484204	-6.785015188141559e-06	-6.703907988513592e-05	0.1502527811497233	-0.04833480774029567	0.003219650346320636	0.001132682152550204
0.065	-0.1358689759102217	-0.1665346837821756	-0.311595448260045	1.170264214438017	1.059288866422766	-0.09881927887385332	0.22790844022196	0.1736453260663398	0.2366900202196832	0.2070462827682381	-0.1649917339450635	-0.1491796066560489	0.2417379602650194	0.9343357389948053	-0.8042596391807995	0.1516014418908643	0.1516014418908642	0.1695455999943386	0.169545599994341	-0.7005205555485918	-1.300388393321473	-0.9667291752045606	0.05663393505254968	0.6717002244025503	-0.9995413449667973	-0.1259142738714223	-0.01293928678844308	0.575347279013829	1.642432977189218	-0.1464185668326298	-0.1248230626671309	0.2052294488220475	0.1956041307379571	3.037645305238559e-06	4.842682068914483e-06	0.5011651501770594	-0.7851393127292238	-0.0001082609691597408	4.012376222293714e-05	-0.0606855139507209	-0.05993979801522138	-0.1646155584649661	0.03177563235345935	-0.0783009523395177	0.007197168814085921	-0.05613229152147008	-0.02920789464169394	0.01462206433049647	0.006734479024709191	-0.03400833237344781	0.04785110319046759	0.003066755144709674	0.1106744884126077	-0.1260654992956518	0.005194941159615702	0.005194941159615705	0.001112151060924629	0.001112151060924633	-0.09669860797890033	-0.08606305279244647	-0.0005051089106599194	0.0825132492802414	0.009802077508678885	0.02381511164928538	-0.005522567089415223	0.02116541883659795	-0.1226349703905797	0.01041956579658685	-0.01864732521451526	-0.01919888072650751	-0.2708994099928038	0.00181129082873092	-8.050201114443747e-06	-7.112238541578956e-05	0.1958769590867748	-0.02215742944133037	0.003862963955031735	0.00123291365021247
0.06999999999999999	-0.1361859141026771	-0.1668152318121963	-0.3124427572153473	1.170420526397366	1.058865635805696	-0.09877832921648655	0.2276360633955957	0.1735108668206742	0.236761006903007	0.20711512789684	-0.1651658600886608	-0.1489403458668637	0.2417076388658967	0.9349271053638709	-0.8049121401192406	0.1516212405822669	0.1516212405822695	0.1695465413454661	0.1695465413454747	-0.7010420108082305	-1.300834148913462	-0.9668056690132153	0.05706584734067875	0.6717587559763675	-0.9994382128845052	-0.1259481072195808	-0.01282630582444542	0.5748069914905742	1.642484358845001	-0.1464942696586899	-0.1249098649221917	0.2039927399843986	0.1956180660867931	3.018081309932522e-06	4.503530871096599e-06	0.5021149699724052	-0.7852100672931646	-8.903488722225663e-05	4.655214518896456e-05	-0.0658180714119771	-0.05294923196987236	-0.1743774593946434	0.03054531832426394	-0.09011642386195123	0.009372875197532353	-0.05275843816809844	-0.02345948311862038	0.01321643651524773	0.02072699459789263	-0.03678579931646701	0.04837302805004747	-0.01585187250676742	0.1257601244986813	-0.1360333237348973	0.002531287903758886	0.002531287903758886	-0.0004272399832263053	-0.0004272399832263046	-0.1145746457128439	-0.0887937896387527	-0.03113901986668428	0.08990148224234887	0.01247858249808958	0.01577193617070211	-0.008072261182648329	0.02441866777875576	-0.08403677533587491	0.009868662549563185	-0.0120143195719582	-0.01560466789342882	-0.2041526728213493	0.004584537869396736	2.132600998583863e-06	-6.240457426434843e-05	0.1725609234571678	-0.00817726513349248	0.003691707071205739	0.001339498413863252
0.075	-0.1365241392129871	-0.1670655623174654	-0.3133362745540381	1.170571030492317	1.058396336406133	-0.09872616279133692	0.2273763338995711	0.1734103029115102	0.2368236918926845	0.2072491528108287	-0.1653596459320846	-0.1486964101248537	0.2415872557873134	0.9355958723710164	-0.8056163034747175	0.1516269535937469	0.1516269535937506	0.1695434909351899	0.1695434909351977	-0.7016662113102192	-1.301285490643393	-0.9670225922947173	0.05753274649733201	0.6718170419649	-0.9993787642080296	-0.1259937271105348	-0.01269717488938588	0.5744579153984399	1.642531267288661	-0.1465307604932241	-0.1249798362711272	0.2031019883930381	0.1956486832369526	3.127841883058178e-06	4.208955423789794e-06	0.5029849085326957	-0.7852237821098301	-7.111202249444446e-05	5.313748896551532e-05	-0.06917463498526677	-0.04677891926673229	-0.1823412692868143	0.03013712182080137	-0.09675516763256187	0.01117898672876272	-0.052058595710445	-0.01798312337104429	0.01267900757790193	0.03213502802720641	-0.03958166117728387	0.04861520879789197	-0.02995986211948942	0.1423752303144761	-0.1438665410918548	-2.604416433292847e-05	-2.604416433292807e-05	-0.0006600868506385735	-0.0006600868506385732	-0.1329700376377611	-0.09679284300632481	-0.05271746081210375	0.09715781399253756	0.01038687895938855	0.01066890744212602	-0.009880132379705621	0.02641652562351297	-0.07421140474241686	0.009053461592123035	-0.0006034380857787815	-0.01247787045332554	-0.1803300065985658	0.006579201073069162	3.611012427230944e-05	-5.892853013228574e-05	0.1983005671742248	0.000856779732608181	0.003685191173376503	0.00121382514524532
0.08	-0.1368746870752622	-0.1672789804961531	-0.314259287840267	1.170726705637222	1.057906565812676	-0.09866968643053443	0.2271062250838042	0.1733188651587229	0.2368960114610073	0.2074289987474084	-0.1655502079316757	-0.1484600543784451	0.2414314552127724	0.9363571431865652	-0.8063331507565189	0.1516231805320943	0.1516231805320991	0.1695412688497284	0.1695412688497353	-0.7023503560101594	-1.301852576750249	-0.967303715302116	0.05804042181633991	0.671858135426406	-0.9993049100798574	-0.1260439529151856	-0.01257031237442576	0.5738787000109042	1.642576480927703	-0.1464805182779884	-0.1250355836144509	0.201907619489656	0.1956730268863106	3.322567512861928e-06	3.879216315034615e-06	0.5043268363092996	-0.7852198450831849	-5.010545195391769e-05	5.788225712630049e-05	-0.07074717219801287	-0.03818430133728884	-0.1861758384099314	0.03261373830593814	-0.09830490141959657	0.01109684945868257	-0.05691016606500524	-0.01980902056798122	0.01707026797336491	0.03905540363429661	-0.03549626178334516	0.04534102980949891	-0.03001887088984409	0.1627616478599651	-0.141106894264669	-0.001263141349298589	-0.001263141349298588	-9.591005736331482e-05	-9.591005736331502e-05	-0.1385523248934095	-0.1350915404084859	-0.05681891022532416	0.1062119471842006	0.005601571687496491	0.02153411684940848	-0.009914626661387699	0.02351129973898807	-0.176092493496448	0.009190740702845085	0.02267890033595344	-0.009915065648738874	-0.3255995976299597	0.002075137548810465	3.611862366982164e-05	-7.647003884369855e-05	0.3613566099825495	-0.001116527809117826	0.004925189396291587	0.0006032681675570195
0.08499999999999999	-0.1372317375384032	-0.1674458979876666	-0.315202348446656	1.170898026126175	1.057419130786277	-0.09861457953996146	0.2268084231296924	0.1732099108259605	0.2369911847746339	0.2076347236979232	-0.1657135589399994	-0.1482430862263148	0.2412904800652234	0.93721912528117	-0.8070240184567105	0.1516151837704651	0.1516151837704637	0.1695440107571347	0.1695440107571384	-0.7030649984057135	-1.302626601377582	-0.9676141575337516	0.05859579205203413	0.6718789704062745	-0.9991635922685486	-0.126091601688169	-0.01245817297531045	0.5727183223663082	1.642625491936886	-0.1462972771998648	-0.125082479235658	0.1999886393691155	0.1956733489304212	3.397471981834403e-06	3.431480233768331e-06	0.5064961159995067	-0.7852515341698233	-2.165560331911106e-05	5.905101802614643e-05	-0.07232277669369146	-0.02871372841544679	-0.192573232867966	0.03559982231533777	-0.09634288614246692	0.01138021327970883	-0.06113496531296203	-0.02301052192738805	0.01952633629758873	0.0429066548526898	-0.03078978725349449	0.04202930211448878	-0.02816032629645745	0.1804978553425335	-0.1363556450656068	-0.00199291062576237	-0.001992910625762371	0.001358068593205354	0.001358068593205358	-0.1509535808405977	-0.1680249590796629	-0.07105263388420777	0.1158533056630136	0.004342860440502506	0.03223334224387166	-0.009167038498053032	0.02294938759153458	-0.2663390653998846	0.0107629437005045	0.04996294586958962	-0.009434161666481268	-0.4076637703643318	-7.274613053787735e-05	1.822371973112508e-06	-9.669185064960154e-05	0.4818273790482776	-0.003995258559245101	0.006244128595097564	-6.714477418171387e-05
0.09	-0.1376004124785521	-0.1675674281117809	-0.3162002684561701	1.171079557510776	1.056946399181227	-0.09855154123264541	0.2265056319333421	0.1730963818455449	0.2370765476121864	0.2078547860787458	-0.1658675622612842	-0.148033930646582	0.2411319605681406	0.9381467883935964	-0.8077078617997114	0.1516026779526216	0.151602677952614	0.1695565034914031	0.1695565034914037	-0.7038963812936895	-1.303467892826597	-0.9680511881555109	0.05919812645866532	0.6719176684326177	-0.9990101733117214	-0.1261358448598269	-0.01232476922166645	0.5714325043463266	1.642687603172011	-0.1459874346697317	-0.1251358350194393	0.1981742685882318	0.1956910351627455	3.420583313132494e-06	2.971623238670736e-06	0.5088998312292622	-0.785184159185907	1.022961937172284e-05	5.789699971885263e-05	-0.07539696300117245	-0.02002935437764018	-0.2081195996600297	0.03669809656481117	-0.09242353288022799	0.01426941615590238	-0.05890586296042798	-0.02163887962923136	0.01314607754370633	0.04479037575739631	-0.03175718696776825	0.04221600085043606	-0.03703661070340761	0.1890340549886503	-0.1382971513884632	-0.003066763835016067	-0.00306676383501607	0.003804420687489076	0.003804420687489085	-0.185248521862243	-0.1619982690815714	-0.1074542662748446	0.1249976155589918	0.01274679027744161	0.02637457505678027	-0.008552386131193064	0.0320170415504575	-0.2262686436506035	0.01443083107983163	0.07331948113971627	-0.01249913067841221	-0.2837558617672498	0.009020812834284892	1.540136860006801e-05	-8.131840437622293e-05	0.4551308258018565	0.03850910041281236	0.006299339018702492	-0.000325843515298877
0.09499999999999999	-0.1379827398348438	-0.1676411970138688	-0.3172747494591064	1.171264026288761	1.056497905730186	-0.09847194910714328	0.2262223785546073	0.1729859386403261	0.2371224158580923	0.2080806178524031	-0.166023560002993	-0.1478250408635614	0.2409264484973156	0.939093780465891	-0.8084080751850337	0.1515878402590102	0.1515878402590077	0.1695772106666961	0.1695772106666949	-0.7049037158989493	-1.304227295550147	-0.9686334426076603	0.05983696783739149	0.6720057063475136	-0.998905603355363	-0.126177918466205	-0.01213810137435815	0.5704691944837845	1.642772171761321	-0.1455528292496291	-0.1252072901909265	0.1970605736837689	0.1957636274447067	3.698242893150837e-06	2.654788309234672e-06	0.5110977365776623	-0.7848479810291034	4.023683265778167e-05	5.632697631305996e-05	-0.07678352257966475	-0.008324622383340323	-0.218335125550475	0.03721736933715503	-0.08670703252929349	0.0171171268120247	-0.0547696297792951	-0.02483331334923108	0.006558169586071407	0.04560699281191286	-0.02816317700398862	0.0400127621052901	-0.04181229786037908	0.1881813803601146	-0.1410303388611407	-0.002167379213081048	-0.002167379213081049	0.003370629780647867	0.003370629780647874	-0.2122616689368108	-0.143797872089796	-0.1151849408772028	0.1288043670299724	0.02074370130291112	0.0171414979378372	-0.008432049084164474	0.04101569256759833	-0.1770007208413172	0.01945048729700833	0.1034252828091806	-0.01549973707675351	-0.1860718207737701	0.01815431052694061	8.260503723250056e-05	-4.504553492258285e-05	0.4355492222219366	0.08064218756886481	0.005789402714887702	-0.000266585256067274
0.09999999999999999	-0.1383607431349907	-0.1676391384948725	-0.3183502429520346	1.171453010751224	1.056081997006	-0.09838487303685441	0.225954194223091	0.1728250996031434	0.2371556987957211	0.2083115025979286	-0.166124406704206	-0.1476470745280544	0.240747396787199	0.9400127882615068	-0.8091105865495305	0.1515880135044399	0.1515880135044426	0.1695791315927246	0.1695791315927215	-0.7059647614700084	-1.304926222065009	-0.9691004118272063	0.06046882443995002	0.672107858701867	-0.9988218774278296	-0.1262217152773097	-0.01193095634404314	0.5694830429431631	1.642882646871509	-0.1449241558825616	-0.12528500038181	0.1960700531729357	0.1958539603737821	4.116059423709813e-06	2.524868214201107e-06	0.5133705025381187	-0.7845309370576158	6.898221071226641e-05	5.558695306768906e-05	-0.07366734054329782	0.01030161405604621	-0.2085245956567501	0.038504370355694	-0.07938964213880496	0.01726299407060106	-0.05287824407306655	-0.0417972124147414	0.0081119542328443	0.04681156450462352	-0.009696770769397334	0.02984662184497531	-0.02645246642002418	0.1778403443171484	-0.1392163430583508	0.002937611781442782	0.002937611781442783	-0.003710079018327897	-0.003710079018327892	-0.2067329081819318	-0.1378077856062579	-0.06134017323353617	0.122203705091936	0.01839256606049229	0.01803696352690282	-0.009241668021829021	0.0402079147531392	-0.2354053148822575	0.02479343943080941	0.1509466599256299	-0.0150011384369836	-0.2344861043153308	0.01611707167991172	7.146414881632145e-05	-6.552470615222827e-06	0.4850750706242947	0.0308554262864658	0.005794604926072859	6.156548869828949e-06
0.105	-0.1387174863729401	-0.1675493447712521	-0.3193396822248132	1.171647347561611	1.05570509964477	-0.09830057343397937	0.2256906030179921	0.1725786428719297	0.2371967304836457	0.2085547494907473	-0.1661297996799887	-0.1475152279730657	0.2406801930499979	0.9408723353260797	-0.8098142561989167	0.1516164494434906	0.151616449443492	0.1695440981843268	0.1695440981843292	-0.7069526569147301	-1.305595293202732	-0.9692446389469298	0.06105028318879906	0.6721778841005744	-0.9987262157564469	-0.1262717350162617	-0.01173905550558589	0.5681248323619106	1.643008324713153	-0.1440906702964795	-0.1253508404657505	0.1947664438818253	0.1959207830761757	4.173625268215016e-06	2.472490169675563e-06	0.5158003736863396	-0.784611177008714	9.785498247954889e-05	5.630287116603033e-05	-0.0694180753183543	0.02225174399817062	-0.1865103075053775	0.03875353169069155	-0.07142062744556445	0.01665383426427338	-0.05276104483636403	-0.05237411175192226	0.005567834944298304	0.05165565850575112	0.00322388511709354	0.02651286838739075	-0.0001252989865603208	0.1675386354078791	-0.1458493861183822	0.007605295056711756	0.007605295056711753	-0.008372338011626356	-0.008372338011626353	-0.1897763354825343	-0.1261550778704138	-0.003470217661558269	0.1103872403232111	0.008970575670670215	0.01830336854748956	-0.010808143607921	0.03758831823943237	-0.2884561995064955	0.02308912507130527	0.170136547371199	-0.01063851486891793	-0.2734653258027307	0.0116659887654961	-2.664791651703255e-05	-1.701035414697663e-05	0.4627488503267893	-0.05300413715508523	0.005569473839523893	0.0002190226611316234
0.11	-0.1390588050949932	-0.1674502623688306	-0.3202079379675953	1.171835777847048	1.05536727748062	-0.09821636482236309	0.2254245557060287	0.1723454721688127	0.2371840482852371	0.2088397438418151	-0.1661353248064276	-0.1473457371618118	0.2407491810920718	0.9417037761545445	-0.8106050591049365	0.1516557517671899	0.1516557517671901	0.1695147176758833	0.1695147176758913	-0.7078760354825921	-1.306151116927589	-0.9692063094338786	0.0615727713019374	0.6721910942810556	-0.9986580871071413	-0.1263302158738786	-0.0115447141855521	0.5667927081292209	1.643089652400666	-0.1433459006802099	-0.1253844217277964	0.1934703227781693	0.1959811600563164	4.067479203511566e-06	2.328648603211526e-06	0.5177567456580138	-0.7849615057334601	0.0001228266496943429	5.716529938565477e-05	-0.06749753418478907	0.01401708557645331	-0.1600511836581641	0.03614176037609683	-0.06375956330643048	0.0172265975670938	-0.05386068681886978	-0.03648280117603302	-0.01337360030045481	0.06351054780425365	-0.009749631031952333	0.04490432435101549	0.02802424528997501	0.1665978498739485	-0.1740696457117527	0.007284165640923349	0.007284165640923342	-0.001448919036597904	-0.001448919036597903	-0.1809261574381485	-0.09250882045992573	0.01168247987636148	0.09861545080764977	-0.004333521229995157	0.007023754696131688	-0.01262611548781147	0.0411841073837562	-0.2249707754570782	0.007053377778527936	0.1154602720006063	-0.002097609679191552	-0.2314908293336004	0.01353878277870743	5.979385132860197e-06	-4.313787939061955e-05	0.2956754000056398	-0.07718008317273059	0.00423416310507747	6.476059738310153e-05
0.115	-0.1393907847445009	-0.1674244939408321	-0.3209440911299793	1.172007030698365	1.055067833459334	-0.09812705577345637	0.2251445880726773	0.1722341807612243	0.2370691194793777	0.2091850503933494	-0.1662470352936846	-0.14706765788682	0.2409480972338915	0.942545269488925	-0.8115421332435548	0.1516818961166247	0.1516818961166258	0.1695337342234819	0.1695337342234859	-0.7087560933837156	-1.306500931849623	-0.969166253312894	0.06203346175622561	0.6721404678961375	-0.9986543058886718	-0.1263960844879601	-0.01133065552384548	0.5658825945652699	1.643085952819979	-0.1429558101033362	-0.1253803618889811	0.1924039193414447	0.1960541809963445	4.381962408363515e-06	2.092974639206423e-06	0.5187929071536197	-0.7852870869292025	0.0001398513769668418	5.704586909343348e-05	-0.06459754207498458	-0.0033940337454831	-0.1359438889702482	0.03248938723347474	-0.05590369148870222	0.01855289421944788	-0.05934418442254217	-0.008380828366770865	-0.02864288422374801	0.07253002956128947	-0.03456606039317865	0.06240085094060242	0.04879524164067443	0.1698420791998459	-0.1945725717002474	0.002538457039333011	0.002538457039333003	0.007951538877426547	0.007951538877426547	-0.1684773810949061	-0.04702347950865814	0.002590811530230508	0.08505486945343824	-0.01408050274783271	-0.003249038174301122	-0.0133325246170583	0.04270710409922837	-0.1569217611660021	-0.004741355639867884	0.04895933645041775	0.001304890927907395	-0.2072320844822184	0.01421749754223479	0.0001001121371633959	-4.666075291861881e-05	0.1414049772716715	-0.04835953038478277	0.002705385351597402	-4.677030863692873e-05
0.12	-0.13969781268031	-0.1674810458999693	-0.3215827149340456	1.17216197179021	1.054809384102928	-0.09803027715793004	0.2248189356827945	0.1722581932200704	0.2369371698211951	0.2095442237049461	-0.1664773003755832	-0.1467609939994568	0.2412096638105065	0.9434006228997588	-0.8124889104415856	0.151674785166644	0.151674785166646	0.1695831930726835	0.1695831930726833	-0.7095346130743776	-1.306617415034222	-0.9691978928884492	0.06241726138192986	0.6720686545534719	-0.9986679551975439	-0.126459653064772	-0.01113496567655641	0.5650450194071343	1.643080157388401	-0.1427724735386902	-0.1253955393612916	0.1912763865420872	0.1961088140748358	4.871582978700287e-06	1.906750606953368e-06	0.5193969532210805	-0.7853981723899136	0.0001511770786870702	5.735522035563238e-05	-0.05751684870533089	-0.01891106927778385	-0.1210394403310722	0.02961705658721094	-0.04736169735394797	0.02021442421493944	-0.07213458943145395	0.0176387453977669	-0.02018194122974944	0.0690572518291972	-0.05717146888864458	0.05633816929954753	0.05308441920809907	0.1721418804552096	-0.1779508694767212	-0.006017954125269283	-0.006017954125269294	0.01072800160457263	0.01072800160457264	-0.1403108732535047	0.0008238745143843183	-0.01699579873962575	0.06785911937406927	-0.01280830432891527	5.154375948099253e-05	-0.01170610057999234	0.03383658161674278	-0.1959554131309096	0.006215037421922124	0.0327586671095651	-0.009792534129530807	-0.255942574386786	0.006183638164013032	7.603433132678842e-05	-2.335790668980018e-05	0.1228292287476857	0.008618210839719479	0.00195455288416929	0.0002362732191511822
0.125	-0.1399661157015053	-0.1676051679485518	-0.3221697931021264	1.172304133184805	1.054595340072465	-0.09792670756763266	0.2244272485339451	0.1723983099029673	0.2368804334128585	0.2098694081300068	-0.1668067715922807	-0.1465187951017497	0.2414685357779778	0.9442701759152974	-0.8133042534224783	0.1516237164468531	0.1516237164468555	0.1696367699708199	0.169636769970817	-0.7101667103452475	-1.306509439069053	-0.969329668010483	0.06271463625888332	0.6720192243882271	-0.9986423465197664	-0.1265107693440315	-0.01099436432539781	0.5638913343187452	1.643159060617123	-0.142600724304187	-0.1254841307157324	0.1898427818197272	0.1961188345247367	5.011299874202709e-06	1.824022681279037e-06	0.5200804206897887	-0.7852357865001632	0.0001597247577748562	5.924872112205485e-05	-0.05050039922542784	-0.02937636977721615	-0.1153529101414693	0.02730230109971754	-0.03814148472645627	0.02080187497273828	-0.08255942050237232	0.03632108961215245	-0.003799916643032714	0.06180016554434121	-0.07260501959739729	0.04151831314822732	0.05103527248076951	0.176543111304114	-0.1508260375040208	-0.0133680925870711	-0.0133680925870711	0.01094478308832563	0.01094478308832563	-0.1168587832172781	0.03867685189804742	-0.032633309782995	0.05221658216814404	-0.007445679979662173	0.01022788565961328	-0.008657959888916961	0.0237299962490546	-0.2538522190642626	0.02377734944716948	0.03301807045537018	-0.02435709722143064	-0.3055786359922675	-0.0001688302046478349	-7.909768314735718e-06	-1.142299987333022e-05	0.139624961732661	0.04420377210122669	0.001366830187125664	0.0004258398756368326
0.13	-0.1402097770670903	-0.1677611957939615	-0.3227518548678627	1.172435542799699	1.054429113556716	-0.09782637377751538	0.2240131499738303	0.1726005357347034	0.2368862977093831	0.210170061833882	-0.1671832305896273	-0.1463360416343254	0.2417257255823175	0.9451746918682388	-0.8140235679628629	0.1515515186528119	0.1515515186528147	0.1696950611579585	0.1696950611579528	-0.7107465083877789	-1.306267543111792	-0.9694934165833702	0.06295068471121955	0.6719893785715685	-0.9985653167578675	-0.1265454081513122	-0.0108844053400423	0.562623161248096	1.643302241836676	-0.1424715223964995	-0.1256262412292523	0.1883398069678139	0.1961271920527793	4.914863343663765e-06	1.775623245286083e-06	0.520683874868378	-0.7850774583984935	0.0001638684949201322	6.066074699419097e-05	-0.04766018646114982	-0.03167338800862733	-0.1190328793932928	0.02531634470689599	-0.02823469146780178	0.01892010414290478	-0.08109915393756999	0.04248240493342553	0.004858340714720371	0.05924496335497762	-0.07596658114822552	0.03255999718641791	0.05241155395546727	0.1861270554163577	-0.1395394932735743	-0.01446958382542786	-0.01446958382542786	0.01261371720544968	0.01261371720544967	-0.1193911819181081	0.05439187135132332	-0.02978517908095906	0.04332854952716998	-0.00497456489446046	0.02061997740794582	-0.005115111788445374	0.02157963529550615	-0.2417506060350077	0.03192623375445217	0.0157397363833388	-0.03120019776115209	-0.2836906262081196	0.005518469420676492	-1.842703908975889e-05	-9.626510817249787e-06	0.09082391270017831	0.006995095607465066	0.0001929761071652665	4.368326143663727e-05
0.135	-0.1404417789476785	-0.1679045067976497	-0.3233572887846599	1.172558199670503	1.054313870254924	-0.09774239742601068	0.2236296719634062	0.1727926771889499	0.2369082569573658	0.2104673702890516	-0.1675362009122745	-0.1461736649922418	0.2420043206781584	0.946122641190758	-0.8147319481135922	0.1514912947112652	0.1514912947112706	0.1697613240352199	0.1697613240352216	-0.7113727240077535	-1.30598493509589	-0.9696236178622404	0.06315720859834732	0.6719691847000028	-0.9984487375376638	-0.1265668131044752	-0.01076836501441583	0.5615540519390757	1.643461816614905	-0.1424539314440109	-0.1257739811803025	0.1870740587065398	0.1961775997417462	4.956777928375811e-06	1.708894413277053e-06	0.5208959043833576	-0.7851764087940074	0.0001626769716014817	5.975450717003562e-05	-0.04427505169836934	-0.02356317132874872	-0.1209445595989934	0.02387663568468286	-0.01780413587700124	0.0140968424760356	-0.0715928451869612	0.03038479195157744	0.0009888021500700278	0.06004130772380224	-0.06119902558005026	0.03540080219358643	0.06093390800791201	0.1904440571836124	-0.1477710080564716	-0.008249016720294372	-0.008249016720294374	0.01335589286383525	0.01335589286383525	-0.1293955718814565	0.05827481632980899	-0.02416835211944324	0.04001578366110434	-0.002662683186399881	0.02345876562429887	-0.004537680524448969	0.02555692102517861	-0.1818705107167471	0.03015321370984576	-0.007906524319726013	-0.02478048308701351	-0.2222474181162525	0.0133656239539185	2.482978270153282e-05	-1.495817087703272e-05	-0.01264411470859884	-0.03618979513702088	-0.0003542549725447786	-0.0002775092537715355
0.14	-0.1406438724433164	-0.1679759490858696	-0.3239393391865868	1.172675611477246	1.054251657131667	-0.09769114129258448	0.2233042135724116	0.1728644898060831	0.2368668201676011	0.2107741038012293	-0.1677549956221218	-0.145951932186924	0.242354138898667	0.9470530462759984	-0.8155408624538111	0.1514827382463309	0.1514827382463389	0.169823264678222	0.169823264678231	-0.7120234691646904	-1.305688560135294	-0.9697538303010879	0.06335819033120221	0.6719671547451589	-0.9983562585521166	-0.1266016930670335	-0.01062163186908953	0.5608446822094918	1.643586269335501	-0.142542619329015	-0.125842893064403	0.1861209453885039	0.1962480584701969	5.059530267948647e-06	1.647110047609051e-06	0.5204911136412891	-0.7853355017631041	0.0001634792498154915	5.917235382974801e-05	-0.03569683248105744	-0.002925901821256809	-0.1096794734452041	0.02321831908252204	-0.007022620053326497	0.005832016911494891	-0.05789130616579302	-0.00564912991192006	-0.02050007438423041	0.06301498615821494	-0.02229633602826921	0.05630246248007952	0.08090080382257131	0.1791093605049751	-0.1797531690694486	0.006197406819531107	0.006197406819531106	0.01088482350172007	0.01088482350172009	-0.1292029967029978	0.05989864922872207	-0.02978964307190545	0.04111168781801077	0.002291001794298557	0.01097988354539195	-0.01050511554655781	0.03385676317543655	-0.09785477426049888	0.0178774107013048	-0.02677179861371689	0.000331029018734681	-0.1586366489128732	0.01353888521418887	5.908062854557586e-06	-7.64872428083866e-06	-0.1559041901191491	-0.01706193382571199	0.0009904967202293811	0.0001733178549837326
0.145	-0.1407961531534922	-0.1679390425095222	-0.3244564304870882	1.172790968614987	1.054244618524547	-0.09768486079496017	0.2230448965797376	0.1727399664499484	0.2367098867784436	0.2110932559187218	-0.1677638783737009	-0.1456174360747119	0.2428056032710867	0.9479212844487149	-0.8165196301802071	0.1515496133399439	0.1515496133399492	0.1698704277961619	0.1698704277961648	-0.7126507730841525	-1.305378646714625	-0.9699224900473298	0.06356768496979107	0.6719903790615053	-0.9983386645353115	-0.1266709547404638	-0.01043037258229584	0.5605038999150155	1.643640339378569	-0.1427059618995053	-0.1257801101210352	0.1854722307663788	0.1963031166091827	4.983826916742001e-06	1.738911321322909e-06	0.5194103610520945	-0.7853390429260984	0.000171704781416013	6.170890714870785e-05	-0.02554455549411512	0.01455274913723124	-0.09984294613486581	0.02290851601048028	0.004346601256555008	-0.002900256440800986	-0.04773661464605127	-0.03942362485239997	-0.03797565849916032	0.06338788373310468	0.01378060261385617	0.07310072915971755	0.09614780283031037	0.1722999418793447	-0.2057894847683239	0.01845733007707374	0.01845733007707374	0.008551717367276416	0.008551717367276425	-0.120091893392502	0.06602740536298808	-0.03611076242697042	0.04181637963455758	0.006207079124558852	-0.001346906810067419	-0.01591118845792727	0.04180797872039363	-0.05647459205475808	0.005455602885783799	-0.03622726489591195	0.01980660927831476	-0.1078558866720878	0.007777316393562384	-3.014760430571781e-05	3.82326471246746e-05	-0.2520563199907399	0.00924614931327516	0.001813121179100335	0.0007296223053101048
0.15	-0.1409026090373061	-0.1678617794267272	-0.324964627641731	1.172904536437315	1.054296517384748	-0.09771594824278282	0.2228078361885287	0.172517619434455	0.2365300398104057	0.2113954028675036	-0.1676668159238108	-0.1452648774277772	0.2432802455038203	0.9488171860277692	-0.817539112934288	0.1516463585416238	0.1516463585416262	0.1699144947888435	0.1699144947888403	-0.7132081213217221	-1.30500867921842	-0.9700993029953788	0.06376765624771802	0.6720213090802071	-0.9983437739200841	-0.1267479212979364	-0.01021194181010208	0.560099771803697	1.64365787532796	-0.1428815123311093	-0.1256945823621206	0.1849723196544336	0.1963187610942669	4.818472215206448e-06	1.968070652438723e-06	0.5182139556970613	-0.7853070334631186	0.0001767445141977059	6.53517652099481e-05	-0.01736690193629341	0.01321670075775876	-0.1061218151018068	0.02250259291730321	0.01655236687525794	-0.009115161267295724	-0.04898866557975183	-0.04477859365531513	-0.02966550593636028	0.05621291867390756	0.02008174455942386	0.06352747636909661	0.09017194794817487	0.1901747230401305	-0.1960391801434077	0.01814545004625798	0.01814545004625798	0.009646373398397629	0.009646373398397627	-0.101220723945992	0.08392027944342514	-0.03305092379481647	0.03730234355324113	0.005373282736393839	0.001898522914347526	-0.01358706916346368	0.04472535733545888	-0.1231931009973814	0.003263773230956643	-0.031654943059198	0.009428955237440218	-0.09911524484091547	-0.002226576346438823	-2.995247727700559e-05	4.729449867994307e-05	-0.20216529645458	-0.00284168343607797	-0.0002838228073020639	0.0006158397518958941
0.155	-0.1409678584086624	-0.1678081783052188	-0.3255198767839619	1.17301553044388	1.0544100311882	-0.09777597929020168	0.2225542383533569	0.1722958324708176	0.2364157233464854	0.2116552079664682	-0.1675658598984514	-0.144979596471388	0.2437041296388443	0.9498264303558143	-0.8184913125407798	0.1517324245450222	0.1517324245450247	0.1699695917548278	0.1699695917548285	-0.7136717054937129	-1.304549138820207	-0.9702733993765958	0.06394179217333977	0.6720428752987063	-0.9983176112587226	-0.1268080599540421	-0.009988304804124451	0.5592858014538453	1.643675790873633	-0.1430243308671673	-0.1256850576623237	0.1844768815859483	0.1962893434852823	4.689056406381557e-06	2.103874443903285e-06	0.517400661170952	-0.7853513156059211	0.0001698834053035519	6.744207311065151e-05	-0.00801686835841796	0.01110607148022522	-0.1137875550637067	0.02181966382006733	0.02869040534344949	-0.01530648093151991	-0.05067983774620686	-0.04793217744474314	-0.0198221353688985	0.04892960698927075	0.02470141896647681	0.05543536322717669	0.08225925214089613	0.210090894285341	-0.192975439123249	0.01866078326318435	0.01866078326318434	0.01234413129811258	0.01234413129811259	-0.08813964870485211	0.09598684870097657	-0.04255518611949679	0.03344980818831222	0.003801849217095832	0.006397782510273948	-0.01202022036982432	0.0445241522464179	-0.1816905725194483	0.002766809207765855	-0.02818501612411259	-0.0004875894558483035	-0.08779066629216786	-0.00712200149751699	-2.331480590077667e-05	1.113129734744096e-05	-0.1493070449812304	-0.008145236529814382	-0.001787108856775864	0.0002706983843881865
0.16	-0.1409756179384121	-0.1677218954755788	-0.3260806003250996	1.17312197961663	1.054581793946558	-0.09787310528441075	0.2223187441184944	0.171998337803557	0.2362942078993452	0.2118969037981693	-0.1673757942003246	-0.1446620192250994	0.2441316134860243	0.9508837738316975	-0.8195502150922199	0.1518567646937562	0.1518567646937588	0.1700374532848408	0.1700374532848452	-0.7141287848473156	-1.30408790104282	-0.9705845304308491	0.0641131321445296	0.6720648140179164	-0.9983014836861815	-0.1268836417725448	-0.009768753215729674	0.5584899107427403	1.643674187061736	-0.1431904879399511	-0.125648143398051	0.1842071061541226	0.1962717257367905	4.570314559720423e-06	2.12042642032872e-06	0.5164593399373278	-0.7853212264568654	0.000165608544565784	6.856289881385715e-05	0.005629034706359215	0.02628938401041666	-0.1083115746645684	0.02068465939132801	0.03985194883718958	-0.02395313998338118	-0.04174722545601779	-0.07506167510454506	-0.03254509922437755	0.048969211768484	0.05572561366640785	0.07644599232887338	0.09161183281062615	0.20941438217545	-0.2387203581227255	0.03345510818048391	0.0334551081804839	0.01475219900982686	0.01475219900982687	-0.09861879659072259	0.0845992311126208	-0.0878647930093803	0.03618396178046215	0.005522283020789541	-0.002115512613862281	-0.01976433412229619	0.04309119030231572	-0.1159612454987401	-0.004543969796707265	-0.04099035774948875	0.02038478102772426	-0.008850190177024028	0.002493367850684237	-2.568289241150284e-05	-4.062273357082816e-07	-0.2533759794605681	0.02690683330723391	0.0007506764552523944	0.000228046872896789
0.165	-0.1409164834543398	-0.1675743062263265	-0.3266243516995808	1.173222684358195	1.054808887150683	-0.0980097018557064	0.2221210046910004	0.17159235017302	0.2361112925854478	0.2121322374776481	-0.1670582362462861	-0.1442413604326233	0.2445986713012239	0.9519533522931259	-0.8208385873963618	0.152051930392919	0.1520519303929189	0.1701198119044487	0.17011981190446	-0.7146750194604925	-1.303690159014321	-0.9711553496259718	0.06429511582531985	0.6720992940902754	-0.998326042182348	-0.1269944974342694	-0.009553227497017475	0.5580086379996423	1.643654102313452	-0.1434222066388461	-0.1255035776181458	0.1843294504809104	0.196305155106469	4.407949898130288e-06	2.27861274466315e-06	0.5149961924444669	-0.7851228019121649	0.0001759137436611494	6.916879956634946e-05	0.01633944362903918	0.02403860750247725	-0.1156477326205672	0.01972824286781519	0.05122092482311921	-0.02911505323351988	-0.04232028209328197	-0.07390278466153058	-0.03264022969853618	0.04135848033558622	0.05695449536916251	0.0817248283016459	0.08790995682643743	0.2284306022368598	-0.2605171823895058	0.03923212657192564	0.03923212657192564	0.01877473003419872	0.01877473003419871	-0.118067677909568	0.08089871406278472	-0.134311900750078	0.03379578015463195	0.007956460210930957	-0.00303267458505932	-0.02076002917887132	0.04418526469893527	-0.12107451887415	0.002380269198274479	-0.04656000905073215	0.02786253794339932	0.02815096499626885	0.006612496855398956	-4.517758002002884e-05	6.671470804538273e-05	-0.2741604920986514	0.04144915811524076	0.002436241015821503	-0.0001948597899317623
0.17	-0.140829076655057	-0.1675685864824341	-0.3273016652262318	1.173320572101638	1.055096359114894	-0.09814855146373241	0.2218458239320445	0.1713936158814291	0.2360476135687202	0.2122724308046506	-0.1669496799724313	-0.1439456979056825	0.2449376996898609	0.9532682158524751	-0.8219942731046693	0.1521952955103563	0.1521952955103534	0.1702310353971706	0.1702310353971889	-0.7152913879187067	-1.303214902564435	-0.9718661395954538	0.06442295264226587	0.672141245762907	-0.9982850583193551	-0.1270530630504466	-0.00931623889357661	0.5568338988826629	1.643756691740869	-0.143604716902881	-0.1254653079485268	0.1841922462451265	0.1962951918736913	4.059392681565359e-06	2.817913010541568e-06	0.5142949602721928	-0.7850168731402902	0.0001806193330532761	6.452256873422053e-05	0.01693796079054089	-0.0304584181335471	-0.1617364355325009	0.01955786014243496	0.06400345287186515	-0.02485435467553495	-0.07272375804076986	0.007839660473942425	0.01514941964353357	0.01091307077794891	-0.02787505840711835	0.02644748611472004	0.04040006218556406	0.3075284213436915	-0.1856457197889166	0.01273487549024228	0.01273487549024228	0.02629814825545438	0.02629814825545434	-0.1266723346056699	0.1156049996673874	-0.1438531027530827	0.01452521624276985	0.00851092312989383	0.02410143104997854	0.001151684096723927	0.05167634419378228	-0.3933477950511876	0.0445257004832742	-0.02130698380546342	-0.02213366308676833	-0.1126696152057279	-0.01486367313181622	-0.0001001599144014206	0.0001520393492818868	0.05139014877415581	-0.01009147582311831	-0.001489167426043129	-0.00187280576095172
0.175	-0.140743360442663	-0.1678509260694314	-0.3282286468257266	1.173415413493538	1.055447738333871	-0.09826070152000814	0.2214163900068799	0.1716350691189838	0.2362855997120315	0.2122539466010241	-0.1673006225535799	-0.1439948692072828	0.2450008366432761	0.9549960494797968	-0.8227092621069243	0.1522017172954751	0.1522017172954687	0.1703765041631414	0.1703765041631532	-0.7159259435864674	-1.302512885129464	-0.9726252745444178	0.06443689077505305	0.6721756258434854	-0.998103590760169	-0.1269886722662599	-0.00906294527782185	0.5541631031705431	1.644082493800875	-0.1436471425491223	-0.1257089127963678	0.1832956176006049	0.1961684129825257	3.642757336597734e-06	3.250706332136688e-06	0.5153570101166239	-0.785164210645417	0.0001602683619412682	5.128806166246322e-05	0.01979726696434951	-0.06815417014761362	-0.2002517818273069	0.01768664934798671	0.07607149381761856	-0.02205101244961089	-0.08946958361064233	0.0682442128120941	0.07682695881163717	-0.01202274889451765	-0.09091565971011342	-0.03987259105429036	-0.008409620524524257	0.3671465834377571	-0.1187904881351438	-0.0002745560623234653	-0.0002745560623234357	0.02994026744133353	0.0299402674413335	-0.1308688391110718	0.1628330022313232	-0.1714189480842476	-0.006792214348776556	0.003868797603752845	0.04018069601320267	0.01959303857527015	0.04328790156604888	-0.6112635037143619	0.07656325561758484	-0.003156824875075385	-0.0625416633816723	-0.2097301625181642	-0.02911732089339538	-3.417220581557874e-05	2.474777290189435e-06	0.2913829223454581	-0.02440144230311083	-0.005892520425836508	-0.002877759827940476
0.18	-0.1406066165574407	-0.1681068957187329	-0.3292161388201241	1.173490518122424	1.055852306644057	-0.09838951503437705	0.2210469303800825	0.1718710837921917	0.2367837023681428	0.2122150433490456	-0.1676429734261105	-0.1442819896592198	0.2449209600875651	0.9567750972253806	-0.8233665840562415	0.1522914660035475	0.1522914660035377	0.1705109471646882	0.1705109471646934	-0.7166372653759417	-1.30161026226302	-0.9736965097888136	0.06437660798656933	0.6721662106239678	-0.997966300325336	-0.1269072485747207	-0.00894689188333684	0.551358333706343	1.644430005618028	-0.1437112206534715	-0.1259630584556637	0.1824574614207924	0.1960713242891674	4.040890801110078e-06	2.656628762783744e-06	0.5163883208291191	-0.785016466724077	0.0001292811347241461	4.117734285292293e-05	0.03734902992186707	-0.01991044305526279	-0.1859405934936009	0.01166315493729773	0.08527908935542726	-0.03151973791281136	-0.04873403869387877	0.005664234735193801	0.1191960247635027	0.002745451437136705	-0.02443837495992344	-0.0687321740199337	-0.01680534146490629	0.3280140686485717	-0.1625788986138565	0.04606564467170512	0.04606564467170517	0.02188784248582129	0.02188784248582129	-0.1573787832910895	0.1958471722563511	-0.2686932209257833	-0.01516315226558483	-0.009007196908445531	0.006430581308694885	0.007964847037737767	-0.003219744314116387	-0.4469372958832473	0.05320960334205752	-0.02996796704857055	-0.02634998766870193	-0.0892806293220644	-0.002987594008915075	0.0002257476093905667	-0.0002587090070973388	0.03909449599984051	0.1079410947635158	-0.005743669868088791	-0.0006232904560649225
0.185	-0.1403332885677879	-0.1680481636272117	-0.3300012005033486	1.173533641260552	1.056300426404862	-0.09858782749574607	0.2208954624644477	0.1716421232710962	0.2373269396828444	0.2122686720510469	-0.1674988827335002	-0.1445354681901937	0.2448961710318999	0.9582524216049696	-0.8244838105850631	0.1526556400717787	0.1526556400717702	0.1705910695521237	0.1705910695521211	-0.7175792522575113	-1.30062153268843	-0.9752046844261087	0.06431169373852025	0.6721207958433311	-0.9980642452756912	-0.1269281108431714	-0.009013255127182354	0.5497501506807392	1.644593632364304	-0.1439381563135081	-0.1259140602265575	0.1824233734608307	0.1961272255604801	5.016419976205223e-06	1.58287829040497e-06	0.5156407622474372	-0.7842456219070244	0.0001098836050818577	4.500913837747409e-05	0.0767649620665085	0.02961502789260808	-0.1191471744203167	0.00658670287083139	0.09441979330512069	-0.048160418404064	-0.02810679098417154	-0.0869129972289579	0.07093429473705021	0.01007432130181746	0.06993200111940827	-0.009210956689745257	0.01353392420973861	0.2742807712686072	-0.2965762452076283	0.08838238596360851	0.08838238596360853	0.01141712980129501	0.011417129801295	-0.2229182998827334	0.1892344539777697	-0.3029676160461976	-0.007741617162364267	-0.0008788874819624417	-0.04241487609300079	-0.01495465112013424	-0.000724922495256264	-0.2510900602174582	0.01731477023364286	-0.05169805027124689	0.04472763049976641	0.05033613476382096	0.01622647607737569	9.634280575358821e-05	-7.832970429281821e-05	-0.2767223809075103	0.1485826876295743	-0.00137798552352615	0.001387961935465137
0.19	-0.139791138975503	-0.1679486279575182	-0.3303182415105685	1.173566391176705	1.056801014360493	-0.0988746709361104	0.2206033258359996	0.1711053082793461	0.2372213992517125	0.2122294694814483	-0.1670650799237627	-0.1441396164093184	0.2451227413797719	0.9596315558188823	-0.8264549918312459	0.1530630738966081	0.1530630738966009	0.1706376786358538	0.1706376786358434	-0.7189014716802291	-1.29982201975926	-0.9764100957698145	0.06432980111286253	0.6722402200277913	-0.9983585122326879	-0.127043244052943	-0.00872813480100107	0.5482998916455768	1.644653890071017	-0.1441371186892358	-0.1255279986387801	0.1827077296626949	0.1961423727853753	4.323106309706923e-06	2.797946495469097e-06	0.5142350524976955	-0.7840487812920605	0.0001218748441418893	4.737649490337171e-05	0.1448776709747141	-0.003589011786348189	0.001267676908226263	0.007513866147853908	0.1062663672855472	-0.06693212951093877	-0.1050015238191418	-0.1174775535267062	-0.1403150735698853	-0.03438705720279665	0.09144647189094501	0.190999950719762	0.08373841995004137	0.2887380023780129	-0.5041607855582768	0.06336954731099305	0.06336954731099304	0.008482521003687019	0.008482521003686993	-0.309471799750353	0.1201605140885249	-0.1475879034899966	0.01804549669095795	0.05692838913039722	-0.07209822134786743	-0.02974352949060886	0.1373736836966045	-0.3837676997066464	0.01186198751687895	-0.01877865332500777	0.1084753557998083	0.03809703540829297	-0.01928921257588499	-0.0004417895272468122	0.0006568184638798232	-0.2241659712239743	-0.1216605860718993	0.006811837612839293	-0.001209066055526346
0.195	-0.1390074174208194	-0.1680520055218259	-0.3302951875468648	1.173616262839465	1.057350233501964	-0.09919709554214619	0.2199245726449072	0.1706185680224491	0.2362698048416137	0.2118694918723998	-0.1667350836666517	-0.1430905935184943	0.2456021969895999	0.961164297539032	-0.8290922558666197	0.1532810126433853	0.1532810126433818	0.1705451009576776	0.1705451009576731	-0.720798022567643	-1.299262003856888	-0.9771538246818318	0.06443915228184216	0.6727380759687855	-0.9987652412789964	-0.1271669801123409	-0.007865083466644327	0.5459858959681985	1.644795813523394	-0.1441303156296721	-0.1249856859822592	0.1825827310887473	0.1959446214774834	2.424511555502975e-06	6.764290494706591e-06	0.5138862053104186	-0.7851675960777936	0.0001681186634332863	3.288123115204333e-05	0.1394654283153105	-0.01819225538226482	-0.06159996442473833	0.01292921803914982	0.1104034170101444	-0.04976015047481169	-0.1350245020508158	-0.05690840221627026	-0.1447043917302227	-0.1121804195579074	0.02235262497597061	0.1130922838053895	0.0746788732285569	0.318581584796765	-0.4520886537409275	0.0329186158388983	0.03291861583889828	-0.07259388546785867	-0.07259388546785975	-0.4769634322257442	0.1449361021002889	-0.2744034785592048	0.01221083216001269	0.1436854991994916	-0.0898236819485406	-0.009751556830139181	0.1402311561938909	-0.4710613544232536	0.0564073313799973	0.01176803667176078	0.07881237131786618	-0.09097975483068176	-0.04853657878358492	-0.0002521107289538974	0.0007777949930598371	0.1016809068198647	-0.2304022579464503	0.009099897871710817	-0.003657691930810541
0.2	-0.1386879399181841	-0.167934852925796	-0.3316297798847958	1.173700627547927	1.057874869807666	-0.0992494968165729	0.2195678333211618	0.1707393257273415	0.2367305383218045	0.2110819009544564	-0.1670235477337783	-0.1441638627893091	0.2455358806045319	0.9627596006579991	-0.8299893166201524	0.1534833866993762	0.1534833866993763	0.1696409368492207	0.1696409368492222	-0.7239492547725913	-1.297961756185858	-0.9803991287278295	0.06431706804705384	0.6736917901391083	-0.9992490518999038	-0.1270407662468603	-0.008001980177584168	0.5442969702695589	1.645332962764278	-0.1441167567273055	-0.1250362482805083	0.1817690992159547	0.1957697543155122	2.457375474976637e-06	9.056654998514117e-06	0.5154223996709605	-0.7853981731687757	0.000187015900538911	2.011305073721091e-05	-0.04081994984460325	0.08462305234869225	-0.5417908437456558	0.02131108442848055	0.09643323297774126	0.0410772031326876	0.02380402311970405	0.125521631189034	0.4246160825459725	-0.2054323807607007	-0.1559376578041426	-0.6579169139357437	-0.1345703780083206	0.3137625619050517	0.1919205271781045	0.05714367099645869	0.05714367099645867	-0.3161520511085721	-0.3161520511085742	-0.8113443267640069	0.4162532215513637	-1.148217957082198	-0.07452866481622256	0.2392716808618289	-0.1029308511874819	0.07023644046079572	-0.2626055344220284	-0.1337397082111015	0.1699523029197572	-0.01607631620385042	-0.1286746261081943	-0.237356284129716	-0.01013555420759529	0.000330793942224231	-1.277333429216307e-05	0.5298506479034452	0.2336344918285663	-0.0041267952614696	-0.0005182327209279579
0.205	-0.1393486150707296	-0.1672257099371724	-0.3354724342528046	1.173823474430012	1.05832010945408	-0.0988381743589216	0.2201299011968519	0.1717528607154821	0.2402461317118453	0.209912747500291	-0.1681620292763805	-0.1492870755612754	0.2443873763007831	0.9643057925954487	-0.8275172225816427	0.1538595102159932	0.1538595102159918	0.1675318382712339	0.1675318382712284	-0.7286941810911881	-1.295214601741849	-0.9881897148353734	0.06371652412458795	0.6750574365361139	-0.9998106888386105	-0.1265466914489917	-0.01034024760254977	0.5446005569325211	1.646459004835578	-0.1443065884466168	-0.126160363791136	0.1804395823873572	0.195834415214272	4.569856373195389e-06	4.229403840954826e-06	0.5187170453216883	-0.7830758721636563	0.0001312614647662148	2.870234334221151e-05	-0.1811254168078483	0.1756351188853818	-0.8798985309371452	0.02631146002351433	0.08587991185278011	0.1010397641021038	0.1638790705433084	0.2349722672966876	0.8342524834732717	-0.2406343219411262	-0.2558238514278446	-1.202534646069363	-0.2664427653203389	0.3109702849639137	0.6318423349619929	0.08593065226129191	0.08593065226129182	-0.472672553238682	-0.4726725532386825	-1.018368239555241	0.6192055857023104	-1.76275161511303	-0.1478833849841588	0.290771001697923	-0.1252142081566965	0.1010936649271446	-0.5739576503256953	0.1741549812077245	0.2618087924952666	-0.0546242294729106	-0.2698290506445548	-0.2576138881490182	0.02280420982872932	0.0004206899067771396	-0.001557390850780252	0.6957048350337072	0.5599958650719516	-0.01447620711541091	0.002717489394002379
0.21	-0.1400759471426049	-0.1664124919790961	-0.3392750414689598	1.173948580064342	1.058775841788841	-0.09846321933380917	0.2208351834604647	0.1726398474326031	0.2435993752565666	0.2088915045246888	-0.1691454751699678	-0.1543008737621886	0.2434553387330371	0.96593186422653	-0.8253216408031703	0.1542689423881029	0.1542689423881001	0.1654623595853292	0.1654623595853167	-0.7334503575569491	-1.292403730032337	-0.9959739961707366	0.06301628938907201	0.6764373413936627	-1.000536096820086	-0.1262928277351839	-0.01275411882845597	0.5452283261597536	1.64776449335818	-0.1446106776015569	-0.1272231135119703	0.1795613259260669	0.195865839374972	5.72918943988674e-06	-2.90989072977542e-06	0.5214564202477576	-0.7811511149695285	7.924154870678122e-05	3.492334098797654e-05	-0.06748271757651188	0.1262530401297553	-0.5257719830041688	0.02221458532676949	0.1006303083164247	0.02653023011713382	0.08108977828882859	0.07490232278116959	0.3596761444181752	-0.1462681893353757	-0.09392339819817531	-0.6141510855145127	-0.04798368360716612	0.3457144393577889	0.08131562316323447	0.07046713319352152	0.07046713319352135	-0.3003040942757608	-0.3003040942757598	-0.8158443856296823	0.4417401277521906	-1.145696048209898	-0.1144049900362334	0.2449750650791295	-0.1684392682948029	-0.02584799316351546	-0.2928470547982679	-0.004066682503020077	0.2417308834399297	-0.06177929045538501	-0.1041283101907755	-0.05685213720685161	-0.02343024943150134	-5.046519038672907e-05	-0.0009375906995605441	0.3077423580400666	0.0746169674319716	-0.00263298737616457	-0.001465550704622186
0.215	-0.1399118899143967	-0.1660170655657917	-0.340526011137985	1.174042336667399	1.059336296388713	-0.09861761926101019	0.2208371060286394	0.1724130923904186	0.2436587237650878	0.2084654055401009	-0.1690136861750687	-0.1551229949715194	0.2439332998829165	0.9677785593293075	-0.8269376468823368	0.154558053838997	0.1545580538389962	0.1646550097367181	0.1646550097367103	-0.7366130637656302	-1.290882378121361	-0.9992798950757468	0.06263480068002072	0.6774293724780766	-1.001457204828164	-0.1267880316184599	-0.01306979140232963	0.5443119743483121	1.648747565623605	-0.1448879804024245	-0.1271324478233218	0.1797237534078121	0.1955910288257459	4.39786134951065e-06	-1.02544386120545e-06	0.5218161040784577	-0.7823601096121673	0.0001069677948163426	1.143688705453488e-05	0.1127990603998755	0.04475982844926345	-0.04657764371867277	0.01599974261655056	0.1211598856367878	-0.07508301420402037	-0.06400920719377556	-0.1382357160127682	-0.2278990423545972	-0.04131976425910553	0.1217913296181765	0.1612544143055294	0.1881307437879616	0.3899649789436236	-0.6122861750578135	0.05104825704476185	0.05104825704476178	-0.05022747917340045	-0.05022747917339995	-0.4668760150211423	0.2123352419647522	-0.3006559902853441	-0.04342091918414284	0.152592692238651	-0.189466727485991	-0.1423620050177892	0.1065286130924421	-0.3312639247109338	0.1441362598083601	-0.04555202863108788	0.103520729871424	0.08909424015080276	-0.07492843107983448	-0.0003778022413229976	0.001256869533690788	-0.101646781023076	-0.4496525626131334	0.0104917254725117	-0.006538571562376134
0.22	-0.1391510220232056	-0.1658364706620308	-0.3404604354972741	1.174115694357716	1.059963524185253	-0.09908197760791415	0.2203582068267789	0.1715311765088972	0.2424007618195713	0.2083068232845047	-0.1681760385391823	-0.1539288114938999	0.2448262721732075	0.9698015277878707	-0.8302901837560275	0.1548381330573508	0.1548381330573519	0.1646841684535341	0.1646841684535308	-0.7382954968789438	-1.289825031559425	-1.000220480838501	0.06252977594123198	0.6779708215515714	-1.002325392020441	-0.1274177322340709	-0.01228932681909515	0.5422277880862706	1.649132238327044	-0.1450302998752623	-0.1265566447710433	0.1801249794300338	0.1952322104559646	2.99380507106387e-06	5.31380547415498e-06	0.5210621728848968	-0.7845620179769162	0.0001518411999571237	-1.655778157200109e-05	0.171241547616632	0.040320436312376	0.000846140890289201	0.01405502023124436	0.1273395869836497	-0.09745313776404541	-0.111238929725222	-0.1871620129536403	-0.1672480371969534	-0.03926149773867413	0.188420058196767	0.1923707892656339	0.1180207725575215	0.4162237816721207	-0.6132966946463152	0.06685424017736041	0.06685424017736045	0.0342993318950503	0.03429933189505027	-0.2237351474825983	0.2561379881358273	-0.1995707913076204	-0.003819401931219645	0.06474226071145307	-0.1472709419743918	-0.07964668609751788	0.1456078080449884	-0.4712004627430331	0.002371058645264597	-0.00778595924350649	0.08992663526123909	0.03866727898377226	-0.0570333776535413	-7.955646561500548e-05	0.0008443302871556431	-0.1377036516642775	-0.3225485214120526	0.004225876236323351	-0.003268836581859916
0.225	-0.1383140010503935	-0.1655662345994744	-0.3407995935562977	1.174188651970541	1.060591121791447	-0.09953528658911086	0.2198093554944421	0.1706681508664067	0.2423097990521589	0.2080213959749062	-0.1672496372558049	-0.1536223528755623	0.2449925527204185	0.9719357346832449	-0.8326978697422773	0.155231323192451	0.1552313231924516	0.1648666114876879	0.164866611487691	-0.7390512310531598	-1.288204931739697	-1.00172657119341	0.06256045632787255	0.6781282364087419	-1.002912147563253	-0.1275264082295446	-0.0118391261249624	0.539798540957795	1.648828668144322	-0.1449796267213284	-0.1263455119401657	0.1801905389256258	0.1950507367851878	3.052541671341299e-06	5.962105063226113e-06	0.5205269915658711	-0.7853697961266539	0.0001440579013370824	-1.776510879926232e-05	0.1614248515589377	0.06463130089106241	-0.1222132694153901	0.01555916277255333	0.1224501604452947	-0.08557505307412389	-0.1080483072017619	-0.1601341114920863	0.08882343331329562	-0.06911562549544131	0.1828383401004468	-0.03210196596500692	-0.02568575164135826	0.4390276850448292	-0.3894218622659764	0.08592816367109354	0.0859281636710936	0.03944723247818278	0.03944723247818264	-0.09611848598831628	0.3712164792430694	-0.3719994996439923	0.01404608151757625	0.007609568910186197	-0.09428116870423921	0.01790383006675787	0.04952570538551884	-0.490848091647592	-0.1046043017521944	0.02128243608917628	0.009212003620262737	0.0001657535300437585	-0.02120229079223878	6.530810996952038e-05	-0.0003654299462236295	-0.08787733141114211	-0.03983826118168364	-0.005546400332298186	0.001704124615439807
0.23	-0.1375581934071085	-0.1652215845313114	-0.3415396072405842	1.17427559736418	1.06117553283922	-0.09995477412225033	0.2192802567148388	0.1699089767194807	0.2428686011835171	0.2076736050356031	-0.166340676288715	-0.153872977393894	0.2448276426771115	0.9742074917239913	-0.834580844002811	0.1556524781921469	0.155652478192147	0.1650863342854139	0.1650863342854234	-0.7394322813766718	-1.286319721372118	-1.003631817324823	0.06264978200570902	0.6781407761082074	-1.003336702643021	-0.1274214185118157	-0.01164353740746592	0.5374158101397905	1.64827814360934	-0.1448852033616499	-0.1263176696695361	0.1802527293081044	0.1949637255466919	3.269456213194511e-06	3.855311064954297e-06	0.5200683150161337	-0.7853531558157189	0.0001143051501545586	-1.033434617275916e-05	0.138756215805836	0.07008603855498738	-0.1594961092148187	0.01965013255679551	0.1100649636150181	-0.08392455854115743	-0.1033379086317827	-0.1456214147278941	0.09265792231128274	-0.06420694962054441	0.1814439316818091	-0.03046246540209816	-0.01445546364966908	0.4712438398209625	-0.4034120043598304	0.07804018601563111	0.07804018601563117	0.04921123732393027	0.04921123732393001	-0.07386160720094603	0.3621822072761954	-0.359233101909315	0.0196387145471362	0.006792197629467566	-0.08239075675673106	0.005819599183578456	0.04376301739047424	-0.4525939385546279	-0.0964106822588639	0.009714123054270178	0.01661041116207597	0.03731963373840854	-0.0192484047411386	-1.62852889846926e-05	-0.0002577071477815316	-0.107101743949045	0.007218862857142089	-0.004561904788669581	0.0001863993596458295
0.235	-0.1369281634814757	-0.1648983407842845	-0.3423433245565741	1.17438367496516	1.061682839324237	-0.1003799491316537	0.2187614102933367	0.1692275626005927	0.2431106105608506	0.2073851550392139	-0.1654600580430461	-0.1538289518167237	0.2449112595753667	0.9766715957794662	-0.836842905725127	0.1559882801357668	0.1559882801357739	0.1653507659787334	0.1653507659787383	-0.7398439908276682	-1.284625660288772	-1.00525391975312	0.06274624915078343	0.6782357519356665	-1.003752718505766	-0.1275086651280171	-0.01134134049898256	0.5352418106598692	1.647924563422351	-0.1448987387231601	-0.1261523170224045	0.1805087849578602	0.1948695253524711	3.072413146364388e-06	4.239068656061049e-06	0.5195541370976374	-0.7853981727980032	0.0001021610906369478	-1.891804879788184e-05	0.1149384599087889	0.05566625943583182	-0.1658928567528578	0.0228537694563846	0.09230611772534478	-0.08554554198489733	-0.1072375178705119	-0.121685778433879	0.02083290251516454	-0.05555355174739592	0.1650611843952193	0.03022481706820322	0.03451788484889838	0.5176473399324191	-0.4838451667168238	0.05605596418562618	0.05605596418562618	0.05432834766402053	0.05432834766402016	-0.08569676353757505	0.3262948634392538	-0.3043709858852241	0.01884300334049903	0.02973744623591905	-0.0805152780441425	-0.03049217513164282	0.07420034285647528	-0.434323027319704	-0.05231858068716847	-0.01144920983703551	0.04016422912527513	0.0499583534807036	-0.01053942576221372	-6.395961365762367e-05	0.0002986199123395759	-0.07625049714592765	-0.01462658616701549	-0.001203867923038308	-0.002998646395017865
0.24	-0.1363919817534058	-0.1647003739451526	-0.34323755620383	1.174496863674956	1.062093078889806	-0.1008042305097465	0.2181775129571193	0.1687447034790764	0.2432438009475992	0.2070742644900063	-0.1647474862666679	-0.153749208015232	0.2450389781445721	0.9794164606989497	-0.8392436204914813	0.1562107915615151	0.1562107915615292	0.1656072868386694	0.1656072868386697	-0.7402379949154474	-1.282948246363955	-1.006823158348433	0.06283716063769265	0.6784235436993844	-1.004106852320492	-0.1276240795578074	-0.01093068801036515	0.5328994081275351	1.647681985920963	-0.1449629048818073	-0.1260096915639362	0.1806008701160795	0.1949372537609196	2.615583317515604e-06	5.715607469503489e-06	0.5195289993077099	-0.7853934309813505	9.318498187754003e-05	-3.410846997616732e-05	0.1012169367806287	0.0199752753969749	-0.1957018417211911	0.0216945760831432	0.0712381958353763	-0.08356710601698467	-0.1293582745179005	-0.06619941577915035	0.04913032607731941	-0.07318317074789879	0.1142253439655705	-0.01617517567350185	0.003185204730456287	0.5835481854243744	-0.458873221975119	0.03272397886699174	0.03272397886699167	0.04604690397055001	0.04604690397054953	-0.06677946191408148	0.3555233438648111	-0.338087568716014	0.01741645128105504	0.04391857213299737	-0.05763793754932781	-0.005447526252008704	0.08714524944409135	-0.5199551595197688	-0.05200960801889546	-0.01053819580054914	0.00751953569675583	-0.02826856287617321	0.0455230363265678	-0.0001201999937921575	0.0001794053411527452	0.08851430747850104	0.02712238243192919	-0.003294724485388351	-0.002456288061619293
0.245	-0.1359133750608835	-0.1646703540871793	-0.3442856847235852	1.174595028558246	1.062384244538538	-0.1012183679183296	0.2174989510957924	0.1685303125325871	0.2436535918696702	0.2066692933057991	-0.1642841529737535	-0.1540300299177156	0.2449297179572261	0.9824695783699476	-0.8414293592985325	0.1563495122166596	0.1563495122166627	0.1658007039227584	0.1658007039227558	-0.7405121888508474	-1.281045569692265	-1.008673095001979	0.06291442349443818	0.6786720872487977	-1.004347454740958	-0.1275565696961216	-0.01051273970215351	0.5300961571097375	1.647379255793071	-0.1449896205182066	-0.1260688394758225	0.1802623925110911	0.1952684302281226	2.033433327277145e-06	5.448222868806551e-06	0.5203045589209652	-0.7850868953532849	6.762941038318831e-05	-4.071018390565766e-05	0.08898868436725196	0.001253417025929981	-0.2167138342844625	0.01719730457046332	0.04357316410817337	-0.08323873771457882	-0.132699801418212	-0.03183312701945729	0.10838385544576	-0.08111216371080233	0.08355982747997827	-0.08612489639403735	-0.03558367352378193	0.6269844474835045	-0.4328334410147148	0.02973352108183251	0.02973352108183246	0.03143044935927557	0.03143044935927522	-0.05120152052794714	0.4001371829701105	-0.3955231710604954	0.01241577851275607	0.05642761282448974	-0.04566295479993702	0.02348566940419934	0.07435073638322354	-0.5713857508575381	-0.06690498095780598	-0.0009464395230813969	-0.02019242561205747	-0.08937844807081093	0.0678087119084614	-8.31157143501654e-05	-0.000198989298999535	0.1741530169597854	0.09368931511348298	-0.006305618371921582	-0.0003000737255568201
0.25	-0.1355144654683437	-0.1645956322825576	-0.3453363372277102	1.174665095994034	1.062512261535395	-0.1016481266898759	0.2169441816288836	0.1683036105668531	0.244263617629004	0.2063400742451401	-0.1637873694490703	-0.1545101700899131	0.2447961974707851	0.9855791608188716	-0.8437460663033221	0.1565778191512768	0.1565778191512691	0.1659226965292134	0.1659226965292079	-0.7408330442035467	-1.279000975952661	-1.01071475084262	0.06295058929377625	0.6789971074795508	-1.00463408111012	-0.1274788808789864	-0.01024401402110633	0.5274851455863778	1.647034710733184	-0.1449803530846771	-0.1261017530716642	0.179884525945855	0.1954239524935422	2.079869053544552e-06	4.599413303827993e-06	0.5207949642686694	-0.7844745633670239	3.634765556263163e-05	-3.826596938553532e-05	0.06933809678761516	0.03785605405634816	-0.1967114354690777	0.01045559708219029	0.005978735085499695	-0.08981565120231651	-0.07984131675064712	-0.07112382347703237	0.1292242609825009	-0.04288232132861122	0.1276054366730697	-0.09590248355904268	-0.006518914907524711	0.6061340965947691	-0.5112605010704425	0.06855849065612682	0.06855849065612678	0.01747711291700835	0.01747711291700811	-0.08544402883374917	0.4122901710307607	-0.4147752435539199	0.0009776283180799293	0.07450924466887808	-0.076047517027654	-0.001375944072229289	0.02745619857830643	-0.4430593617444376	-0.06873558081703195	0.003855032170976087	0.01801326211466238	-0.0440241469753006	-0.02473864438681936	0.0001312342928101884	-5.316464455990222e-05	-0.02554739874189811	0.1494409257100704	-0.005585197815870331	0.001162083318225773
0.255	-0.1351949430413381	-0.1643430877659089	-0.346231800926075	1.17469721305085	1.062436356249545	-0.1021182800970579	0.2166469094824927	0.1678551487906026	0.2449201491441174	0.206199855490158	-0.1630551930544041	-0.1549744444817901	0.244831160162011	0.9885667526420272	-0.8465584644143828	0.1570038214537987	0.1570038214537964	0.1659606424991048	0.1659606424991064	-0.7414232689410383	-1.276915353163381	-1.012755058776672	0.06292570990640992	0.6794214600259338	-1.005098440455775	-0.1275711149271484	-0.01019335154446304	0.5255783717373902	1.646704337607889	-0.1449542824427136	-0.1258879183542594	0.179778150092828	0.1950384399729256	2.685207150699141e-06	5.31349872863182e-06	0.5201310784577422	-0.7837204840712105	1.450210042994552e-05	-3.024655529280783e-05	0.06485187856528721	0.04375242458598589	-0.1640484790139168	0.002265607733304911	-0.03620489982706775	-0.09744027112364557	-0.05931064873547312	-0.08895866448599163	0.1347354628002158	-0.02919222559842205	0.1435786890793032	-0.09693107538566018	0.001953452928490558	0.6065317064381167	-0.599473820429785	0.08871006206522462	0.0887100620652246	-0.005339859101573266	-0.00533985910157353	-0.1461853865436739	0.4285408648935651	-0.3937867519995972	-0.009644794360712604	0.09505244963915825	-0.1009735796970243	-0.02655143995921682	0.00744067795116273	-0.3703230740556692	-0.06291050089901581	0.006628747981207576	0.05673587989382187	-0.02118383574877374	-0.1069047943123154	5.778773383861168e-05	0.000267574211562318	-0.1739588883828009	0.1314952005055219	-0.00330393045993946	0.001883263953301679
0.26	-0.1348021366371845	-0.1643522013168689	-0.3470025663692199	1.174686495892258	1.06215157203311	-0.1026144749956441	0.2161486440722315	0.1676070461473647	0.24562444343438	0.2058882815398142	-0.1625684468794185	-0.1555507188657088	0.2446302266153762	0.991820768620959	-0.8495985552783794	0.1573335960890387	0.1573335960890418	0.1658388865967653	0.1658388865967739	-0.7422502932727915	-1.274649748101605	-1.014577006581942	0.06286698723920815	0.6799458387334908	-1.005556590491714	-0.1276547329262451	-0.01002328838287313	0.5232751858837708	1.646410637408214	-0.1449135103711973	-0.1256422417222602	0.1794461111732344	0.194580520245894	2.126614269800314e-06	6.562909390260027e-06	0.5197158557573034	-0.7833665672830666	1.799288735883492e-06	-2.105751350815394e-05	0.09865168764677652	-0.06680717298710805	-0.1468321333811314	-0.00667808908122317	-0.07757283714848631	-0.100232247764015	-0.1602386222987546	0.009019829727997569	0.1483293710422408	-0.1114243994732875	0.02943334880078636	-0.1407024803757162	-0.1008774100518101	0.7127037589051923	-0.6023376022448188	0.03006742374335338	0.03006742374335336	-0.04640363597536115	-0.04640363597536144	-0.1801638665383963	0.484283080028989	-0.3274311920407878	-0.01255968361609256	0.1145197091385131	-0.07356379314081407	0.002070475553904428	0.07521647255695969	-0.6016241635971282	-0.0540664105690347	0.009735603992079811	0.03075002795246025	-0.134289373601942	-0.05370152695285067	-0.0003343380984111781	0.0001609654501698494	0.07391784545347457	-0.01062407735774051	-0.001928100440420698	0.001629934394996335
0.265	-0.1343055724694468	-0.164964850943265	-0.3477557694954628	1.174626817342287	1.061639125707823	-0.1031119323650699	0.2151747879606797	0.1679458602800808	0.246428365059974	0.2051741551334158	-0.1627711752958846	-0.1564970827759531	0.2438941362542159	0.9956753251353098	-0.8525296822018698	0.1573283176896299	0.1573283176896314	0.16544982224959	0.1654498222495978	-0.7433168251218349	-1.272027529028036	-1.01624614281286	0.06278697740265111	0.6805823806887318	-1.005784729372505	-0.1275361408178711	-0.009509849672899163	0.5196990230816239	1.646137829152024	-0.1448762569732311	-0.1255999298006701	0.1784599274494865	0.1945525875550401	4.084360993172801e-07	6.556046746792916e-06	0.5208477779055999	-0.7837188292784925	-5.990536245695578e-06	-1.60470048761963e-05	0.07393039128443919	-0.1497521931931959	-0.1628548191186511	-0.0177490974341783	-0.1318691003572769	-0.09785615464157005	-0.1828542855980792	0.1076337220269769	0.1764229377108358	-0.140155437663495	-0.09119608641855879	-0.2534623207051885	-0.1597151347984573	0.8082605308473997	-0.5744104457565229	-0.01455153212645934	-0.01455153212645934	-0.1154708381051817	-0.1154708381051813	-0.2803831909983489	0.5674140191520443	-0.3917839190152028	-0.02315305995033781	0.1435929979693055	-0.01617479191656678	0.03904395247880759	0.1019138716178314	-0.7453485914601873	-0.0610781288236972	0.001450089243970351	-0.006971175276609476	-0.2482009911783525	0.03026285378249761	-0.0002619144947964029	-0.0001051674089174061	0.3128027246683361	-0.08804444169554612	-0.001099959171541386	0.0001550574901699326
0.27	-0.1343232686059788	-0.1655647184050195	-0.3487151715804329	1.174503447252646	1.060788246955627	-0.1035840910884124	0.2147845965834893	0.1684946623543201	0.2474205093966432	0.2048274344174049	-0.1632871214539176	-0.1582415344425926	0.2433715112635302	0.9996947907695561	-0.8553856325219964	0.1573643532815829	0.1573643532815828	0.1646216908636117	0.1646216908636186	-0.7453934683619685	-1.268947513212551	-1.019010451958981	0.06259836855026857	0.6814167279632982	-1.005703168738289	-0.1273275175546257	-0.009286601064842772	0.5166566236271833	1.645739643750807	-0.1449361661382619	-0.125643412634628	0.1770839325086397	0.1947604928154309	4.176560716926009e-07	6.096666287478846e-06	0.5221834001120189	-0.7838246489088516	-8.321599172834956e-06	-2.169905428262247e-05	-0.1070524340610977	-0.06169430713046159	-0.2293117168720293	-0.03215470494923774	-0.212945807912004	-0.09011278933070481	0.07322727144577221	0.09301500633730594	0.2236184554723483	0.0355378766817208	-0.09585374782601953	-0.4599375829338102	-0.01549126186197052	0.778667406863515	-0.5722669608992971	0.04659302028803	0.04659302028803002	-0.2220304514965734	-0.2220304514965722	-0.5842084229744301	0.6674017767953716	-0.7655003581220365	-0.0559992899463088	0.1936418368687235	0.05031601286211732	0.03808293750247024	-0.0408595682100705	-0.3881188245145676	-0.1042172685800315	-0.02912942120670339	-0.003567874266720634	-0.2902138604414772	0.04063365354499879	0.000356621158732163	-2.004167616893363e-05	0.1553978687024624	0.08795286866890463	0.000255404381355177	-0.002635088820357184
0.275	-0.135327822666486	-0.1655612317938757	-0.3500100617908849	1.174307567175929	1.059502440408666	-0.1040194881858049	0.2158649759089289	0.1688201778674448	0.2486617094008782	0.205486944029223	-0.1636704915461892	-0.1611012193014945	0.2437126879100033	1.003416080989739	-0.8582635900140706	0.1577928820297631	0.157792882029763	0.1632059832621009	0.1632059832621021	-0.7492129756085919	-1.265353974095074	-1.023778650680749	0.06222674126618435	0.6825417645542389	-1.005377702409857	-0.1271737043574806	-0.00984379427259531	0.5158365774539045	1.64512037662401	-0.1451323976482073	-0.125608176027131	0.1753660926344638	0.1948438805366494	2.317049161310712e-06	6.171395012238447e-06	0.5223888291542024	-0.7829183651502514	-1.021907059945802e-05	-3.188476452551493e-05	-0.258706794489756	0.03880781688538233	-0.2730467740773724	-0.04521366191828684	-0.2983081610182459	-0.08616083597882682	0.3037802492128768	0.04443974809212214	0.2699910758240455	0.1849359956698487	-0.06454862150490501	-0.6701884645222816	0.1112438388706482	0.7209943606971573	-0.5757852113859989	0.1072991846770106	0.1072991846770106	-0.3430706941238755	-0.3430706941238758	-0.9093969530763838	0.7662053290946957	-1.065386029712164	-0.08926067659645119	0.2573650965764673	0.05857305799233136	0.02643336461717059	-0.1390569442480236	-0.02545405661885463	-0.132193660259138	-0.0389181648516579	0.01675224226207993	-0.4305625267996313	-0.01804438557680865	0.0002797227580637371	-4.816052338180416e-05	-0.01524598548470016	0.2168454608814811	-0.002688809562560493	0.001015174730737626
0.28	-0.136549712594356	-0.1654194515831915	-0.3512896633888924	1.174061147271656	1.057835851843988	-0.1044668473117262	0.2172709569804462	0.1690115453270369	0.2500917154509077	0.2062434946503469	-0.1640031509931898	-0.1648059401267686	0.2440767688364308	1.007016191171405	-0.8611121763904126	0.1582621521852824	0.1582621521852823	0.1612028028722288	0.1612028028722243	-0.7541454626667468	-1.261323545332608	-1.028900381247374	0.0617396712552133	0.6840003018997524	-1.005330412763551	-0.127033273675838	-0.01024756280089378	0.515546538942776	1.644530666367015	-0.1452208976075803	-0.1254849929620418	0.1724419028649357	0.1944723907544708	1.980750461816485e-06	4.634124159115029e-06	0.5226107429206153	-0.7822333460389341	-5.19538609040006e-05	1.299639310012808e-05	-0.1939867810062123	-0.006376867314240624	-0.2231962718941911	-0.05237063597133716	-0.3652586149983134	-0.09489760074223384	0.2034679698768601	0.03935578492425414	0.2991408737901869	0.07435428040407176	-0.07556948971763475	-0.7979519694826499	-0.00632954988024353	0.7301953914569507	-0.5605185146064359	0.0628895832236781	0.06288958322367812	-0.4570195668410876	-0.4570195668410892	-1.029400347587045	0.8421576347914564	-0.9069130960651492	-0.1021763807010451	0.3270421386978692	-0.0609546599884386	0.03272993130149231	0.02051030357155832	-0.1761157596544159	-0.09239452065916613	0.01396319902229746	0.03161070877013496	-0.7727538185823928	-0.1413173478137888	-0.0005376555569127766	-0.000664841507322144	0.1619917583941377	-0.0005529902443049904	-0.01567952316981271	0.01939165832705711
0.285	-0.1373486108884648	-0.1656820663530349	-0.3521738357523898	1.17377723803334	1.055845981560732	-0.1049918520871852	0.2179919152993529	0.169259961197444	0.2516211464895041	0.2064292567560193	-0.1644638883728594	-0.1688882974611255	0.2438053074518324	1.010819961035298	-0.8639658983504285	0.1584354739995492	0.1584354739995465	0.1587849712205899	0.1587849712205923	-0.7592937415802553	-1.256935441048833	-1.032876897073088	0.06121836219408404	0.6857142224717063	-1.005877596084875	-0.1268394945168186	-0.009834467473649572	0.5138157238860899	1.644023869329707	-0.1450418423850625	-0.125425772854656	0.1678815398678151	0.1935871539918435	-9.020130981494295e-07	3.237941240574856e-06	0.5241313643337469	-0.7829387394464608	-0.0001536162988767952	0.0001413072290412616	-0.1777345924548522	-0.08552666079098366	-0.1329266129950693	-0.06353264159538861	-0.434535071728983	-0.1176173087374933	0.1584746814228391	0.06216788522264098	0.3093143263896753	0.08270865090015417	-0.109452115501516	-0.8107575809569167	-0.03048895948505213	0.800754764486788	-0.6024729927221389	0.02657662803713434	0.02657662803713436	-0.4819792259941512	-0.4819792259941511	-1.035647019033501	0.9178408107491682	-0.766974064590535	-0.1067097436799859	0.3379429850081826	-0.1138979649474789	0.04277600140443034	0.06202523963660662	-0.475442777760787	-0.1560610689944843	0.03795062906246561	-0.03551468186475492	-0.9931441885014581	-0.1705142304161527	-0.000454294918352578	2.518085928769157e-05	0.4220205733133459	-0.2256024728224916	-0.02065596059891212	0.0257517542143741
0.29	-0.1388486790770797	-0.1661432943927799	-0.3526434689137464	1.173402425033301	1.053452045392451	-0.1056681503920623	0.2195912970320449	0.1696547973991036	0.2531516865622176	0.2078981620497012	-0.1651049386817181	-0.1726711821033054	0.2444895396863208	1.015118160920137	-0.8673519335508562	0.1587292933212028	0.1587292933211975	0.1566643492904697	0.156664349290479	-0.7645592908692529	-1.252097569904808	-1.037402930196978	0.06066894881912018	0.6871739006990787	-1.006029185377087	-0.1266255709708119	-0.01045433628142289	0.5111997860177607	1.642512687929762	-0.1450384739261791	-0.1261160599411788	0.1630929328975651	0.1931898797185194	-9.50649234499196e-07	4.074057945808107e-06	0.5265885863182972	-0.7839293517677208	-0.0002152185526891922	0.0002087047168936479	-0.47445473880862	-0.08582217527488085	-0.05738059103790985	-0.08873214066022957	-0.526884969007972	-0.155415012509496	0.5548373353910228	0.09792391742520198	0.2995844874370157	0.5876115556078934	-0.1476946613933245	-0.6781628926117639	0.3759478977544295	0.9279673998351089	-0.7734438107711283	0.1110885861784166	0.1110885861784166	-0.3381356782336304	-0.3381356782336287	-1.076308497782592	1.02206437889168	-1.126720015335204	-0.1134181062348825	0.2253452008652403	0.09728295165649019	0.04078768609643667	-0.3926753504354505	-0.5301648843116298	-0.4941482657144019	-0.05631150643148877	-0.268192168793307	-0.864051407834131	0.05386764790756892	0.0005959954125336815	0.0002280783421872246	0.536631986961685	-0.1146405557377682	0.0003445504943463177	-0.004973680908441726
0.295	-0.1419672041955398	-0.1665637793141584	-0.3526280485734142	1.172899337166659	1.050594271619632	-0.106563710214176	0.2233847101680116	0.1701632745013917	0.2543966547948323	0.2122018180441947	-0.1658631189128525	-0.1754208699383727	0.2475783457557821	1.020075362946338	-0.8719132949387792	0.1595016338223115	0.1595016338223097	0.1554278857995584	0.1554278857995679	-0.7700215300881165	-1.246807073662206	-1.04392420718561	0.05998932784701601	0.6880273277251535	-1.00519810693994	-0.1266855158257406	-0.01348908978237047	0.5086916095171368	1.63951703966448	-0.1456882536873134	-0.1279255851315015	0.1591005946969319	0.193952435094932	1.903427323924451e-06	-6.34055271758348e-07	0.5292833030053082	-0.7841234803571664	-0.0001701057892083239	0.0001126312818638164	-0.695543935880515	-0.1006832602918593	0.09100547864067689	-0.1082036499899332	-0.608950538728715	-0.2039789950754822	0.8577116918757685	0.0883733242228735	0.1573099506484651	1.030797536613078	-0.1393287022536296	-0.3954185255061686	0.7914899728990284	1.040837776204352	-1.074200542720706	0.1688184723633244	0.1688184723633245	-0.1786035073100566	-0.1786035073100558	-1.082177647546304	1.069827783062111	-1.357406842298276	-0.1771855351696889	0.1488911600380012	0.1306773898994551	-0.1130717583193078	-0.681827962193544	-0.4861537668011097	-0.5729055052780263	-0.2014006970862561	-0.3880690192992274	-0.7753794942806067	0.1743952869719151	0.0003417904012902859	-0.001456458967948831	0.5000042308955533	-0.03674681974055536	0.01096584766180069	-0.02286442409205442
0.3	-0.1450300047089361	-0.167333241665852	-0.3514588466126407	1.17236338209347	1.047435280019074	-0.1077196411302122	0.227120251679604	0.1703675946486604	0.2543138575190985	0.2171756043600677	-0.1663357384161865	-0.1763624301992769	0.2517235938440004	1.025385782337769	-0.8783249369612889	0.1601271866258079	0.1601271866258096	0.154656776325577	0.1546567763255867	-0.7751169719225505	-1.241642355425058	-1.049733159241769	0.0587095409417943	0.6889914678041917	-1.005767121811121	-0.128239349856519	-0.01587863502585797	0.5062077678411179	1.638095688228186	-0.147030483887682	-0.1293212612538054	0.1549141817361445	0.1941662404313834	4.288066829487573e-07	-3.941885121030477e-06	0.5311761240577814	-0.7850341793621274	-0.0001729071484331885	8.597316608746777e-05	-0.4521648967831341	-0.2254131474009315	0.4041320571386441	-0.1018790232785177	-0.6473721001035978	-0.2595634500785151	0.5316886856413502	-0.02373886458259408	-0.2315217159023178	0.8556636841596911	-0.03347037027314227	0.04508813705354124	0.7985247052572608	1.069254345926837	-1.513556064605696	0.05237350713346946	0.05237350713346946	-0.1519940714616572	-0.1519940714616573	-0.9295895440107199	0.9717531767101432	-0.841790042346111	-0.353484479481889	0.269630422050592	-0.4627543716745858	-0.5567679842434774	-0.1345920474514233	-0.5204309544696145	0.135570465880848	-0.3332916821252157	-0.1026525415857933	-0.9416813118958078	-0.1656323680768474	-0.001135483467226054	0.0007881916895049543	0.215873733146539	-0.4012687219439049	-0.01882109858794686	0.02279244679295137
