inDegrees=no
num_controls=1
num_derivatives=0
num_input_controls=0
num_iterations=25
num_multipliers=0
num_parameters=0
num_slacks=0
num_states=4
objective=0.000000
objective_effort=0.000000
objective_marker_tracking=0.000000
solver_duration=0.495592
status=Solve_Succeeded
success=true
DataType=double
version=3
OpenSimVersion=4.6-2026-06-22-85aaf64
endheader
time	/jointset/slider/slide/value	/jointset/slider/slide/speed	/forceset/flexor/activation	/forceset/flexor/fiber_length	/forceset/flexor
0	0.31	0	0.05	0.108573946282611	0.3170463599632542
0.005000000000000001	0.309991347616397	-0.003808713381878296	0.1933999841868392	0.1080828982224694	0.3115575022453831
0.01	0.3099584352667745	-0.009703986407820825	0.2399236217418415	0.1073303079877506	0.306068644527512
0.015	0.3098901803317194	-0.01783119164743176	0.2732640230732737	0.1068510587428268	0.3260995950847209
0.02	0.3097777913099677	-0.02735762108649879	0.2996204853228727	0.1064337010079882	0.3461305456419298
0.025	0.3096148549641539	-0.03794735263633159	0.3194134297008808	0.1060495814835273	0.3502639925905858
0.03	0.3093970134296309	-0.04931969657020973	0.3324529294090381	0.10568928111961	0.3543974395392419
0.035	0.3091208723238816	-0.06117391546849826	0.3427301509245349	0.1053390885261133	0.3623248117412334
0.04000000000000001	0.3087849025775562	-0.07325115280065189	0.3519621887676614	0.1049804257207542	0.370252183943225
0.04500000000000001	0.3083883869161889	-0.0853426331487607	0.3639539290003961	0.1045940493192479	0.3946590811137962
0.05	0.307931601032044	-0.09735924191165767	0.3805015269507451	0.1041593100008037	0.4190659782843674
0.05500000000000001	0.3074149865526484	-0.1092731083567226	0.3991998080353054	0.1036623022091867	0.4416088383184077
0.06	0.3068390043633752	-0.1211063258627146	0.4189163042688185	0.1031017092872489	0.4641516983524481
0.06499999999999999	0.3062039911329631	-0.1328620648978738	0.4253394751246317	0.1024931818268472	0.3936353075242686
0.06999999999999999	0.3055107527284388	-0.1443963955076331	0.4152728207856001	0.1018714203544442	0.3231189166960893
0.07500000000000001	0.304760788291204	-0.1554906480947129	0.4023561607732105	0.1012454527591687	0.3088523833326062
0.08000000000000002	0.3039568335604076	-0.1659925129322086	0.3894769056335046	0.1005949878544084	0.2945858499691233
0.08500000000000002	0.303101999162175	-0.1758283728204489	0.3762682341367539	0.09990757712706275	0.2745323063337478
0.09000000000000001	0.3021996785676074	-0.1849869914661016	0.362447010026794	0.09917928483661088	0.2544787626983724
0.095	0.301253283546482	-0.1934671817036556	0.3512080048420473	0.09840369492168959	0.2847154586839142
0.1	0.3002660451033751	-0.2013243602586725	0.3450945613526131	0.097567659578269	0.3149521546694559
