inDegrees=no
num_controls=39
num_derivatives=0
num_input_controls=0
num_iterations=15
num_multipliers=2
num_parameters=0
num_slacks=2
num_states=78
objective=0.085084
objective_effort=0.000000
objective_marker_tracking=0.085084
solver_duration=30.613315
status=Solve_Succeeded
success=true
DataType=double
version=3
OpenSimVersion=4.6-2026-06-22-85aaf64
endheader
time	/jointset/ground_pelvis/pelvis_tilt/value	/jointset/ground_pelvis/pelvis_list/value	/jointset/ground_pelvis/pelvis_rotation/value	/jointset/ground_pelvis/pelvis_tx/value	/jointset/ground_pelvis/pelvis_ty/value	/jointset/ground_pelvis/pelvis_tz/value	/jointset/hip_r/hip_flexion_r/value	/jointset/hip_r/hip_adduction_r/value	/jointset/hip_r/hip_rotation_r/value	/jointset/hip_l/hip_flexion_l/value	/jointset/hip_l/hip_adduction_l/value	/jointset/hip_l/hip_rotation_l/value	/jointset/back/lumbar_extension/value	/jointset/back/lumbar_bending/value	/jointset/back/lumbar_rotation/value	/jointset/walker_knee_r/knee_angle_r/value	/jointset/patellofemoral_r/knee_angle_r_beta/value	/jointset/walker_knee_l/knee_angle_l/value	/jointset/patellofemoral_l/knee_angle_l_beta/value	/jointset/acromial_r/arm_flex_r/value	/jointset/acromial_r/arm_add_r/value	/jointset/acromial_r/arm_rot_r/value	/jointset/acromial_l/arm_flex_l/value	/jointset/acromial_l/arm_add_l/value	/jointset/acromial_l/arm_rot_l/value	/jointset/ankle_r/ankle_angle_r/value	/jointset/ankle_l/ankle_angle_l/value	/jointset/elbow_r/elbow_flex_r/value	/jointset/elbow_l/elbow_flex_l/value	/jointset/subtalar_r/subtalar_angle_r/value	/jointset/subtalar_l/subtalar_angle_l/value	/jointset/radioulnar_r/pro_sup_r/value	/jointset/radioulnar_l/pro_sup_l/value	/jointset/mtp_r/mtp_angle_r/value	/jointset/mtp_l/mtp_angle_l/value	/jointset/radius_hand_r/wrist_flex_r/value	/jointset/radius_hand_r/wrist_dev_r/value	/jointset/radius_hand_l/wrist_flex_l/value	/jointset/radius_hand_l/wrist_dev_l/value	/jointset/ground_pelvis/pelvis_tilt/speed	/jointset/ground_pelvis/pelvis_list/speed	/jointset/ground_pelvis/pelvis_rotation/speed	/jointset/ground_pelvis/pelvis_tx/speed	/jointset/ground_pelvis/pelvis_ty/speed	/jointset/ground_pelvis/pelvis_tz/speed	/jointset/hip_r/hip_flexion_r/speed	/jointset/hip_r/hip_adduction_r/speed	/jointset/hip_r/hip_rotation_r/speed	/jointset/hip_l/hip_flexion_l/speed	/jointset/hip_l/hip_adduction_l/speed	/jointset/hip_l/hip_rotation_l/speed	/jointset/back/lumbar_extension/speed	/jointset/back/lumbar_bending/speed	/jointset/back/lumbar_rotation/speed	/jointset/walker_knee_r/knee_angle_r/speed	/jointset/patellofemoral_r/knee_angle_r_beta/speed	/jointset/walker_knee_l/knee_angle_l/speed	/jointset/patellofemoral_l/knee_angle_l_beta/speed	/jointset/acromial_r/arm_flex_r/speed	/jointset/acromial_r/arm_add_r/speed	/jointset/acromial_r/arm_rot_r/speed	/jointset/acromial_l/arm_flex_l/speed	/jointset/acromial_l/arm_add_l/speed	/jointset/acromial_l/arm_rot_l/speed	/jointset/ankle_r/ankle_angle_r/speed	/jointset/ankle_l/ankle_angle_l/speed	/jointset/elbow_r/elbow_flex_r/speed	/jointset/elbow_l/elbow_flex_l/speed	/jointset/subtalar_r/subtalar_angle_r/speed	/jointset/subtalar_l/subtalar_angle_l/speed	/jointset/radioulnar_r/pro_sup_r/speed	/jointset/radioulnar_l/pro_sup_l/speed	/jointset/mtp_r/mtp_angle_r/speed	/jointset/mtp_l/mtp_angle_l/speed	/jointset/radius_hand_r/wrist_flex_r/speed	/jointset/radius_hand_r/wrist_dev_r/speed	/jointset/radius_hand_l/wrist_flex_l/speed	/jointset/radius_hand_l/wrist_dev_l/speed	/forceset/tau_pelvis_tilt	/forceset/tau_pelvis_list	/forceset/tau_pelvis_rotation	/forceset/tau_pelvis_tx	/forceset/tau_pelvis_ty	/forceset/tau_pelvis_tz	/forceset/tau_hip_flexion_r	/forceset/tau_hip_adduction_r	/forceset/tau_hip_rotation_r	/forceset/tau_knee_angle_r	/forceset/tau_knee_angle_r_beta	/forceset/tau_ankle_angle_r	/forceset/tau_subtalar_angle_r	/forceset/tau_mtp_angle_r	/forceset/tau_hip_flexion_l	/forceset/tau_hip_adduction_l	/forceset/tau_hip_rotation_l	/forceset/tau_knee_angle_l	/forceset/tau_knee_angle_l_beta	/forceset/tau_ankle_angle_l	/forceset/tau_subtalar_angle_l	/forceset/tau_mtp_angle_l	/forceset/tau_lumbar_extension	/forceset/tau_lumbar_bending	/forceset/tau_lumbar_rotation	/forceset/tau_arm_flex_r	/forceset/tau_arm_add_r	/forceset/tau_arm_rot_r	/forceset/tau_elbow_flex_r	/forceset/tau_pro_sup_r	/forceset/tau_wrist_flex_r	/forceset/tau_wrist_dev_r	/forceset/tau_arm_flex_l	/forceset/tau_arm_add_l	/forceset/tau_arm_rot_l	/forceset/tau_elbow_flex_l	/forceset/tau_pro_sup_l	/forceset/tau_wrist_flex_l	/forceset/tau_wrist_dev_l	lambda_cid39_p0	lambda_cid40_p0	gamma_cid39_p0	gamma_cid40_p0
0	-0.1417777921918203	-0.08583453939754343	-0.2953609710907665	1.16351537210303	1.039273192802697	-0.09776894276304583	0.3058145584768648	0.09466018773190087	0.1244527884403539	0.3391739281869272	-0.09745060562103242	-0.1408722641410204	0.2309780129984713	0.824367744833692	-0.761008453627094	0.3131498179642326	0.3131498179642263	0.2968488274121934	0.2968488274121932	-0.5352468253783303	-1.189614474095545	-0.908800633503564	0.02631561664216452	0.7451560801613671	-0.9678863531607806	-0.08403577935889325	-0.03668114783602769	0.7794320749712833	1.672264414558761	-0.2005298421141899	-0.07826037692720945	0.4577284035305054	0.3417521294788538	5.218368402765279e-09	2.148525643671673e-07	0.4066498286293835	-0.7152167999292341	2.251101666099865e-07	-1.339979407547453e-06	-0.00379507165435606	-0.001985395727903241	-0.001913292367515524	0.0009232900563662833	0.4882316046877345	-0.002573526941000465	-0.0007736446032390401	-0.0005444650518291424	0.01640978427817863	0.001423638572696948	0.005586312307747121	-0.003152317744010296	0.002186249361467207	0.016570924682728	-0.009658606420751958	0.0008713454343231933	0.0008713454343231994	0.007290229578895833	0.007290229578895787	-0.01432363906005164	0.005735811141173659	-0.004672221742857874	-0.002880578831039767	-0.0002224325312987997	0.001172366855456411	-0.0002724762099778628	0.0009666046518587172	-0.01927378766108744	-0.0001449172774527892	0.001950716521975052	-0.006891668932579141	-0.007796051075759887	-0.001649797740794806	-6.629545730035651e-05	-3.349293075084771e-05	0.006436205254544163	-0.001298870144891144	0.0001215316232733351	0.0002443931603113297	0.0005451925694965388	-0.0002078355866101362	-9.574143753175267e-05	1.615704748419226e-05	8.889325121663257e-05	2.3460225561588e-06	-0.0007174505991012714	0.0002787581248718331	0.0008294921574663229	-0.0004145778701887078	-0.0002037878494251724	0.0003529905747936324	0.007782412237618113	-0.0002418144721629222	-0.0007463163305271903	-0.0001623835947394945	-0.0002197994230059609	1.614376291199162e-05	5.718233799104901e-06	0.000102112728350065	-0.001247969884580802	2.777810484305708e-05	-0.0007267518696201558	0.0001429292196411515	0.0002630119596600621	0.0006349131919532063	-1.339445649918063e-05	-5.555103834625188e-05	-0.001672535895305642	0.0002077424389544299	0.001222913854024879	-0.0008851946626272466	6.40099313174183e-05	-0.0001233032695264255	0.0002966937923448661	-6.915248340401454e-05	-0.0008103430340107344	-4.985520403912159e-05	3.093777566239583e-05	0.0002103981903318191	-1.053241075821849e-05	-8.440012324630992e-12	-5.12703007984771e-14
0.005000000000000001	-0.1417963930827211	-0.08584437755236074	-0.2953707114405117	1.163519994643181	1.041591802747504	-0.09778181387609311	0.3058102766209685	0.09465694793461808	0.1245345924842382	0.3391805069324048	-0.09742241938397499	-0.1408881625022931	0.2309882526528606	0.8244504522731112	-0.7610563649417592	0.3131541317483407	0.3131541317483906	0.2968849870810926	0.2968849870810926	-0.5353166994581987	-1.189586107867546	-0.9088224743550394	0.02630114839367657	0.7451548652639028	-0.9678800244824816	-0.08403169789040822	-0.03667708395611705	0.7793334005374734	1.672263936714107	-0.2005029276364808	-0.07829791118671763	0.4576881109793907	0.3417363077671944	-5.748960540723071e-08	6.854946835430974e-08	0.4066854165177005	-0.7152230574928727	9.379780396435513e-07	-2.269628526648815e-07	-0.003626735210964836	-0.001961217598396232	-0.001996474545895062	0.0009254771085420885	0.4392145798322846	-0.002572662407913969	-0.0009681170028954335	-0.0007184673660959599	0.01637743680376137	0.001175816545126683	0.005673200797500438	-0.003231624867601094	0.001868007015869132	0.01651892454154835	-0.009483474689307226	0.0008389392914076558	0.0008389392914076548	0.007163178232302483	0.007163178232302413	-0.01352300150310705	0.005600149937919584	-0.003997590528205014	-0.002907809638924206	-0.0002688045811143274	0.001366880525648575	0.001626653280611553	0.0006745093263088335	-0.02032908213975458	-4.54017441018067e-05	0.007941578858483836	-0.008072920339628921	-0.008260547002697348	-0.004590308434114713	2.375474823712244e-05	-2.367027243000326e-05	0.007907875224716769	-0.001231370450598235	0.0001489281913581882	0.0001988023846256588	0.001307970584462276	-0.0006640840333038762	-0.0002828401436068961	3.543345493259753e-05	0.0002290306320950995	2.218522520573357e-05	-0.001672531303383327	0.001100190872738388	0.001560863183810207	-0.000613295422099119	-0.0003062163871762101	0.0002089284253834479	0.003118621857066662	-0.0001014638331280185	-0.001775752792266577	-0.0006443684589376212	-0.0004112002612558557	0.0001224036644746518	6.053296902461859e-05	0.0001279490178746688	-0.001127931018732989	2.391902664253539e-05	-0.001771352497625582	0.0005202768130690255	0.0006945795274523909	0.001262460457444454	-9.470386348715194e-05	-0.0002826259837427508	-0.003576260471118581	0.0009297458072370552	0.002891887279772756	-0.001951267410919501	0.0001589395725151224	-0.0003633518448394446	0.0007658461315260817	-0.0002360575544890454	-0.0006630409682476578	-7.430319612485751e-05	0.0001174321108617735	0.0003064009839904717	-6.210631302463069e-05	2.957498358659539e-12	2.96588551743846e-12
0.01	-0.1418138740489801	-0.08585426508752111	-0.2953810721063789	1.163524624385158	1.043665360666989	-0.09779464682842499	0.3058045871143593	0.09465333292319178	0.1246172188436734	0.3391853659216459	-0.09739402343023462	-0.1409048263707217	0.2309962770148458	0.8245330028136736	-0.7611030639264275	0.3131580550678031	0.3131580550679093	0.296920354597031	0.2969203545970315	-0.5353810254795193	-1.189558577897372	-0.9088399441256547	0.02628652765502745	0.7451533393342887	-0.9678726065949095	-0.08402229692932101	-0.03667424712262548	0.7792274531871173	1.672263968729724	-0.2004591612826373	-0.0783406149852952	0.4576464022841523	0.3417071121794009	6.819065538163298e-08	-8.269807689945081e-09	0.4067299966331553	-0.7152293857851404	1.567518734372844e-06	6.279336685487378e-07	-0.003347101797668635	-0.002005147865125354	-0.002161418816340454	0.0009261707868663778	0.3902107945587378	-0.00255826265484372	-0.001336704888486358	-0.0006945507092441161	0.01673871049849086	0.0007357360780910418	0.005670198980926468	-0.003458520606395754	0.001300132399762001	0.01650816514001694	-0.00917367442204335	0.0007151595760884529	0.0007151595760884445	0.006973368394633887	0.006973368394633793	-0.01210441564088886	0.005401308010997976	-0.002923789398767493	-0.002941574895506528	-0.000346845391275018	0.001608050564652096	0.00185532083088403	0.0004757860842344553	-0.02218295427953224	5.902683155324113e-05	0.008691466975704653	-0.008959484560347624	-0.008362508725317019	-0.006999348194468814	9.05983653918735e-06	-5.699402763406629e-06	0.0100330961096723	-0.001327161596480018	8.820075195162616e-05	0.000141145146843749	0.002070748599428012	-0.001120332479997616	-0.0004699388496820397	5.47098623810028e-05	0.0003691680129735664	4.202442785530834e-05	-0.002627612007665382	0.001921623620604944	0.002292234210154091	-0.0008120129740095303	-0.0004086449249272477	6.48662759732635e-05	-0.001545168523484788	3.888680590688511e-05	-0.002805189254005964	-0.001126353323135748	-0.0006026010995057506	0.000228663566037312	0.0001153477042501323	0.0001537853073992725	-0.001007892152885176	2.00599484420137e-05	-0.002815953125631008	0.0008976244064968996	0.00112614709524472	0.001890007722935701	-0.0001760132704751233	-0.0005097009291392498	-0.005479985046931521	0.00165174917551968	0.004560860705520632	-0.003017340159211755	0.0002538692137128265	-0.0006034004201524637	0.001234998470707297	-0.0004029626255740762	-0.0005157389024845813	-9.875118821059339e-05	0.0002039264460611513	0.0004024063934059087	-0.0001136791010764176	1.435500904195007e-11	5.983041335675396e-12
0.015	-0.1418297180130751	-0.08586450400468011	-0.2953924236580174	1.163529255569617	1.045493927709122	-0.09780738219318638	0.3057966870291036	0.09465019681714587	0.12470240577754	0.3391876180615931	-0.09736580385084517	-0.1409229035576064	0.2310009399844054	0.8246155783047694	-0.7611479289908846	0.3131611725480363	0.3131611725480299	0.2969546319758503	0.2969546319758064	-0.5354371675678539	-1.189532171614625	-0.9088512280231744	0.0262717259723696	0.7451513559458264	-0.967863874889089	-0.08401474911314374	-0.03667235826538456	0.7791107974864946	1.672264519230108	-0.2004209195457858	-0.07838739714792368	0.457603386146068	0.3416667713904061	3.3708220511533e-09	2.51650182371439e-09	0.4067874497741145	-0.7152359445256105	1.783031846737975e-06	1.198090091292459e-06	-0.002979816994926845	-0.002094061010262794	-0.002385181261038681	0.0009263954224629467	0.3412172185917728	-0.002535277125216193	-0.001838815328869249	-0.0005540009994092829	0.01735569970954535	0.0001479176567897637	0.005615325023540115	-0.003778927846518626	0.0005438695623064891	0.01652403194450525	-0.008760261374861184	0.0005248905435022867	0.0005248905435022843	0.006730283610427521	0.006730283610427439	-0.01034019362521029	0.005156385513595926	-0.001559427894551049	-0.00297934393692383	-0.0004494046093505935	0.001890673970735856	0.001121319164158664	0.0002577534562059308	-0.02450089832431938	0.000158804651028735	0.006497376301993327	-0.0097807223263009	-0.009124356268115875	-0.009134124675166217	-2.345968238153472e-05	6.847780496467675e-06	0.01317966688564144	-0.001192105388558216	5.300388074942356e-06	9.164928941918593e-05	0.002551157479990767	-0.001377328790982142	-0.000507728613325345	6.945238000938894e-05	0.0004644466657839316	4.36038830918751e-05	-0.00322417070328437	0.002324512524858329	0.002770684989901755	-0.0009378331355393585	-0.0004723412953834405	-4.945353194707599e-05	-0.002068785596044634	6.296308290609522e-05	-0.003401568515974843	-0.001314654266738676	-0.0005689417346482535	0.0003577334002005472	0.0001801408492345243	-7.115581924605524e-05	-0.001153863293982227	3.494443915692779e-05	-0.003406940447994302	0.001098995966232746	0.001325556314569693	0.001992856073455407	-0.0002068456104259329	-0.0007377606947166727	-0.006130473452918515	0.001288391216545001	0.004975536600998971	-0.003249549055946381	0.0003328694271553362	-0.0007554235606702898	0.001509577366765059	-0.0005883229066078289	-0.00050485956296049	-9.940299760911055e-05	0.0002641957457243401	0.0004643401276962471	-0.0001780082049803609	1.128037723789902e-11	1.417025899314489e-12
0.02	-0.1418435655504754	-0.08587524211774167	-0.2954049837132089	1.163533889263644	1.047077544815882	-0.09781999353843222	0.3057860440999197	0.09464785182029478	0.1247909722073828	0.3391866730757739	-0.09733789325751238	-0.1409426813861772	0.2310015038518508	0.8246982631395811	-0.7611905456403165	0.3131632345538388	0.3131632345537198	0.2969875844380418	0.2969875844379536	-0.5354843051550944	-1.18950706223798	-0.9088552349874547	0.02625673175796529	0.7451488163420384	-0.96785363943313	-0.08401150860243804	-0.03667188962162267	0.7789822284803265	1.672265533089526	-0.200395266034246	-0.07843869562691072	0.4575523546238737	0.3416157993599322	-5.112529353526929e-08	2.854653655070426e-08	0.4068641083681277	-0.7152402645469959	1.693481565927428e-06	1.591745234395064e-06	-0.002548531119802609	-0.002204826226152047	-0.002644820237517655	0.0009271746146608294	0.292230820409737	-0.002508654848624502	-0.002433842459755981	-0.0003781070313161134	0.01809050888897593	-0.000543114228480863	0.005546604558260624	-0.004138777280793778	-0.0003395084459610938	0.01655190262643857	-0.008274308411988977	0.0002929698037643614	0.0002929698037643652	0.006443401743530354	0.006443401743530281	-0.008502615203289795	0.004882545570131878	-1.301610301227692e-05	-0.0030185875940966	-0.0005693315215225786	0.002209550620102496	0.0001323986422604059	-9.229930737221887e-05	-0.02694827649765299	0.0002443704454382064	0.003656176851063848	-0.01076601110376328	-0.01156866236935436	-0.01125184478608754	1.318932363681019e-05	3.980873219255274e-07	0.01771527733122744	-0.0004316739625793173	-3.38246053186451e-05	7.05446349873028e-05	0.003031566360553521	-0.001634325101966668	-0.0005455183769686502	8.419489763777508e-05	0.0005597253185942968	4.518333832844185e-05	-0.003820729398903359	0.002727401429111714	0.003249135769649418	-0.001063653297069186	-0.0005360376658396332	-0.0001637733398674155	-0.00259240266860448	8.703935990530534e-05	-0.003997947777943721	-0.001502955210341604	-0.0005352823697907563	0.0004868032343637826	0.0002449339942189164	-0.000296096945891383	-0.001299834435079278	4.982892987184187e-05	-0.003997927770357596	0.001300367525968592	0.001524965533894667	0.002095704423975113	-0.0002376779503767426	-0.0009658204602940956	-0.006780961858905509	0.0009250332575703209	0.00539021249647731	-0.003481757952681007	0.0004118696405978461	-0.0009074467011881159	0.00178415626282282	-0.0007736831876415817	-0.0004939802234363988	-0.0001000548070076277	0.0003244650453875288	0.0005262741092982054	-0.0002423380350240573	4.070847580321818e-12	-5.31560989550294e-12
0.025	-0.1418551075472426	-0.08588655181733681	-0.2954189070261301	1.163538529827914	1.048416245946899	-0.09783246905124098	0.3057722262056149	0.09464631449641855	0.1248832555910755	0.3391820386365021	-0.09731032004006579	-0.1409643469224493	0.2309973797671448	0.8247810841532965	-0.7612305769733202	0.3131640593482401	0.3131640593481154	0.2970189927712285	0.2970189927711956	-0.5355220911884956	-1.189483331100438	-0.9088514121818854	0.02624154945932322	0.7451456460432846	-0.9678417493423945	-0.08401251242548027	-0.03667326938796387	0.778841173851185	1.672266928139271	-0.200380490205828	-0.0784946122569028	0.4574878842000201	0.3415546054451776	1.410351742663706e-07	-2.196901048862846e-09	0.4069647069868031	-0.7152402441501438	1.478526891089907e-06	1.913323524176643e-06	-0.002059780611525426	-0.002315319583160647	-0.002925560395703204	0.0009294608320963635	0.2432504420608117	-0.002482218128777133	-0.003102302381562466	-0.0002629641983046203	0.01879215543667121	-0.001323113186572071	0.005488544902784349	-0.004531980924796225	-0.001321962409812365	0.01657186475841288	-0.007731294377338262	3.529628402198214e-05	3.529628402198437e-05	0.006112587988426282	0.006112587988426233	-0.006603519364273345	0.004617745097574216	0.001500945220662437	-0.003052213875985836	-0.0006992108233461326	0.002546452168125938	-0.0003088885316758109	-0.0004352219814019503	-0.02948017607542434	0.0003090597313612807	0.003135500740754113	-0.01148428890890781	-0.01390204516699393	-0.01315806389119176	5.333821202577109e-05	-1.126120596193889e-05	0.02231355639755532	0.0003388191412148744	-5.270966106583585e-05	5.531488985165018e-05	0.003325395717024259	-0.001684152995691471	-0.0004716964474074528	9.57844707649556e-05	0.0006188196987428258	3.003952364316569e-05	-0.004163946844557277	0.00268258812609147	0.003583362484545097	-0.00120182117845492	-0.0006037012844322731	-0.000702175297401567	0.002419799025280341	-3.265601921942966e-05	-0.004335371289922702	-0.001393861577813559	-0.0003086540782115401	0.0005251184433343585	0.0002629786202394021	-0.000310059341411484	-0.000549096426790834	3.214885932399353e-05	-0.004285839082713187	0.00130311189533668	0.001543585126901667	0.001936540849370713	-0.0002309493776395016	-0.001240559037775314	-0.006724211345306254	0.001583805328635813	0.005518131835110533	-0.003469561613943252	0.0004761052686450821	-0.0009832864568990649	0.001876152087462951	-0.0009478045701125759	-0.000393079010320594	-0.0001141523878391905	0.0003386599741580077	0.0005966159138778178	-0.0002626723121645343	-3.496394343014399e-12	-5.086539026050195e-12
0.03	-0.1418640784868354	-0.08589835797328577	-0.2954342498718135	1.163543187969353	1.04951005733713	-0.09784482239825898	0.3057549312049102	0.09464496076152042	0.1249785868702351	0.339173317426845	-0.09728294918366044	-0.1409880466323924	0.2309881658580189	0.8248639354061521	-0.7612677892799684	0.3131635709999689	0.3131635709998384	0.2970486368823326	0.2970486368823551	-0.535550257560808	-1.189460806430492	-0.9088406374663488	0.02622623079907288	0.7451418200053718	-0.967828175246508	-0.08401234709448001	-0.03667599798895962	0.7786873607104072	1.672268577789629	-0.2003550975645924	-0.07855237499615821	0.4574165087922547	0.3414848952932657	3.788903121416941e-07	-6.972295907054974e-08	0.4070851377946892	-0.715237886491206	1.160860990774346e-06	2.117176222174779e-06	-0.001520108250067901	-0.002403408767669899	-0.003212633342386576	0.0009342054819662086	0.1942749240956171	-0.002459788532319548	-0.003824685019732923	-0.000304671440081014	0.01930966707571923	-0.002177822382556734	0.005465660141769971	-0.004952446749154007	-0.002375438213940415	0.01656399828253028	-0.007146697869728746	-0.0002322872652532902	-0.0002322872652532895	0.00573771291047429	0.005737712910474264	-0.004654750767835017	0.004399958532334968	0.002767747883862197	-0.003073132237405342	-0.0008316271850889967	0.00288315268055394	0.0006000602592662759	-0.0006318331691886205	-0.03205168115220577	0.0003462106907684139	0.007902901978065214	-0.01150445480909428	-0.01433065593405519	-0.01465833964904856	3.14671916662836e-05	-1.431496084692239e-05	0.0256481530154601	0.0005032308716662195	-7.490909550986104e-05	2.345439827392542e-05	0.003619225073494997	-0.001733980889416275	-0.0003978745178462554	0.0001073740438921361	0.0006779140788913548	1.489570895788951e-05	-0.004507164290211194	0.002637774823071226	0.003917589199440775	-0.001339989059840653	-0.0006713649030249129	-0.001240577254935719	0.007432000719165162	-0.0001523513983441647	-0.004672794801901685	-0.001284767945285514	-8.202578663232394e-05	0.0005634336523049343	0.0002810232462598878	-0.000324021736931585	0.0002016415814976098	1.446878877614519e-05	-0.004573750395068777	0.001305856264704767	0.001562204719908668	0.001777377274766314	-0.0002242208049022606	-0.001515297615256532	-0.006667460831706998	0.002242577399701306	0.005646051173743756	-0.003457365275205497	0.0005403408966923181	-0.001059126212610013	0.001968147912103082	-0.00112192595258357	-0.0002921777972047892	-0.0001282499686707534	0.0003528549029284864	0.0006669550817346777	-0.0002830078850690098	-1.134980607895782e-11	7.1189717481868e-13
0.035	-0.1418702755225998	-0.08591058655475113	-0.2954510263919004	1.163547873632054	1.05035899847623	-0.09785706925320022	0.3057339335306646	0.09464322822246569	0.1250763069210749	0.3391602165301007	-0.09725563779341793	-0.1410138225766361	0.2309735912501868	0.8249467200185208	-0.7613020322072336	0.313161708511388	0.313161708511368	0.2970763499554472	0.2970763499554392	-0.5355688415781361	-1.189439277005954	-0.9088240040503069	0.02621083646222698	0.7451373283591951	-0.9678129392144559	-0.08400644419437098	-0.03667961916705019	0.778520920770277	1.672270346212337	-0.2003003804186177	-0.07860990752106732	0.4573455990240249	0.34140863696197	4.318683998697964e-07	-1.372356225434967e-07	0.4072201691082969	-0.71523555387622	7.370347239283437e-07	2.137550141317323e-06	-0.000960569636634005	-0.002491891734539412	-0.003495522163823292	0.000940000108351029	0.1453013796637658	-0.0024387491843069	-0.004574572378254783	-0.0003701110856760359	0.01979996861686084	-0.003058866185614686	0.005458159351934283	-0.005343625784343921	-0.003449388878163985	0.01655366463097207	-0.006555064120997787	-0.0005166258604512427	-0.0005166258604512407	0.005350867521522306	0.005350867521522307	-0.002827736667211221	0.004214887764007526	0.003872973571287661	-0.003083055260466943	-0.0009648903778838097	0.003207014866364443	0.001549613032453723	-0.0008473313307850248	-0.03446489693266734	0.0003569396586075778	0.01331883197144567	-0.01167506171072474	-0.01414668879457179	-0.01578966752676151	-4.762381079879435e-06	-1.252137129400517e-05	0.02837118066186513	0.0004626368276033897	-9.255036838539642e-05	-1.459604945315689e-05	0.003710886277773253	-0.001713585885630222	-0.0003143627617293316	0.0001110062365738584	0.0007026908477043095	4.178585079917606e-06	-0.004571755396316688	0.002547656890860901	0.003691749860153805	-0.001177786095462388	-0.0005914476309960937	-0.00142632635330848	0.003814105819257496	-3.507703188762976e-05	-0.004761303196554456	-0.001135230264518726	5.800023569427593e-05	0.0005847218677248461	0.0002923460537159462	-0.0002068443283856275	-0.0008280457444864893	3.352505437831039e-05	-0.004616299889723843	0.001258490012209429	0.001489995008463995	0.001407627004153268	-0.0002915566106212945	-0.00136130447825651	-0.005949313459989711	0.001699634868497018	0.004858724983013705	-0.003078397990516834	0.0005843785325054775	-0.001068263408708877	0.001888904045930003	-0.001239443320537982	-0.0002127703365947769	-0.000133827323358583	0.0003418727618129347	0.0005847483599668659	-0.0002930048965709038	-1.230355353367195e-11	3.757965497903378e-12
0.04000000000000001	-0.1418737028190112	-0.08592331556979177	-0.2954691805681661	1.163552587375535	1.05096306961496	-0.09786920784750329	0.3057091836041299	0.094641441981625	0.1251768027099705	0.3391427654662847	-0.09722837495617404	-0.141041339838596	0.2309537221296443	0.8250295102321222	-0.761333385832025	0.3131583655640992	0.3131583655641898	0.2971021790695009	0.2971021790694625	-0.5355790237325182	-1.189418626788041	-0.908802034180252	0.02619541571887307	0.7451321725106697	-0.9677961475505839	-0.08399896583167442	-0.03668477823490491	0.7783433057207525	1.672272104998876	-0.2002285604892821	-0.07867079067882717	0.4572739075299419	0.3413275518714224	3.864022562945321e-07	-1.932493395280893e-07	0.4073689176836502	-0.7152329319058817	2.560677353518116e-07	1.978303539280718e-06	-0.0004122125089104999	-0.002603582197772037	-0.003763695813911182	0.0009454377940824509	0.09632692394744635	-0.002416484277041228	-0.005325585935415765	-0.0003261521544657993	0.02041996229806067	-0.003917889211195084	0.005446238942331127	-0.0056489738356408	-0.00449324329814481	0.01656623877563094	-0.005990976880303761	-0.0008244707484438661	-0.0008244707484438625	0.004984129286125823	0.004984129286125851	-0.001294005589437278	0.004048275882217555	0.004902329489088366	-0.003083694840612733	-0.001097308124617117	0.003505405408474801	0.001230245294271703	-0.001246989074845731	-0.03652172490993891	0.0003423562228299168	0.01474401532236884	-0.01284470794937989	-0.01464334627535044	-0.01658904334989503	-7.910500855063033e-06	-9.715382251580624e-06	0.03113505771367773	0.0006189730125142395	-9.776538420207311e-05	-4.839381019773446e-05	0.003802547482051508	-0.00169319088184417	-0.0002308510056124077	0.0001146384292555807	0.0007274676165172642	-6.538538798054297e-06	-0.004636346502422182	0.002457538958650576	0.003465910520866834	-0.001015583131084122	-0.0005115303589672747	-0.001612075451681242	0.0001962109193498303	8.219733456890515e-05	-0.004849811591207225	-0.0009856925837519385	0.0001980262580208758	0.000606010083144758	0.0003036688611720045	-8.966691983966995e-05	-0.001857733070470588	5.258131998047559e-05	-0.004658849384378909	0.001211123759714091	0.001417785297019322	0.001037876733540223	-0.0003588924163403284	-0.001207311341256487	-0.005231166088272424	0.00115669233729273	0.004071398792283652	-0.002699430705828171	0.0006284161683186369	-0.001077400604807741	0.001809660179756924	-0.001356960688492394	-0.0001333628759847646	-0.0001394046780464126	0.0003308906206973831	0.0005025433992061482	-0.0003030031534442306	5.420275740726082e-13	1.299298065419706e-12
0.04500000000000001	-0.1418744189766244	-0.08593663964654494	-0.2954886316731009	1.163557328566567	1.051322265286077	-0.09788123528694034	0.3056806913436999	0.0946400430856464	0.1252805570567595	0.339121075513764	-0.09720117414739106	-0.1410702129438285	0.2309287249346001	0.8251124022993925	-0.7613619960304655	0.313153450310635	0.3131534503106458	0.2971262142515646	0.297126214251532	-0.5355823499283048	-1.189398767312498	-0.9087751208872754	0.02618002176183341	0.745126366062548	-0.9677779481321495	-0.08399510476826448	-0.03669217888836108	0.7781563930597218	1.672273733673608	-0.2001560100235589	-0.07873901252244164	0.4571982129074745	0.3412432695434894	3.699705553977816e-07	-2.301363901186614e-07	0.4075312989215723	-0.7152291531140835	-2.284071665146932e-07	1.662838370370351e-06	0.0001233460910958941	-0.002725632238290455	-0.004012864656614187	0.0009512093036870464	0.04735101019036967	-0.002394933821837976	-0.006068391584899488	-0.0002363632435874743	0.02107026489147915	-0.004754184374489582	0.005435073568376954	-0.005894696723758528	-0.005497426268354126	0.01659074762145977	-0.005459320309167319	-0.001140424913445938	-0.001140424913445934	0.004631195456627428	0.004631195456627404	-0.0001012700373497131	0.003897830005959022	0.005847606059350953	-0.003070986261170363	-0.001223255061302117	0.003766013807765229	0.0003330217251877718	-0.001700532552294557	-0.03816480384722309	0.0003061125101112879	0.01432729077143614	-0.01440910032291779	-0.01571167940903564	-0.01707461090197231	-7.143858558289808e-07	-4.343430421046289e-06	0.03376652191725953	0.0009019383380387324	-9.565714442677005e-05	-7.665606899336407e-05	0.003758346745904942	-0.001595900564443797	-0.000121578255646636	0.0001147669767629177	0.0007238120462005283	-2.017060896324677e-05	-0.004564043163428952	0.002179310595854649	0.003151526392279054	-0.0009206762690144734	-0.000463625603936491	-0.001577364666174511	0.0004405913234529097	7.290186820391813e-05	-0.004775953680747373	-0.000790394709058597	0.0003548491085193882	0.0005263156615181039	0.0002638741390138729	-3.423816834344425e-05	-0.001635943412646527	4.401956936902243e-05	-0.004529131409116264	0.001100540532281574	0.001260201403184889	0.0005820798379329502	-0.00046329474924394	-0.0008421859808451525	-0.004136771918273284	0.0005275757945918596	0.002942790855815842	-0.002209140937471263	0.0006553206096467178	-0.001020620717389251	0.001587904638887075	-0.001397017272042543	-6.706572069232911e-05	-0.0001421046964425544	0.0002924811028227738	0.0004555956810976125	-0.0002631669483658377	1.072666998440901e-11	-9.916418154796522e-13
0.05	-0.1418724933918259	-0.08595056772952261	-0.2955092703996986	1.163562101175419	1.051436576373773	-0.09789316160896219	0.3056485289547977	0.09463904877912299	0.1253873902436245	0.3390952626967656	-0.09717401433051512	-0.1411002310904976	0.2308988299514727	0.8251954193032263	-0.7613880412132493	0.3131469733724417	0.3131469733723728	0.2971485035432223	0.2971485035431956	-0.5355806844060134	-1.189379625331269	-0.9087437119360804	0.02616473487340218	0.7451199601206842	-0.9677585708940813	-0.08399544719786768	-0.03670165616287458	0.7779624430388316	1.672275136112377	-0.2000847763835224	-0.07881453239032137	0.4571160189688772	0.3411572985316158	3.587363342143244e-07	-2.297235681025333e-07	0.4077060737474437	-0.7152238185761886	-6.968293877383001e-07	1.223104733077558e-06	0.0006444844557209867	-0.002845184687572967	-0.004238744479095826	0.0009580049217588095	-0.001626909421320094	-0.002376037310954182	-0.006793637324296897	-0.0001643163723900853	0.02165149832841183	-0.005567035002291203	0.005429842179512498	-0.006106990410272955	-0.00645235853139444	0.01661621340100419	-0.004964970617579492	-0.001449144640083626	-0.00144914464008362	0.004285773123709866	0.004285773123709789	0.0007026816417337905	0.003761278157191107	0.006700592776444671	-0.003040867397241924	-0.001337105621457747	0.003976533261982387	-0.0004511519109832597	-0.002077637497779368	-0.03933666885372959	0.0002518618377958729	0.01421728504767837	-0.015763917655471	-0.01724307272733504	-0.01726451692614409	-5.831508969745669e-06	5.204566791099397e-06	0.03609249289339012	0.001241271451197803	-9.134431194491398e-05	-9.810119755070525e-05	0.003714146009758376	-0.001498610247043425	-1.23055056808643e-05	0.0001148955242702547	0.0007201564758837924	-3.380267912843925e-05	-0.004491739824435721	0.001901082233058721	0.002837142263691275	-0.0008257694069448247	-0.0004157208489057074	-0.00154265388066778	0.0006849717275559892	6.360640183893111e-05	-0.004702095770287519	-0.0005950968343652555	0.0005116719590179006	0.0004466212398914498	0.0002240794168557412	2.119058315278145e-05	-0.001414153754822465	3.545781875756927e-05	-0.004399413433853619	0.0009899573048490558	0.001102617509350456	0.000126282942325677	-0.0005676970821475516	-0.0004770606204338177	-0.003042377748274145	-0.0001015407481090112	0.001814182919348031	-0.001718851169114356	0.0006822250509747987	-0.0009638408299707609	0.001366149098017225	-0.001437073855592692	-7.685653998935846e-07	-0.0001448047148386961	0.0002540715849481645	0.0004086474127325354	-0.0002233313926303804	-3.761971845193665e-13	-1.940761283704573e-12
0.05500000000000001	-0.1418680063696983	-0.08596507746474487	-0.2955309704680564	1.163566910922488	1.051305991951185	-0.09790500230329323	0.3056127983894905	0.09463831869813419	0.125496862017541	0.3390654561904142	-0.0971468597081715	-0.1411312354417574	0.2308643070713362	0.8252785588829168	-0.7614117222281871	0.3131389783471835	0.3131389783471994	0.2971690816835931	0.2971690816835864	-0.5355760085861208	-1.189361119070604	-0.9087083370035094	0.02614964313992721	0.7451130202668842	-0.9677382693841193	-0.08399895372770215	-0.03671279764202052	0.7777638779111696	1.672276228944642	-0.2000116235251814	-0.07889592592517923	0.4570249807091222	0.3410709206859829	3.273065080729512e-07	-1.788855578083453e-07	0.4078916934168442	-0.7152165891301268	-1.12792281509485e-06	6.99204680908637e-07	0.001146279758000967	-0.002956318492583216	-0.004435434986230087	0.0009661845455387465	-0.05060737358293997	-0.002361126692893092	-0.007492829461183466	-0.0001410040877010924	0.02210671769321096	-0.006349268419177757	0.005434221675871748	-0.006290839387936301	-0.007343855537689629	0.0166383486610259	-0.004516516312073286	-0.001746184250532372	-0.001746184250532366	0.003946173056989125	0.003946173056989077	0.001095336260467998	0.003646005867073528	0.0074203360076348	-0.002992717636636474	-0.001435799856451536	0.004135102382417341	-0.0008378290588184682	-0.002360158505721887	-0.03999759194948611	0.0001836030671336629	0.01543543595788781	-0.01668326709631987	-0.01925543349078862	-0.01727663641190578	-1.540696990289595e-06	1.428348331385675e-05	0.03810025511407268	0.001671406125437725	-7.867627373649935e-05	-0.0001091204005151662	0.003547664924926979	-0.001371899743606805	0.0001235130504983348	0.0001118690814401353	0.0006906269315984814	-4.955446857085294e-05	-0.004312434270895605	0.001515419979141356	0.002380135189032189	-0.0007797797110881816	-0.0003916712000702723	-0.00161147361283616	0.002820570764343554	6.640596744797905e-06	-0.004473581433804433	-0.0003986796770898764	0.0006726436023721375	0.0003121200602132156	0.000156410917594156	-8.90721474792063e-05	-0.0006801720398714409	2.280402870258527e-05	-0.004120251669438832	0.0008658326387956324	0.000864480431960745	-0.0003916723594256528	-0.0006742054895603061	-0.0001223310760164009	-0.001705226067121927	-0.0006979975654244156	0.0006229979708683227	-0.001029171501910442	0.0006879910804056145	-0.0008568509734307302	0.001063927575804675	-0.001399521961513512	4.323562802559648e-06	-0.0001408126931651466	0.0002006580589331038	0.0003867545932006991	-0.0001565621845966583	-1.147906435344775e-11	-2.889880751929495e-12
0.06	-0.1418610710406193	-0.08598010700536099	-0.2955535662707832	1.163571765927271	1.05093049749825	-0.09791678173860552	0.30557365825356	0.09463750585760031	0.1256081524851065	0.3390318330037647	-0.09711964996457709	-0.1411631003773198	0.2308255207759509	0.8253617900916947	-0.7614332971859157	0.3131295383418088	0.3131295383419095	0.2971879721740558	0.2971879721740691	-0.5355704541439571	-1.189343117475014	-0.9086697990184475	0.0261348387805969	0.7451056324825408	-0.9677173095536611	-0.08400268917881598	-0.03672506979138305	0.7775633850219523	1.672276955463038	-0.1999265062472519	-0.07898026276937102	0.4569226326108079	0.3409846320166481	3.953266092765688e-07	-9.53602750911564e-08	0.4080865251010573	-0.715206895523415	-1.459424272491225e-06	1.552849559428675e-07	0.001623807236227481	-0.003053106845119239	-0.004597038226725113	0.0009761080070613493	-0.09959092156021893	-0.002351533703468506	-0.008157465573546378	-0.0001974201904203401	0.02237897578797534	-0.007093707121530263	0.005451890679821486	-0.006451224131325145	-0.008157724630919089	0.01665286503597118	-0.004122547733946357	-0.002027136686636504	-0.002027136686636497	0.003610713160457284	0.003610713160457267	0.001054130550206049	0.003559412127217383	0.007965813772777542	-0.002925917739374811	-0.00151627783879247	0.004239861460491816	-0.0005427204227268117	-0.002529905584415994	-0.04010777347591951	0.0001053362902160419	0.01900305288307721	-0.01694124138904376	-0.0217670081510854	-0.01722884640683178	3.394846196825068e-05	1.82794757602998e-05	0.03977729881841927	0.002226935711165225	-5.150752396084373e-05	-0.0001061090666694446	0.003381183840095582	-0.001245189240170185	0.0002593316066775339	0.000108842638610016	0.0006610973873131701	-6.530625801326664e-05	-0.004133128717355488	0.00112975772522399	0.001923128114373102	-0.0007337900152315384	-0.0003676215512348372	-0.00168029334500454	0.004956169801131119	-5.032520834933531e-05	-0.004245067097321347	-0.0002022625198144973	0.0008336152457263745	0.0001776188805349813	8.874241833257064e-05	-0.000199334878111194	5.38096750795833e-05	1.015023864760128e-05	-0.003841089905024044	0.0007417079727422088	0.000626343354571034	-0.0009096276611769826	-0.0007807138969730607	0.000232398468401016	-0.0003680743859697085	-0.00129445438273982	-0.0005681869776113854	-0.0003394918347065294	0.0006937571098364302	-0.0007498611168906994	0.0007617060535921242	-0.001361970067434331	9.415691005012881e-06	-0.000136820671491597	0.0001472445329180432	0.000364859786471326	-8.979313040370045e-05	-6.426497057682269e-12	-2.94039582742005e-13
0.06499999999999999	-0.1418518355412313	-0.08599560823946913	-0.2955768682808008	1.163576673547465	1.05031007551598	-0.09792852403577595	0.3055312997262475	0.09463633109652519	0.1257204773090395	0.3389946250863922	-0.09709234206926522	-0.1411956599488648	0.2307829060129354	0.8254450978828469	-0.7614530713410826	0.3131187154629795	0.3131187154630602	0.2972052280642822	0.2972052280642704	-0.5355661442693544	-1.18932542642635	-0.9086291847430796	0.02612040827555174	0.745097886541382	-0.9676959607083181	-0.08400451210638038	-0.03673801961311809	0.7773637161519196	1.672277260710712	-0.1998217694686129	-0.07906486120303903	0.4568077839050119	0.3408989764726763	6.211723668808103e-07	-8.724892437203943e-09	0.4082880722144179	-0.7151944657471886	-1.627548635962181e-06	-3.507698735343712e-07	0.002060989463684348	-0.003149721034283222	-0.004715098105430328	0.0009869586479981627	-0.1485788009791598	-0.002345778142006151	-0.008776510830950098	-0.0002618730275711142	0.02254655267341942	-0.007774568674585025	0.005468795779765151	-0.00655896852502971	-0.008865878033843285	0.01667359463323534	-0.00380276550495185	-0.002302976882805419	-0.002302976882805418	0.003298801055214641	0.003298801055214661	0.0006067291305859135	0.003531932558531322	0.008207709745062805	-0.002844529597794714	-0.001579324134015813	0.004290657759433105	-0.0003262094016028109	-0.00265341355947762	-0.0396683767315349	1.410977249887469e-05	0.02246488539710662	-0.01691294220520823	-0.02399452607213588	-0.01697450602141282	4.20324966711192e-05	1.46859020884865e-05	0.04061787370376152	0.002694685079275248	-1.50679316743614e-05	-9.642954723408099e-05	0.003087437030134765	-0.00113322341176926	0.0004161895893060567	0.0001020725441724742	0.0006064946889044576	-7.926478746060569e-05	-0.003833976544286214	0.0007724377941281703	0.00113031259991105	-0.0005874023797713116	-0.000295088194526791	-0.001850314215561555	0.002621594892183341	2.491401016155308e-05	-0.00384973819792413	-4.684819552693418e-05	0.0009682056916259118	6.623881153434166e-05	3.346395097946529e-05	-0.0002230413808031269	-2.0060079666394e-05	1.256648301050723e-05	-0.003412190529062739	0.0006518306102347296	0.0003182753582378507	-0.001501832948373673	-0.0008416228002437594	0.0003771124610028812	0.001210801280245621	-0.00124534141746183	-0.001586401480804828	0.0005105714372084878	0.0006639878750382344	-0.0006263620424604557	0.00046383812555501	-0.001249809323681407	9.199225377974133e-05	-0.0001199594339898733	9.182093368164479e-05	0.0002911498520187541	-3.370232078726219e-05	6.454995461699378e-13	2.744921666122035e-12
0.06999999999999999	-0.1418405551765352	-0.08601162755806532	-0.2956006305750885	1.163581635699524	1.049444700192147	-0.09794024344979857	0.3054859874904556	0.09463499323944512	0.1258335740007228	0.338954236228548	-0.09706498672343106	-0.1412285537029536	0.2307370850210268	0.8255285594701104	-0.7614714813526862	0.3131064989526637	0.3131064989527244	0.2972210317659346	0.2972210317658977	-0.5355650177542538	-1.189307648897228	-0.9085884437872898	0.02610641103142793	0.7450898669861078	-0.9676744931652397	-0.08400734886081773	-0.03675163783147659	0.7771676152326932	1.672277070030694	-0.1997061251250353	-0.07914954029269362	0.456684466831038	0.3408154756080392	6.72078131964493e-07	3.461099366576162e-08	0.408490467109874	-0.7151804515696231	-1.603360691703066e-06	-8.101773375242415e-07	0.00244175335953449	-0.003260340640346339	-0.004781151934722709	0.0009979207526524252	-0.1975722581854497	-0.002342380444333397	-0.009338948965343775	-0.0002626585924024273	0.02268772288812467	-0.008366083310158217	0.005470870888733307	-0.006584897148818346	-0.009440216188165798	0.0167143834804736	-0.003576890308544982	-0.002584589281222293	-0.002584589281222299	0.003029837730893849	0.003029837730893906	-0.0002192132505999629	0.00359400431024879	0.008016485941640564	-0.002752613370830343	-0.001625723484947436	0.004287340554655494	-0.0009482511719076755	-0.002797264233795753	-0.03868059315342857	-9.303478682061325e-05	0.02336607885847588	-0.01697350378368518	-0.02515435542227787	-0.01636697467289311	-3.602753503997287e-05	9.596771399050364e-07	0.04011641165656572	0.002860696246861317	2.541739913118485e-05	-8.745012047449722e-05	0.002793690220173947	-0.001021257583368336	0.0005730475719345795	9.530244973493231e-05	0.0005518919904957452	-9.322331690794474e-05	-0.003534824371216941	0.0004151178630323504	0.0003374970854489982	-0.0004410147443110848	-0.0002225548378187448	-0.00202033508611857	0.000287019983235564	0.0001001532286724415	-0.003454409298526912	0.000108566128760629	0.001102796137525449	-4.514125746629794e-05	-2.181451637364007e-05	-0.0002467478834950597	-9.392983441237131e-05	1.498272737341319e-05	-0.002983291153101434	0.0005619532477272501	1.020736190466739e-05	-0.002094038235570363	-0.000902531703514458	0.0005218264536047464	0.00278967694646095	-0.00119622845218384	-0.00260461598399827	0.001360634709123505	0.0006342186402400384	-0.0005028629680302119	0.0001659701975178956	-0.001137648579928484	0.0001745688165544698	-0.0001030981964881496	3.639733444524643e-05	0.0002174412021212008	2.238930456375505e-05	1.714778116329925e-12	1.376187600507633e-12
0.07500000000000001	-0.1418275005203179	-0.08602816708566838	-0.2956245756172766	1.163586655506299	1.048334342200634	-0.09795196155574262	0.305438028556386	0.09463355123517056	0.1259469814922128	0.338911119718233	-0.09703754446453752	-0.1412613156751468	0.2306887376990424	0.8256122100556699	-0.7614889943859526	0.313092929877625	0.3130929298776942	0.2972355818280177	0.2972355818280087	-0.5355689782703907	-1.189289313257389	-0.9085498888964516	0.02609289741868852	0.7450816624170857	-0.9676531680996022	-0.08401259586981843	-0.03676613336874691	0.7769778587001169	1.672276307055261	-0.1995845499190751	-0.07923529694271109	0.4565583943035039	0.3407360313167109	2.69916498549999e-07	1.577555649216033e-08	0.4086867620982269	-0.7151664043809471	-1.38097818849982e-06	-1.225864129287702e-06	0.002773008689400169	-0.003344219397790555	-0.004784698303528381	0.001010533510483328	-0.2465721562565369	-0.002347211777834888	-0.009830389762803577	-0.0003554123921168732	0.02260506354087525	-0.008864314314036921	0.005526286957627959	-0.006494879404516239	-0.009874241913832155	0.01673617146006784	-0.003443500411532465	-0.002830073635716589	-0.002830073635716594	0.002794104282290033	0.002794104282290067	-0.001430265950187201	0.00375995316404856	0.007303841238143311	-0.00265153193225433	-0.001652256969838888	0.004235545288577185	-0.0007314057292139135	-0.003025799011872814	-0.03712373058183069	-0.0002141623147738605	0.02640222498711401	-0.01745449446856847	-0.0250217492785242	-0.01532468914337693	-0.0001085758829428048	-3.826079720805558e-06	0.03813038523753544	0.002699312722928255	6.133977138053606e-05	-7.882821781136665e-05	0.002434200616451102	-0.0008408763506708342	0.0007923318342441472	9.147491714806614e-05	0.0004756386911706955	-0.0001177474640112472	-0.003230612561159782	-0.0001359211830505492	-0.0002643895742680972	-0.0004907300248698349	-0.0002431518097351148	-0.0009787859064010432	0.006150339083691845	-0.0001237982098008715	-0.002954908238363864	0.000381029641991869	0.001270677492951188	-0.0001277954944970194	-6.502288644627038e-05	-0.0001111820810942425	-0.0007065319554030572	2.425401794656345e-05	-0.002434627958070169	0.0004121742254612424	-0.0003679207124723867	-0.002691724961559547	-0.0008746188555030661	0.0004171266954637564	0.004523861982058779	-0.0009232503040968075	-0.003551939971932112	0.0023418026476632	0.0005640158978948756	-0.0003824500975517865	-6.155760461310804e-05	-0.0009553510651935	0.0003027758512922034	-7.574211924770915e-05	-6.254372392115459e-06	0.000246580343407511	6.187983124395421e-05	-2.173023303562372e-13	-2.19639412234602e-12
0.08000000000000002	-0.1418128960940208	-0.08604495724201239	-0.2956483558917535	1.163591746350157	1.046978966451213	-0.09796373906602238	0.3053878259418242	0.09463102642277699	0.1260589225344617	0.3388657551504258	-0.09700952131096534	-0.1412932523737591	0.2306385873088064	0.8256958243918787	-0.761506068130936	0.3130783278872664	0.3130783278873442	0.2972490119804734	0.2972490119804923	-0.5355799731412157	-1.189269852350201	-0.9085164216664626	0.02607990871003219	0.74507338288795	-0.9676322091164712	-0.08401047145111826	-0.03678214430497069	0.776797360819827	1.672274908338262	-0.1994307206605491	-0.07932533861983197	0.4564367784013815	0.3406630892437557	-2.51068343633361e-07	4.302791934310581e-08	0.4088690589777785	-0.7151540471074	-1.011921285593475e-06	-1.598495731442713e-06	0.003061661391455532	-0.003360592136733001	-0.004715244850179798	0.001026335585253593	-0.2955793613485023	-0.002366142178607107	-0.01023642116224736	-0.0006957818400082748	0.02210114319170717	-0.009265306307004801	0.005703228760190271	-0.006254787716412149	-0.0101614434887505	0.01669988374026543	-0.00340117499526503	-0.002997755409183534	-0.002997755409183538	0.002581873879942326	0.002581873879942335	-0.003032955125791152	0.00404411125006201	0.005981421602013271	-0.002542651737597994	-0.001655707530340742	0.004140907552073542	0.002000319908448528	-0.003403423815175651	-0.03497713223895001	-0.0003473314134801173	0.0362676998847859	-0.01868751462505068	-0.02337170525755648	-0.01376608732367867	-8.35568185475191e-05	1.93947971497237e-05	0.0345171681360471	0.002184730195250668	8.408715901242436e-05	-7.022804463111805e-05	0.002074711012728257	-0.0006604951179733328	0.001011616096553715	8.764738456119996e-05	0.0003993853918456458	-0.0001422716111145497	-0.002926400751102622	-0.0006869602291334489	-0.0008662762339851927	-0.0005404453054285851	-0.0002637487816514848	6.276327331648298e-05	0.01201365818414813	-0.0003477496482741844	-0.002455407178200816	0.0006534931552231091	0.001438558848376927	-0.0002104497315277409	-0.0001082312565189007	2.438372130657481e-05	-0.001319134076393743	3.352530851971371e-05	-0.001885964763038904	0.0002623952031952347	-0.0007460487868494408	-0.003289411687548731	-0.0008467060074916744	0.0003124269373227665	0.006258047017656607	-0.0006502721560097749	-0.004499263959865954	0.003322970586202896	0.0004938131555497126	-0.0002620372270733609	-0.0002890854067441117	-0.0007730535504585161	0.0004309828860299369	-4.83860420072687e-05	-4.890607922947735e-05	0.0002757139277737384	0.0001013696824939412	-3.570918856008207e-13	-3.009920283950597e-12
0.08500000000000002	-0.1417970146728048	-0.0860618127048354	-0.2956716406923216	1.163596916802079	1.045378534835086	-0.0979756212803924	0.3053358019081733	0.09462682298458047	0.1261681148705784	0.3388186665838431	-0.0969805989063877	-0.1413237751004591	0.2305873915751834	0.8257792577995967	-0.7615231778278351	0.3130629865960838	0.3130629865961391	0.297261523482051	0.2972615234820587	-0.535599755961091	-1.189248672454613	-0.9084909643877501	0.02606745986815709	0.7450651244067726	-0.9676118270261288	-0.0839943465513824	-0.03679984727911232	0.7766288413039341	1.672272808716354	-0.1992298692712113	-0.07942143555017107	0.4563273848486136	0.3405994913609861	-5.292039522875656e-07	1.88586081875303e-07	0.4090293767479756	-0.7151452093704865	-5.579919725790446e-07	-1.907644928574583e-06	0.003271854730278191	-0.003400795893691125	-0.004593364733544881	0.001040901784366484	-0.3445948158171647	-0.002384054807069341	-0.01055992059274504	-0.0008983944499772967	0.02167040192228382	-0.009546350318288779	0.005828118972257214	-0.005961623828005161	-0.01028766422046562	0.0166929541534352	-0.003461865887193574	-0.003144703177489301	-0.003144703177489304	0.002443402128051815	0.002443402128051838	-0.004904492823713501	0.004448068615340589	0.004125215582136057	-0.002440388021680734	-0.001647718701777687	0.004005467133534447	0.003680859261868584	-0.003588788139461908	-0.03237822837512361	-0.000495522619971247	0.04133620706046196	-0.01947857150724684	-0.02009691771861282	-0.01153493400475839	-3.682927324308953e-05	2.994321502950405e-05	0.02936956424809326	0.001278795377808962	9.611533477081476e-05	-4.933174052172335e-05	0.001563168395397554	-0.0005992314715401644	0.001063771197401811	7.178524771756276e-05	0.0003054515653029303	-0.0001314090967582001	-0.002343842195338803	-0.0006477686883295731	-0.001892151905130308	-7.109416319045852e-05	-3.487416674494108e-05	0.0007908933192140301	-0.003217657170432176	5.599896582639637e-05	-0.001780902771428515	0.0005797321698748986	0.001523576318377513	-0.0002133552783733924	-0.0001052186963505859	0.0001540590174918921	4.11518857114979e-05	-1.164121551615578e-05	-0.001262573033020286	0.0002673376099372075	-0.0009538254776647659	-0.003489172426004356	-0.0006714102756876998	6.583171039369542e-05	0.007287127596083955	-0.0002316018825011199	-0.004978094292900216	0.003849576044478411	0.0003931065569169862	-0.0001612995623227375	-0.0004260593722754755	-0.0005687632934715968	0.0006463280569739651	-7.500164100703901e-06	-6.279317309497399e-05	3.566586426541298e-05	0.0001074149416489078	1.74348217345654e-12	-3.746269939938762e-13
0.09000000000000001	-0.1417803680703647	-0.08607915722996151	-0.2956942364326535	1.163602145934008	1.043533002985893	-0.09798755272646974	0.3052823594529507	0.09462291446816343	0.1262765726603578	0.3387705293473209	-0.09695161626222878	-0.1413529418206832	0.2305360025240016	0.8258629486814788	-0.7615408784110367	0.3130468214344225	0.3130468214344553	0.2972736527555567	0.2972736527555533	-0.5356292612694469	-1.189225169447742	-0.9084759322536496	0.02605546979972299	0.7450569053633207	-0.9675922190596494	-0.08398135066573986	-0.03681714240934519	0.7764741029935068	1.672269923059358	-0.1990447250778433	-0.07951739747487103	0.4562386972055056	0.3405491212215024	-7.106795593535232e-07	2.536075413016345e-07	0.4091603508633125	-0.7151419748455458	-6.446025211066092e-08	-2.050814199660879e-06	0.003367733881118269	-0.003556217057974612	-0.004439620755689698	0.001049807588200196	-0.3936194545748719	-0.0023858348615377	-0.01080378979088472	-0.0005778131282210584	0.02180732465682088	-0.009684774282816354	0.005727324592712197	-0.005712385126036992	-0.01023877051230989	0.01680287340601325	-0.003637529516347836	-0.003327303600666244	-0.003327303600666247	0.002428982651178705	0.002428982651178743	-0.006921950518051704	0.004973355763804793	0.001811363757244887	-0.002359142361194442	-0.001639932440170783	0.003831258006853396	0.0007487142711155782	-0.003240286251677301	-0.02946465005263575	-0.0006617454489954402	0.0299848214968419	-0.01863351236940161	-0.01508934139354011	-0.008474990009274498	-4.489281791222026e-05	-1.281988409262261e-05	0.0227797061919485	-5.655459388794344e-05	9.992812199400561e-05	-3.836074212888151e-06	0.001051625778066851	-0.0005379678251069962	0.001115926298249907	5.592311087392557e-05	0.0002115177387602149	-0.0001205465824018504	-0.001761283639574985	-0.0006085771475256973	-0.002918027576275422	0.000398256979047668	0.0001940004481616026	0.001519023365111577	-0.01844897252501248	0.0004597475799269772	-0.001106398364656214	0.0005059711845266879	0.001608593788378099	-0.0002162608252190439	-0.0001022061361822711	0.0002837343136772093	0.001401437847816739	-5.680773955202528e-05	-0.000639181303001669	0.0002722800166791802	-0.001161602168480091	-0.00368893316445998	-0.0004961145438837251	-0.0001807635165353756	0.008316208174511303	0.000187068391007535	-0.005456924625934478	0.004376181502753927	0.0002923999582842597	-6.056189757211414e-05	-0.0005630333378068394	-0.0003644730364846773	0.000861673227917993	3.33857138058609e-05	-7.668026696047065e-05	-0.0002043671546211503	0.0001134667584157244	3.295853684439964e-12	1.37023873220483e-12
0.095	-0.1417634404360005	-0.08609741384800007	-0.2957160608652325	1.163607409231346	1.041442331706947	-0.09799946711931901	0.3052278835918137	0.09462127401135764	0.1263864543938648	0.3387219348818962	-0.09692351068319867	-0.1413811243284011	0.2304851066028877	0.8259473385423112	-0.7615595777553945	0.3130297540996471	0.3130297540996627	0.2972859011289585	0.2972859011289641	-0.5356685264105994	-1.189198980428014	-0.9084726149102436	0.02604384918047211	0.7450487370620976	-0.9675735751940319	-0.08398843057899459	-0.03683128812919476	0.7763336396162812	1.672266189627885	-0.1989359623248508	-0.07960440708031899	0.4561766388824537	0.3405156339790994	-8.791512649733237e-07	1.199296227410585e-07	0.4092577565702392	-0.7151457752133394	4.636646364127909e-07	-1.820100422087767e-06	0.003401750482015441	-0.003735009782365578	-0.004300260343618519	0.001055324864810178	-0.44264924451343	-0.002380108611635966	-0.01097590093691451	-0.0001197576248427287	0.02210400102849014	-0.009753561180193404	0.005515533891333395	-0.005598372044105689	-0.01012824983108306	0.01694397957095694	-0.003827956067124084	-0.0034857565019159	-0.003485756501915907	0.002467252618425394	0.002467252618425429	-0.008669950309294964	0.005473689251299273	-0.0003608836313877429	-0.002289457345458361	-0.001624958783527173	0.003620597845648541	-0.003127257911975505	-0.002314599607259909	-0.02688427715528341	-0.0008289406579421223	0.01506786411417514	-0.01577030601854226	-0.009993232428487141	-0.004879534621757125	6.638565462004733e-06	-1.983464442299332e-05	0.01653939302883868	-0.001391921096777796	0.0001171640648961439	0.0001172036059715453	0.0006245154301464899	-0.0003442697865281627	0.0007724292133340682	3.641106909893952e-05	0.0001253202029663828	-8.13728978980177e-05	-0.001121116900615897	-0.0004615319950568851	-0.00195989769786926	0.0002109460343995406	0.0001026703882061424	0.001358257904610446	-0.009843505952502685	0.0002220977775083549	-0.0006387333113216723	0.0003239365609284391	0.001214438347837921	-0.0002016371816115447	-9.632474145943773e-05	0.0004052176039200262	0.003776446657815064	-0.0001174626274129552	-0.0003214249871628898	0.0001751202218815866	-0.0008222627573937963	-0.002462301854258595	-0.0002499144426547145	-0.0002397740730579177	0.005710145506573107	0.0002423525171355569	-0.003685924564151244	0.003001739521596676	0.0001874363998847146	-1.803728991942299e-06	-0.0004491990842310487	-0.0002144888667504846	0.0009314630107326919	7.045191114303838e-05	-2.068566815667256e-05	-0.0001083704905849639	0.0001049008962312143	2.929516277164649e-12	-1.39201474944579e-15
0.1	-0.1417463662593699	-0.08611639312403431	-0.2957373401167671	1.163612697317837	1.039106508665661	-0.09801135567592079	0.3051727069808516	0.0946213030116075	0.1264971989934678	0.3386729882425875	-0.09689645465459545	-0.1414093030819538	0.2304346335067125	0.8260322975636285	-0.7615790154501118	0.3130121026075308	0.3130121026075294	0.2972982941408028	0.2972982941408176	-0.5357148192162032	-1.18917071818399	-0.9084783056623297	0.02603257170620544	0.7450406800681405	-0.967556069985138	-0.08400808902824929	-0.03683925438460888	0.7762036244587772	1.672261660517601	-0.1988785705925616	-0.07967110029714407	0.456136172435208	0.3405007295985866	-3.529496067564288e-07	2.634274861578461e-07	0.4093293129581019	-0.7151551773422454	1.165602711658464e-06	-6.679579326513063e-07	0.003426350787685874	-0.003845280256245163	-0.004221548337987972	0.001059723249731189	-0.4916801595102693	-0.002375500362548508	-0.01108408972093107	8.996969403106929e-05	0.02215247109519943	-0.009825643836428468	0.005307504421948873	-0.005710883459935599	-0.01006964053680773	0.01703053759995105	-0.003932869660162032	-0.003560966536995195	-0.003560966536995204	0.002486838028215838	0.00248683802821587	-0.009733016298563222	0.005802645482438682	-0.001791874439732024	-0.002221884367506083	-0.001595409533795158	0.003375795317416686	-0.004282700128866762	-0.0007685004774957572	-0.02528536216400688	-0.0009800169732856723	0.009436413215446648	-0.01050695692024903	-0.006452591071024339	-0.001041845253181978	0.0002329765276224581	9.805042869832285e-05	0.01243997856635805	-0.002297259038814312	0.0001694533966828942	0.0003647354105324511	0.000197405082226129	-0.0001505717479493293	0.0004289321284182299	1.689902732395348e-05	3.912266717255074e-05	-4.219921339418498e-05	-0.0004809501616568095	-0.0003144868425880731	-0.001001767819463097	2.363508975141331e-05	1.134032825068225e-05	0.001197492444109315	-0.00123803937999289	-1.555202491026736e-05	-0.0001710682579871301	0.0001419019373301903	0.0008202829072977441	-0.0001870135380040456	-9.044334673660438e-05	0.000526700894162843	0.006151455467813389	-0.0001781175152738851	-3.668671324110564e-06	7.796042708399305e-05	-0.0004829233463075016	-0.00123567054405721	-3.714341425703949e-06	-0.0002987846295804598	0.003104082838634912	0.0002976366432635788	-0.00191492450236801	0.001627297540439426	8.247284148516954e-05	5.695443958822954e-05	-0.000335364830655258	-6.450469701629184e-05	0.001001252793547391	0.0001075181084802159	3.530893064712553e-05	-1.237983265721813e-05	9.633612009982471e-05	2.563178869889332e-12	-1.373022761703726e-12
