PathFileType	4	(X/Y/Z)	tour_sanitized_100ms.trc
DataRate	CameraRate	NumFrames	NumMarkers	Units	OrigDataRate	OrigDataStartFrame	OrigNumFrames
360.00	360.00	37	33	m	360.00	1	37
Frame#	Time	WaistLeft			WaistRight			WaistLBack			WaistRBack			BackTop			BackLeft			BackRight			HeadTop			HeadFront			HeadSide			LShoulderTop			LShoulderBack			LElbowOut			LUArmHigh			LWristTop			RShoulderBack			RElbowOut			RUArmHigh			RWristTop			LKneeOut			LToeIn			LToeOut			LAnkleOut			RKneeOut			RToeIn			RToeOut			RAnkleOut			Marker_2:2:1			Marker_2:2:2			Marker_2:2:3			Marker_3:3:1			Marker_3:3:2			Marker_3:3:3		
		X1	Y1	Z1	X2	Y2	Z2	X3	Y3	Z3	X4	Y4	Z4	X5	Y5	Z5	X6	Y6	Z6	X7	Y7	Z7	X8	Y8	Z8	X9	Y9	Z9	X10	Y10	Z10	X11	Y11	Z11	X12	Y12	Z12	X13	Y13	Z13	X14	Y14	Z14	X15	Y15	Z15	X16	Y16	Z16	X17	Y17	Z17	X18	Y18	Z18	X19	Y19	Z19	X20	Y20	Z20	X21	Y21	Z21	X22	Y22	Z22	X23	Y23	Z23	X24	Y24	Z24	X25	Y25	Z25	X26	Y26	Z26	X27	Y27	Z27	X28	Y28	Z28	X29	Y29	Z29	X30	Y30	Z30	X31	Y31	Z31	X32	Y32	Z32	X33	Y33	Z33

1	0.000000000	1.097355	1.006788	0.124538	1.089030	1.022471	-0.219882	1.231331	1.060967	0.035352	1.234561	1.062557	-0.133804	0.917241	1.497592	-0.094018	1.054614	1.385130	0.017381	1.047433	1.360760	-0.163135	0.652929	1.666458	-0.098437	0.574894	1.531828	-0.094415	0.695464	1.606363	0.013328	0.813235	1.427428	0.118288	0.962813	1.486545	0.065749	0.939441	1.106696	0.129754	0.949079	1.266459	0.173430	0.833863	0.865529	0.060262	0.921961	1.434505	-0.231578	0.902653	1.020821	-0.182321	0.908206	1.175159	-0.267382	0.794134	0.799024	-0.062400	1.092899	0.510247	0.228049	0.987291	0.051840	0.226015	1.021415	0.043539	0.327024	1.165770	0.097668	0.270679	1.045758	0.528341	-0.297611	0.981318	0.036333	-0.288875	0.979280	0.038909	-0.406496	1.117883	0.118113	-0.377877	0.124871	0.049426	0.046689	0.035568	0.072974	0.045298	0.041735	0.049740	-0.000876	0.621161	0.521205	0.064629	0.669163	0.574404	0.028137	0.706025	0.607651	0.059954
2	0.002777778	1.097402	1.006799	0.124521	1.089080	1.022453	-0.219907	1.231387	1.060967	0.035328	1.234617	1.062531	-0.133822	0.917290	1.497577	-0.094024	1.054678	1.385123	0.017361	1.047474	1.360742	-0.163144	0.652996	1.666458	-0.098423	0.574942	1.531826	-0.094422	0.695524	1.606363	0.013331	0.813297	1.427419	0.118268	0.962870	1.486529	0.065748	0.939436	1.106676	0.129677	0.949102	1.266429	0.173383	0.833866	0.865514	0.060220	0.921999	1.434496	-0.231591	0.902669	1.020798	-0.182305	0.908252	1.175143	-0.267411	0.794170	0.799025	-0.062434	1.092919	0.510256	0.228055	0.987302	0.051863	0.226027	1.021406	0.043534	0.327010	1.165776	0.097666	0.270689	1.045749	0.528330	-0.297632	0.981330	0.036326	-0.288870	0.979291	0.038894	-0.406496	1.117888	0.118106	-0.377892	0.124868	0.049412	0.046622	0.035567	0.072977	0.045250	0.041719	0.049738	-0.000934	0.621189	0.521195	0.064544	0.669176	0.574391	0.028069	0.706040	0.607644	0.059892
3	0.005555556	1.097442	1.006786	0.124481	1.089132	1.022444	-0.219921	1.231440	1.060960	0.035301	1.234681	1.062531	-0.133854	0.917358	1.497589	-0.094042	1.054740	1.385116	0.017337	1.047513	1.360743	-0.163168	0.653068	1.666463	-0.098423	0.574989	1.531845	-0.094424	0.695575	1.606359	0.013328	0.813325	1.427397	0.118262	0.962927	1.486514	0.065720	0.939460	1.106666	0.129626	0.949141	1.266401	0.173367	0.833876	0.865502	0.060218	0.922042	1.434497	-0.231612	0.902695	1.020803	-0.182305	0.908273	1.175134	-0.267410	0.794216	0.799003	-0.062436	1.092958	0.510258	0.228039	0.987323	0.051869	0.226040	1.021417	0.043530	0.327031	1.165789	0.097649	0.270686	1.045793	0.528356	-0.297643	0.981325	0.036321	-0.288858	0.979294	0.038902	-0.406489	1.117908	0.118113	-0.377882	0.124853	0.049415	0.046543	0.035573	0.072984	0.045184	0.041710	0.049741	-0.000994	0.621205	0.521177	0.064468	0.669191	0.574373	0.028005	0.706059	0.607628	0.059836
4	0.008333333	1.097490	1.006775	0.124449	1.089177	1.022434	-0.219960	1.231465	1.060946	0.035272	1.234724	1.062505	-0.133872	0.917376	1.497564	-0.094059	1.054773	1.385093	0.017304	1.047540	1.360734	-0.163187	0.653114	1.666455	-0.098413	0.575043	1.531827	-0.094420	0.695640	1.606348	0.013341	0.813394	1.427385	0.118226	0.962982	1.486496	0.065719	0.939478	1.106662	0.129582	0.949164	1.266353	0.173337	0.833898	0.865474	0.060176	0.922084	1.434479	-0.231634	0.902702	1.020815	-0.182320	0.908280	1.175120	-0.267440	0.794249	0.798998	-0.062480	1.092992	0.510265	0.228034	0.987327	0.051863	0.226033	1.021430	0.043533	0.327017	1.165785	0.097644	0.270678	1.045761	0.528343	-0.297656	0.981330	0.036325	-0.288868	0.979289	0.038894	-0.406499	1.117912	0.118141	-0.377906	0.124858	0.049417	0.046482	0.035562	0.072984	0.045100	0.041688	0.049745	-0.001063	0.621231	0.521169	0.064432	0.669185	0.574374	0.027951	0.706037	0.607604	0.059765
5	0.011111111	1.097524	1.006776	0.124403	1.089251	1.022400	-0.219980	1.231528	1.060943	0.035246	1.234781	1.062474	-0.133913	0.917437	1.497554	-0.094067	1.054824	1.385079	0.017281	1.047605	1.360747	-0.163214	0.653182	1.666448	-0.098409	0.575086	1.531847	-0.094440	0.695680	1.606336	0.013336	0.813470	1.427374	0.118225	0.963044	1.486467	0.065707	0.939477	1.106630	0.129540	0.949200	1.266318	0.173314	0.833906	0.865464	0.060151	0.922127	1.434483	-0.231649	0.902734	1.020829	-0.182322	0.908293	1.175084	-0.267433	0.794284	0.798990	-0.062495	1.093019	0.510251	0.228026	0.987297	0.051838	0.226022	1.021430	0.043533	0.327016	1.165804	0.097638	0.270682	1.045792	0.528350	-0.297694	0.981315	0.036326	-0.288870	0.979284	0.038891	-0.406492	1.117899	0.118132	-0.377906	0.124829	0.049428	0.046378	0.035566	0.072970	0.045014	0.041880	0.049731	-0.001039	0.621242	0.521170	0.064336	0.669179	0.574361	0.027884	0.706051	0.607589	0.059690
6	0.013888889	1.097562	1.006760	0.124387	1.089310	1.022390	-0.220007	1.231575	1.060945	0.035216	1.234828	1.062471	-0.133934	0.917482	1.497538	-0.094075	1.054858	1.385070	0.017261	1.047632	1.360724	-0.163237	0.653238	1.666454	-0.098414	0.575139	1.531843	-0.094437	0.695723	1.606309	0.013332	0.813539	1.427364	0.118200	0.963109	1.486467	0.065691	0.939489	1.106631	0.129514	0.949237	1.266290	0.173278	0.833937	0.865442	0.060119	0.922166	1.434471	-0.231656	0.902729	1.020809	-0.182337	0.908325	1.175098	-0.267460	0.794306	0.798975	-0.062523	1.093053	0.510251	0.228028	0.987320	0.051847	0.226022	1.021432	0.043524	0.327036	1.165808	0.097647	0.270687	1.045797	0.528342	-0.297709	0.981332	0.036330	-0.288860	0.979298	0.038887	-0.406488	1.117907	0.118131	-0.377884	0.124816	0.049405	0.046277	0.035537	0.072969	0.044927	0.041647	0.049753	-0.001250	0.621240	0.521143	0.064284	0.669177	0.574342	0.027825	0.706041	0.607579	0.059644
7	0.016666667	1.097593	1.006745	0.124361	1.089385	1.022382	-0.220033	1.231630	1.060935	0.035203	1.234875	1.062429	-0.133965	0.917506	1.497522	-0.094095	1.054918	1.385056	0.017246	1.047692	1.360716	-0.163262	0.653300	1.666441	-0.098400	0.575198	1.531834	-0.094447	0.695769	1.606308	0.013336	0.813614	1.427339	0.118189	0.963155	1.486439	0.065688	0.939497	1.106616	0.129448	0.949278	1.266264	0.173239	0.833923	0.865420	0.060077	0.922199	1.434460	-0.231674	0.902751	1.020789	-0.182336	0.908341	1.175077	-0.267485	0.794354	0.798952	-0.062551	1.093096	0.510270	0.228017	0.987327	0.051849	0.226022	1.021418	0.043512	0.327021	1.165820	0.097621	0.270685	1.045787	0.528337	-0.297732	0.981318	0.036329	-0.288864	0.979299	0.038884	-0.406486	1.117922	0.118131	-0.377914	0.124791	0.049386	0.046172	0.035544	0.072972	0.044831	0.041864	0.049739	-0.001215	0.621240	0.521137	0.064199	0.669157	0.574329	0.027758	0.706047	0.607558	0.059563
8	0.019444444	1.097638	1.006732	0.124326	1.089430	1.022365	-0.220057	1.231679	1.060926	0.035173	1.234944	1.062417	-0.133974	0.917578	1.497524	-0.094090	1.054968	1.385042	0.017223	1.047750	1.360712	-0.163299	0.653369	1.666440	-0.098398	0.575273	1.531823	-0.094462	0.695837	1.606285	0.013341	0.813650	1.427332	0.118170	0.963230	1.486431	0.065674	0.939514	1.106604	0.129409	0.949321	1.266237	0.173202	0.833942	0.865390	0.060035	0.922244	1.434457	-0.231679	0.902762	1.020796	-0.182330	0.908367	1.175053	-0.267489	0.794407	0.798938	-0.062592	1.093120	0.510251	0.228006	0.987342	0.051856	0.226030	1.021438	0.043519	0.327033	1.165851	0.097627	0.270685	1.045821	0.528326	-0.297744	0.981336	0.036318	-0.288865	0.979317	0.038873	-0.406471	1.117944	0.118137	-0.377884	0.124782	0.049399	0.046062	0.035533	0.072974	0.044719	0.041629	0.049727	-0.001461	0.621226	0.521119	0.064135	0.669194	0.574338	0.027681	0.706077	0.607514	0.059507
9	0.022222222	1.097655	1.006700	0.124299	1.089491	1.022345	-0.220082	1.231725	1.060910	0.035166	1.235002	1.062399	-0.134000	0.917612	1.497502	-0.094100	1.054990	1.385013	0.017196	1.047784	1.360697	-0.163310	0.653400	1.666432	-0.098404	0.575294	1.531816	-0.094489	0.695865	1.606279	0.013336	0.813711	1.427309	0.118146	0.963287	1.486411	0.065674	0.939496	1.106561	0.129353	0.949365	1.266192	0.173177	0.833935	0.865377	0.059989	0.922257	1.434434	-0.231702	0.902764	1.020788	-0.182343	0.908382	1.175037	-0.267509	0.794443	0.798920	-0.062628	1.093166	0.510248	0.228003	0.987338	0.051842	0.226024	1.021446	0.043499	0.327027	1.165860	0.097636	0.270697	1.045811	0.528315	-0.297764	0.981326	0.036302	-0.288876	0.979312	0.038867	-0.406477	1.117955	0.118162	-0.377919	0.124755	0.049388	0.045953	0.035530	0.072981	0.044601	0.041580	0.049708	-0.001577	0.621233	0.521096	0.064049	0.669156	0.574330	0.027619	0.706057	0.607519	0.059421
10	0.025000000	1.097697	1.006705	0.124252	1.089558	1.022316	-0.220110	1.231780	1.060912	0.035134	1.235050	1.062384	-0.134015	0.917696	1.497503	-0.094108	1.055062	1.385006	0.017171	1.047835	1.360684	-0.163351	0.653488	1.666430	-0.098391	0.575346	1.531825	-0.094496	0.695945	1.606257	0.013334	0.813775	1.427285	0.118119	0.963362	1.486395	0.065662	0.939515	1.106559	0.129315	0.949404	1.266146	0.173138	0.833962	0.865358	0.059967	0.922304	1.434432	-0.231715	0.902793	1.020764	-0.182318	0.908380	1.175009	-0.267509	0.794464	0.798919	-0.062662	1.093201	0.510244	0.227996	0.987370	0.051842	0.226033	1.021445	0.043493	0.327030	1.165854	0.097603	0.270693	1.045800	0.528310	-0.297769	0.981335	0.036294	-0.288875	0.979312	0.038862	-0.406472	1.117953	0.118147	-0.377908	0.124733	0.049386	0.045817	0.035526	0.072996	0.044475	0.041555	0.049711	-0.001686	0.621225	0.521102	0.063960	0.669159	0.574316	0.027540	0.706048	0.607491	0.059325
11	0.027777778	1.097725	1.006686	0.124223	1.089610	1.022317	-0.220136	1.231823	1.060901	0.035099	1.235094	1.062360	-0.134030	0.917717	1.497480	-0.094119	1.055106	1.385001	0.017142	1.047892	1.360680	-0.163372	0.653526	1.666411	-0.098396	0.575405	1.531815	-0.094496	0.695989	1.606237	0.013329	0.813839	1.427272	0.118114	0.963408	1.486367	0.065648	0.939512	1.106535	0.129275	0.949445	1.266113	0.173095	0.833964	0.865326	0.059910	0.922322	1.434418	-0.231722	0.902822	1.020758	-0.182366	0.908420	1.174996	-0.267540	0.794482	0.798908	-0.062691	1.093230	0.510231	0.227981	0.987364	0.051837	0.226039	1.021444	0.043477	0.327035	1.165860	0.097606	0.270696	1.045819	0.528328	-0.297806	0.981328	0.036297	-0.288878	0.979311	0.038833	-0.406468	1.117957	0.118144	-0.377916	0.124702	0.049367	0.045658	0.035486	0.072978	0.044326	0.041515	0.049720	-0.001833	0.621214	0.521088	0.063876	0.669166	0.574338	0.027444	0.706051	0.607488	0.059260
12	0.030555556	1.097758	1.006655	0.124195	1.089692	1.022298	-0.220162	1.231858	1.060885	0.035090	1.235154	1.062337	-0.134047	0.917774	1.497456	-0.094135	1.055161	1.384978	0.017120	1.047932	1.360659	-0.163407	0.653577	1.666410	-0.098384	0.575454	1.531791	-0.094508	0.696024	1.606218	0.013329	0.813870	1.427243	0.118080	0.963460	1.486331	0.065629	0.939503	1.106519	0.129218	0.949478	1.266067	0.173056	0.833953	0.865308	0.059844	0.922365	1.434407	-0.231733	0.902840	1.020748	-0.182367	0.908437	1.174980	-0.267568	0.794544	0.798896	-0.062706	1.093266	0.510234	0.227987	0.987353	0.051856	0.226038	1.021433	0.043474	0.327041	1.165878	0.097604	0.270706	1.045822	0.528323	-0.297824	0.981303	0.036284	-0.288884	0.979331	0.038838	-0.406478	1.117951	0.118113	-0.377897	0.124686	0.049359	0.045499	0.035448	0.072987	0.044168	0.041742	0.049684	-0.001818	0.621196	0.521087	0.063761	0.669171	0.574290	0.027337	0.706011	0.607458	0.059150
13	0.033333333	1.097798	1.006659	0.124157	1.089727	1.022278	-0.220209	1.231909	1.060874	0.035076	1.235211	1.062332	-0.134059	0.917814	1.497449	-0.094147	1.055211	1.384970	0.017089	1.047984	1.360663	-0.163443	0.653638	1.666404	-0.098396	0.575498	1.531790	-0.094535	0.696069	1.606206	0.013328	0.813933	1.427227	0.118062	0.963536	1.486326	0.065606	0.939526	1.106513	0.129168	0.949525	1.266042	0.173024	0.833972	0.865271	0.059791	0.922388	1.434401	-0.231761	0.902849	1.020772	-0.182386	0.908428	1.174967	-0.267576	0.794549	0.798874	-0.062761	1.093300	0.510227	0.227979	0.987368	0.051842	0.226072	1.021446	0.043457	0.327040	1.165880	0.097589	0.270711	1.045821	0.528304	-0.297851	0.981320	0.036282	-0.288888	0.979317	0.038822	-0.406470	1.117936	0.118100	-0.377907	0.124660	0.049356	0.045325	0.035389	0.072999	0.043998	0.041445	0.049690	-0.002142	0.621159	0.521089	0.063652	0.669133	0.574301	0.027247	0.705998	0.607455	0.059053
14	0.036111111	1.097812	1.006643	0.124124	1.089800	1.022270	-0.220249	1.231957	1.060867	0.035069	1.235282	1.062324	-0.134070	0.917871	1.497430	-0.094147	1.055265	1.384947	0.017059	1.048041	1.360658	-0.163465	0.653679	1.666384	-0.098374	0.575540	1.531799	-0.094531	0.696109	1.606189	0.013332	0.813970	1.427208	0.118048	0.963593	1.486294	0.065586	0.939522	1.106474	0.129121	0.949553	1.265989	0.172987	0.833952	0.865251	0.059727	0.922439	1.434397	-0.231774	0.902896	1.020765	-0.182400	0.908477	1.174972	-0.267599	0.794599	0.798857	-0.062801	1.093329	0.510225	0.227975	0.987365	0.051835	0.226052	1.021442	0.043458	0.327043	1.165884	0.097593	0.270717	1.045844	0.528290	-0.297868	0.981304	0.036289	-0.288886	0.979333	0.038805	-0.406464	1.117932	0.118063	-0.377902	0.124626	0.049371	0.045137	0.035364	0.073003	0.043824	0.041389	0.049701	-0.002299	0.621146	0.521095	0.063527	0.669109	0.574309	0.027175	0.705990	0.607455	0.058972
15	0.038888889	1.097862	1.006645	0.124096	1.089859	1.022240	-0.220279	1.232004	1.060860	0.035037	1.235353	1.062314	-0.134090	0.917938	1.497440	-0.094163	1.055326	1.384946	0.017036	1.048104	1.360658	-0.163509	0.653748	1.666393	-0.098372	0.575564	1.531786	-0.094547	0.696161	1.606182	0.013329	0.814027	1.427210	0.118030	0.963645	1.486286	0.065567	0.939559	1.106462	0.129053	0.949590	1.265965	0.172941	0.833974	0.865224	0.059690	0.922467	1.434401	-0.231790	0.902942	1.020756	-0.182407	0.908509	1.174974	-0.267626	0.794637	0.798870	-0.062835	1.093345	0.510211	0.227962	0.987382	0.051845	0.226062	1.021438	0.043451	0.327048	1.165903	0.097590	0.270727	1.045865	0.528295	-0.297904	0.981307	0.036288	-0.288881	0.979327	0.038791	-0.406470	1.117947	0.118078	-0.377916	0.124620	0.049375	0.044950	0.035319	0.072993	0.043638	0.041347	0.049702	-0.002473	0.621098	0.521089	0.063388	0.669137	0.574305	0.027017	0.705987	0.607427	0.058851
16	0.041666667	1.097878	1.006630	0.124068	1.089929	1.022245	-0.220304	1.232043	1.060848	0.035014	1.235419	1.062311	-0.134106	0.917964	1.497430	-0.094175	1.055370	1.384924	0.017011	1.048122	1.360636	-0.163551	0.653765	1.666389	-0.098374	0.575602	1.531779	-0.094552	0.696198	1.606166	0.013322	0.814081	1.427186	0.118008	0.963701	1.486255	0.065538	0.939546	1.106444	0.128971	0.949636	1.265945	0.172906	0.833984	0.865199	0.059614	0.922500	1.434400	-0.231811	0.902932	1.020758	-0.182439	0.908495	1.174961	-0.267651	0.794654	0.798859	-0.062882	1.093367	0.510207	0.227948	0.987378	0.051832	0.226072	1.021440	0.043461	0.327038	1.165896	0.097578	0.270722	1.045870	0.528288	-0.297934	0.981295	0.036270	-0.288909	0.979319	0.038798	-0.406485	1.117935	0.118061	-0.377925	0.124575	0.049401	0.044717	0.035252	0.073015	0.043409	0.041279	0.049717	-0.002662	0.621087	0.521105	0.063268	0.669069	0.574293	0.026883	0.705929	0.607430	0.058719
17	0.044444444	1.097904	1.006635	0.124040	1.090014	1.022233	-0.220358	1.232092	1.060846	0.034991	1.235468	1.062296	-0.134128	0.918009	1.497425	-0.094220	1.055414	1.384905	0.016983	1.048190	1.360640	-0.163603	0.653827	1.666395	-0.098380	0.575667	1.531776	-0.094559	0.696222	1.606138	0.013318	0.814151	1.427169	0.117965	0.963758	1.486228	0.065510	0.939555	1.106417	0.128917	0.949647	1.265898	0.172860	0.833979	0.865198	0.059547	0.922542	1.434404	-0.231816	0.902995	1.020783	-0.182468	0.908533	1.174988	-0.267682	0.794695	0.798865	-0.062907	1.093405	0.510221	0.227940	0.987373	0.051847	0.226073	1.021439	0.043454	0.327041	1.165884	0.097548	0.270737	1.045883	0.528304	-0.297968	0.981294	0.036281	-0.288899	0.979332	0.038808	-0.406481	1.117946	0.118069	-0.377915	0.124576	0.049427	0.044512	0.035175	0.073039	0.043210	0.041229	0.049742	-0.002867	0.621064	0.521092	0.063117	0.669083	0.574299	0.026704	0.705930	0.607419	0.058604
18	0.047222222	1.097939	1.006617	0.123998	1.090058	1.022228	-0.220409	1.232138	1.060824	0.034966	1.235533	1.062285	-0.134161	0.918075	1.497424	-0.094212	1.055458	1.384887	0.016950	1.048217	1.360632	-0.163636	0.653866	1.666390	-0.098374	0.575700	1.531773	-0.094566	0.696285	1.606133	0.013321	0.814197	1.427150	0.117960	0.963804	1.486213	0.065500	0.939587	1.106403	0.128879	0.949689	1.265871	0.172814	0.833980	0.865186	0.059484	0.922561	1.434417	-0.231847	0.902981	1.020795	-0.182495	0.908558	1.174987	-0.267732	0.794704	0.798852	-0.062959	1.093414	0.510215	0.227942	0.987351	0.051839	0.226064	1.021431	0.043462	0.327059	1.165888	0.097571	0.270729	1.045885	0.528295	-0.297985	0.981294	0.036295	-0.288890	0.979319	0.038821	-0.406480	1.117921	0.118045	-0.377926	0.124515	0.049466	0.044264	0.035067	0.073055	0.042976	0.041171	0.049768	-0.003076	0.621014	0.521105	0.062938	0.669046	0.574301	0.026539	0.705869	0.607430	0.058470
19	0.050000000	1.097959	1.006606	0.123965	1.090140	1.022241	-0.220454	1.232185	1.060811	0.034946	1.235601	1.062275	-0.134166	0.918111	1.497416	-0.094239	1.055519	1.384860	0.016920	1.048268	1.360623	-0.163668	0.653912	1.666384	-0.098372	0.575728	1.531768	-0.094582	0.696314	1.606113	0.013306	0.814244	1.427134	0.117921	0.963860	1.486191	0.065483	0.939609	1.106381	0.128787	0.949742	1.265837	0.172761	0.833985	0.865155	0.059410	0.922612	1.434420	-0.231854	0.903013	1.020805	-0.182514	0.908580	1.175017	-0.267773	0.794726	0.798866	-0.062993	1.093433	0.510215	0.227913	0.987366	0.051850	0.226054	1.021416	0.043462	0.327055	1.165874	0.097539	0.270738	1.045899	0.528309	-0.298030	0.981281	0.036287	-0.288892	0.979318	0.038826	-0.406488	1.117935	0.118059	-0.377962	0.124466	0.049510	0.044017	0.034983	0.073076	0.042757	0.041134	0.049814	-0.003311	0.620991	0.521124	0.062775	0.669035	0.574296	0.026360	0.705839	0.607418	0.058317
20	0.052777778	1.097989	1.006595	0.123934	1.090213	1.022245	-0.220512	1.232214	1.060796	0.034911	1.235654	1.062244	-0.134209	0.918171	1.497418	-0.094256	1.055542	1.384833	0.016875	1.048302	1.360609	-0.163724	0.653960	1.666383	-0.098363	0.575774	1.531761	-0.094583	0.696374	1.606108	0.013315	0.814311	1.427120	0.117910	0.963899	1.486166	0.065464	0.939627	1.106360	0.128718	0.949749	1.265792	0.172715	0.834020	0.865134	0.059328	0.922650	1.434439	-0.231892	0.903027	1.020847	-0.182555	0.908570	1.175035	-0.267803	0.794748	0.798887	-0.063060	1.093468	0.510219	0.227918	0.987362	0.051832	0.226058	1.021428	0.043464	0.327060	1.165869	0.097540	0.270743	1.045910	0.528314	-0.298065	0.981305	0.036292	-0.288883	0.979305	0.038820	-0.406493	1.117926	0.118039	-0.377938	0.124404	0.049541	0.043762	0.034886	0.073114	0.042531	0.041060	0.049841	-0.003573	0.620952	0.521110	0.062612	0.669029	0.574314	0.026183	0.705786	0.607441	0.058163
21	0.055555556	1.098043	1.006599	0.123894	1.090294	1.022251	-0.220560	1.232265	1.060775	0.034897	1.235726	1.062241	-0.134225	0.918215	1.497408	-0.094276	1.055612	1.384821	0.016850	1.048358	1.360617	-0.163756	0.654014	1.666381	-0.098363	0.575847	1.531756	-0.094579	0.696413	1.606091	0.013317	0.814359	1.427096	0.117873	0.963980	1.486144	0.065435	0.939618	1.106320	0.128631	0.949799	1.265766	0.172672	0.834015	0.865113	0.059232	0.922699	1.434450	-0.231904	0.903055	1.020861	-0.182577	0.908604	1.175078	-0.267855	0.794784	0.798906	-0.063106	1.093481	0.510221	0.227906	0.987359	0.051845	0.226060	1.021423	0.043475	0.327055	1.165866	0.097533	0.270752	1.045925	0.528331	-0.298088	0.981296	0.036299	-0.288893	0.979314	0.038839	-0.406480	1.117923	0.118048	-0.377957	0.124373	0.049577	0.043474	0.034826	0.073155	0.042315	0.041014	0.049877	-0.003866	0.620925	0.521110	0.062423	0.669002	0.574319	0.026024	0.705742	0.607437	0.057996
22	0.058333333	1.098053	1.006584	0.123854	1.090389	1.022267	-0.220610	1.232312	1.060764	0.034876	1.235805	1.062235	-0.134256	0.918278	1.497413	-0.094279	1.055666	1.384795	0.016809	1.048403	1.360615	-0.163810	0.654073	1.666381	-0.098358	0.575895	1.531765	-0.094596	0.696462	1.606072	0.013302	0.814425	1.427088	0.117858	0.964030	1.486131	0.065412	0.939629	1.106292	0.128532	0.949858	1.265744	0.172627	0.834040	0.865092	0.059159	0.922740	1.434470	-0.231927	0.903095	1.020907	-0.182591	0.908624	1.175089	-0.267889	0.794801	0.798930	-0.063153	1.093505	0.510221	0.227901	0.987364	0.051843	0.226070	1.021447	0.043474	0.327060	1.165887	0.097537	0.270760	1.045931	0.528341	-0.298117	0.981306	0.036301	-0.288880	0.979306	0.038852	-0.406491	1.117935	0.118050	-0.377948	0.124290	0.049637	0.043159	0.034765	0.073191	0.042075	0.040967	0.049923	-0.004167	0.620863	0.521110	0.062225	0.668992	0.574331	0.025845	0.705747	0.607443	0.057853
23	0.061111111	1.098110	1.006585	0.123821	1.090471	1.022279	-0.220672	1.232339	1.060746	0.034841	1.235859	1.062209	-0.134291	0.918322	1.497398	-0.094305	1.055714	1.384780	0.016774	1.048466	1.360618	-0.163856	0.654107	1.666376	-0.098356	0.575931	1.531737	-0.094598	0.696499	1.606058	0.013301	0.814485	1.427069	0.117834	0.964093	1.486106	0.065391	0.939682	1.106268	0.128477	0.949870	1.265694	0.172584	0.834027	0.865079	0.059062	0.922788	1.434485	-0.231961	0.903108	1.020936	-0.182639	0.908628	1.175127	-0.267954	0.794854	0.798959	-0.063223	1.093546	0.510235	0.227894	0.987386	0.051866	0.226066	1.021439	0.043483	0.327059	1.165874	0.097535	0.270753	1.045911	0.528324	-0.298115	0.981309	0.036309	-0.288879	0.979302	0.038849	-0.406487	1.117924	0.118054	-0.377970	0.124219	0.049722	0.042833	0.034727	0.073227	0.041775	0.040933	0.049963	-0.004511	0.620824	0.521099	0.062022	0.668945	0.574352	0.025652	0.705726	0.607426	0.057659
24	0.063888889	1.098152	1.006575	0.123779	1.090560	1.022297	-0.220714	1.232378	1.060723	0.034800	1.235940	1.062201	-0.134324	0.918356	1.497383	-0.094308	1.055746	1.384742	0.016730	1.048522	1.360614	-0.163907	0.654158	1.666380	-0.098352	0.576006	1.531728	-0.094620	0.696525	1.606026	0.013284	0.814535	1.427048	0.117791	0.964136	1.486078	0.065359	0.939690	1.106211	0.128388	0.949901	1.265646	0.172528	0.834044	0.865052	0.058988	0.922855	1.434512	-0.231985	0.903111	1.020943	-0.182673	0.908655	1.175169	-0.268006	0.794887	0.798975	-0.063278	1.093575	0.510234	0.227889	0.987376	0.051877	0.226065	1.021438	0.043478	0.327061	1.165873	0.097526	0.270757	1.045943	0.528352	-0.298158	0.981314	0.036320	-0.288887	0.979315	0.038859	-0.406484	1.117943	0.118092	-0.377979	0.124164	0.049754	0.042492	0.034669	0.073307	0.041426	0.040902	0.050030	-0.004899	0.620794	0.521115	0.061798	0.668987	0.574517	0.025449	0.705678	0.607415	0.057507
25	0.066666667	1.098199	1.006566	0.123745	1.090646	1.022299	-0.220758	1.232421	1.060720	0.034780	1.236005	1.062179	-0.134367	0.918406	1.497385	-0.094337	1.055801	1.384723	0.016687	1.048565	1.360613	-0.163966	0.654212	1.666374	-0.098347	0.576052	1.531744	-0.094621	0.696616	1.606015	0.013300	0.814645	1.427028	0.117782	0.964183	1.486049	0.065343	0.939720	1.106211	0.128316	0.949952	1.265615	0.172477	0.834051	0.865018	0.058903	0.922894	1.434536	-0.232013	0.903154	1.021026	-0.182727	0.908696	1.175217	-0.268063	0.794907	0.799000	-0.063340	1.093599	0.510249	0.227874	0.987378	0.051876	0.226066	1.021462	0.043500	0.327075	1.165878	0.097539	0.270764	1.045931	0.528356	-0.298185	0.981341	0.036335	-0.288876	0.979292	0.038909	-0.406498	1.117934	0.118094	-0.377978	0.124088	0.049764	0.042120	0.034597	0.073368	0.041019	0.040837	0.050080	-0.005292	0.620742	0.521112	0.061551	0.668881	0.574397	0.025255	0.705662	0.607439	0.057347
26	0.069444444	1.098242	1.006577	0.123702	1.090731	1.022314	-0.220828	1.232462	1.060693	0.034761	1.236077	1.062155	-0.134390	0.918442	1.497366	-0.094350	1.055860	1.384701	0.016652	1.048616	1.360610	-0.164005	0.654259	1.666374	-0.098357	0.576125	1.531731	-0.094618	0.696674	1.606006	0.013295	0.814694	1.426998	0.117763	0.964256	1.486030	0.065307	0.939748	1.106166	0.128224	0.949991	1.265567	0.172426	0.834054	0.865002	0.058793	0.922961	1.434554	-0.232032	0.903179	1.021056	-0.182744	0.908709	1.175243	-0.268116	0.794936	0.799040	-0.063427	1.093638	0.510263	0.227872	0.987365	0.051880	0.226064	1.021458	0.043503	0.327074	1.165883	0.097531	0.270761	1.045957	0.528376	-0.298215	0.981314	0.036330	-0.288885	0.979313	0.038907	-0.406483	1.117953	0.118121	-0.377989	0.124009	0.049774	0.041704	0.034528	0.073429	0.040596	0.040763	0.050149	-0.005727	0.620692	0.521135	0.061316	0.668854	0.574445	0.025076	0.705641	0.607450	0.057161
27	0.072222222	1.098298	1.006577	0.123659	1.090810	1.022293	-0.220866	1.232499	1.060686	0.034728	1.236151	1.062127	-0.134432	0.918505	1.497362	-0.094359	1.055909	1.384678	0.016626	1.048686	1.360618	-0.164064	0.654326	1.666373	-0.098347	0.576205	1.531741	-0.094641	0.696748	1.606001	0.013293	0.814760	1.426991	0.117749	0.964310	1.486020	0.065294	0.939754	1.106143	0.128136	0.950037	1.265540	0.172373	0.834070	0.864982	0.058695	0.922995	1.434572	-0.232065	0.903212	1.021126	-0.182780	0.908734	1.175280	-0.268154	0.794985	0.799062	-0.063512	1.093679	0.510258	0.227862	0.987402	0.051882	0.226088	1.021467	0.043514	0.327080	1.165900	0.097547	0.270763	1.045965	0.528376	-0.298236	0.981344	0.036341	-0.288878	0.979309	0.038911	-0.406483	1.117945	0.118120	-0.378000	0.123926	0.049820	0.041273	0.034469	0.073470	0.040114	0.040677	0.050246	-0.006194	0.620620	0.521147	0.061035	0.668805	0.574470	0.024889	0.705596	0.607461	0.056974
28	0.075000000	1.098336	1.006558	0.123633	1.090871	1.022295	-0.220910	1.232537	1.060667	0.034695	1.236221	1.062116	-0.134472	0.918544	1.497354	-0.094384	1.055961	1.384660	0.016571	1.048728	1.360618	-0.164113	0.654369	1.666379	-0.098350	0.576249	1.531734	-0.094649	0.696777	1.605965	0.013283	0.814818	1.426969	0.117707	0.964348	1.485984	0.065262	0.939774	1.106125	0.128060	0.950088	1.265485	0.172315	0.834056	0.864961	0.058575	0.923054	1.434592	-0.232090	0.903212	1.021161	-0.182863	0.908719	1.175314	-0.268210	0.795003	0.799100	-0.063583	1.093697	0.510266	0.227849	0.987393	0.051898	0.226079	1.021480	0.043517	0.327075	1.165910	0.097559	0.270772	1.045966	0.528373	-0.298274	0.981360	0.036357	-0.288868	0.979316	0.038927	-0.406481	1.117949	0.118138	-0.378018	0.123832	0.049883	0.040814	0.034385	0.073500	0.039601	0.040564	0.050360	-0.006679	0.620591	0.521186	0.060782	0.668753	0.574482	0.024648	0.705545	0.607436	0.056751
29	0.077777778	1.098374	1.006567	0.123572	1.090993	1.022297	-0.220969	1.232575	1.060647	0.034652	1.236297	1.062104	-0.134502	0.918598	1.497332	-0.094403	1.056009	1.384639	0.016539	1.048791	1.360613	-0.164165	0.654430	1.666372	-0.098341	0.576285	1.531722	-0.094681	0.696817	1.605955	0.013279	0.814901	1.426941	0.117698	0.964400	1.485957	0.065236	0.939804	1.106073	0.127969	0.950135	1.265443	0.172239	0.834033	0.864931	0.058467	0.923125	1.434613	-0.232117	0.903239	1.021212	-0.182884	0.908758	1.175353	-0.268265	0.795071	0.799132	-0.063704	1.093747	0.510275	0.227843	0.987405	0.051897	0.226079	1.021472	0.043516	0.327076	1.165901	0.097530	0.270764	1.045981	0.528398	-0.298307	0.981348	0.036346	-0.288884	0.979327	0.038929	-0.406488	1.117965	0.118154	-0.378011	0.123769	0.049975	0.040292	0.034321	0.073523	0.039058	0.040403	0.050470	-0.007119	0.620579	0.521210	0.060460	0.668728	0.574529	0.024395	0.705488	0.607443	0.056521
30	0.080555556	1.098420	1.006567	0.123530	1.091075	1.022275	-0.221025	1.232603	1.060625	0.034642	1.236384	1.062089	-0.134552	0.918651	1.497330	-0.094422	1.056066	1.384616	0.016487	1.048863	1.360623	-0.164217	0.654467	1.666363	-0.098347	0.576335	1.531713	-0.094696	0.696875	1.605932	0.013269	0.814968	1.426911	0.117674	0.964456	1.485934	0.065215	0.939816	1.106057	0.127887	0.950182	1.265383	0.172176	0.834040	0.864900	0.058363	0.923183	1.434626	-0.232161	0.903234	1.021273	-0.182946	0.908755	1.175386	-0.268313	0.795139	0.799145	-0.063812	1.093783	0.510279	0.227837	0.987402	0.051903	0.226081	1.021487	0.043524	0.327087	1.165926	0.097541	0.270780	1.045978	0.528409	-0.298326	0.981341	0.036366	-0.288889	0.979304	0.038932	-0.406491	1.117945	0.118146	-0.378026	0.123702	0.050058	0.039694	0.034339	0.073505	0.038648	0.040248	0.050562	-0.007644	0.620540	0.521200	0.060166	0.668692	0.574575	0.024100	0.705441	0.607443	0.056294
31	0.083333333	1.098437	1.006536	0.123470	1.091166	1.022269	-0.221069	1.232650	1.060611	0.034614	1.236467	1.062073	-0.134584	0.918685	1.497293	-0.094436	1.056120	1.384580	0.016459	1.048921	1.360618	-0.164273	0.654511	1.666356	-0.098346	0.576404	1.531713	-0.094715	0.696914	1.605906	0.013258	0.815035	1.426887	0.117651	0.964503	1.485899	0.065184	0.939818	1.106006	0.127789	0.950245	1.265344	0.172128	0.834028	0.864858	0.058248	0.923269	1.434643	-0.232197	0.903259	1.021315	-0.182987	0.908793	1.175426	-0.268348	0.795212	0.799159	-0.063952	1.093828	0.510292	0.227829	0.987411	0.051911	0.226078	1.021483	0.043515	0.327086	1.165915	0.097540	0.270768	1.045980	0.528399	-0.298364	0.981341	0.036374	-0.288881	0.979317	0.038930	-0.406482	1.117965	0.118161	-0.378036	0.123594	0.050137	0.039124	0.034265	0.073594	0.038126	0.040129	0.050653	-0.008213	0.620488	0.521217	0.059792	0.668644	0.574582	0.023826	0.705359	0.607450	0.056050
32	0.086111111	1.098484	1.006548	0.123418	1.091264	1.022255	-0.221113	1.232675	1.060593	0.034569	1.236527	1.062038	-0.134638	0.918740	1.497295	-0.094477	1.056157	1.384554	0.016411	1.048957	1.360603	-0.164315	0.654557	1.666355	-0.098345	0.576464	1.531702	-0.094723	0.696974	1.605879	0.013261	0.815104	1.426844	0.117634	0.964558	1.485875	0.065160	0.939853	1.105992	0.127696	0.950299	1.265315	0.172062	0.834027	0.864846	0.058139	0.923338	1.434680	-0.232235	0.903272	1.021380	-0.183050	0.908806	1.175459	-0.268404	0.795252	0.799189	-0.064091	1.093844	0.510278	0.227816	0.987420	0.051907	0.226100	1.021491	0.043508	0.327091	1.165952	0.097541	0.270781	1.045983	0.528399	-0.298404	0.981357	0.036324	-0.288882	0.979301	0.038922	-0.406493	1.117952	0.118136	-0.378034	0.123484	0.050195	0.038477	0.034116	0.073745	0.037452	0.039987	0.050744	-0.008836	0.620439	0.521221	0.059446	0.668569	0.574611	0.023530	0.705329	0.607428	0.055792
33	0.088888889	1.098526	1.006540	0.123355	1.091322	1.022226	-0.221158	1.232725	1.060567	0.034542	1.236629	1.062025	-0.134676	0.918790	1.497288	-0.094480	1.056225	1.384542	0.016380	1.049031	1.360608	-0.164364	0.654610	1.666337	-0.098337	0.576502	1.531683	-0.094759	0.697036	1.605840	0.013252	0.815154	1.426800	0.117607	0.964627	1.485840	0.065137	0.939852	1.105948	0.127590	0.950333	1.265231	0.172003	0.834007	0.864798	0.058006	0.923407	1.434694	-0.232268	0.903264	1.021398	-0.183080	0.908787	1.175467	-0.268436	0.795346	0.799208	-0.064229	1.093889	0.510276	0.227813	0.987414	0.051899	0.226084	1.021479	0.043507	0.327095	1.165941	0.097514	0.270779	1.045985	0.528377	-0.298431	0.981337	0.036369	-0.288888	0.979311	0.038928	-0.406489	1.117975	0.118143	-0.378028	0.123378	0.050273	0.037784	0.033972	0.073814	0.036820	0.039866	0.050832	-0.009531	0.620413	0.521235	0.059089	0.668570	0.574607	0.023159	0.705284	0.607425	0.055510
34	0.091666667	1.098524	1.006483	0.123292	1.091426	1.022211	-0.221206	1.232756	1.060562	0.034510	1.236720	1.062011	-0.134711	0.918831	1.497261	-0.094501	1.056253	1.384504	0.016359	1.049108	1.360615	-0.164399	0.654659	1.666325	-0.098334	0.576567	1.531679	-0.094762	0.697057	1.605796	0.013242	0.815206	1.426758	0.117607	0.964675	1.485786	0.065113	0.939858	1.105902	0.127509	0.950392	1.265184	0.171912	0.834001	0.864759	0.057892	0.923501	1.434715	-0.232300	0.903312	1.021473	-0.183138	0.908829	1.175518	-0.268498	0.795441	0.799209	-0.064370	1.093937	0.510272	0.227810	0.987430	0.051903	0.226091	1.021496	0.043488	0.327092	1.165967	0.097518	0.270790	1.046000	0.528379	-0.298466	0.981331	0.036338	-0.288902	0.979289	0.038886	-0.406488	1.117951	0.118117	-0.378026	0.123251	0.050309	0.037080	0.033815	0.073853	0.036124	0.039764	0.050955	-0.010165	0.620407	0.521211	0.058713	0.668579	0.574633	0.022786	0.705262	0.607389	0.055193
35	0.094444444	1.098571	1.006496	0.123239	1.091501	1.022175	-0.221250	1.232770	1.060521	0.034474	1.236777	1.061971	-0.134750	0.918886	1.497259	-0.094515	1.056305	1.384487	0.016315	1.049160	1.360616	-0.164459	0.654697	1.666308	-0.098322	0.576609	1.531665	-0.094798	0.697116	1.605772	0.013234	0.815274	1.426703	0.117570	0.964717	1.485758	0.065087	0.939848	1.105864	0.127419	0.950418	1.265113	0.171836	0.833979	0.864727	0.057785	0.923550	1.434738	-0.232338	0.903301	1.021517	-0.183200	0.908808	1.175547	-0.268541	0.795499	0.799233	-0.064525	1.093975	0.510269	0.227796	0.987420	0.051884	0.226106	1.021480	0.043463	0.327105	1.165965	0.097497	0.270805	1.046005	0.528361	-0.298491	0.981337	0.036328	-0.288890	0.979282	0.038882	-0.406488	1.117940	0.118125	-0.378026	0.123116	0.050364	0.036376	0.033686	0.073924	0.035382	0.039695	0.051062	-0.010912	0.620371	0.521207	0.058291	0.668531	0.574646	0.022425	0.705275	0.607364	0.054892
36	0.097222222	1.098592	1.006481	0.123186	1.091578	1.022146	-0.221301	1.232800	1.060506	0.034444	1.236863	1.061946	-0.134777	0.918927	1.497229	-0.094538	1.056353	1.384455	0.016289	1.049215	1.360611	-0.164505	0.654733	1.666289	-0.098325	0.576665	1.531638	-0.094814	0.697145	1.605721	0.013221	0.815309	1.426672	0.117547	0.964783	1.485715	0.065067	0.939859	1.105835	0.127337	0.950449	1.265027	0.171758	0.833957	0.864678	0.057652	0.923634	1.434772	-0.232370	0.903369	1.021563	-0.183276	0.908834	1.175580	-0.268584	0.795582	0.799216	-0.064651	1.094000	0.510252	0.227795	0.987424	0.051893	0.226111	1.021477	0.043474	0.327114	1.165978	0.097469	0.270809	1.046017	0.528364	-0.298526	0.981302	0.036335	-0.288892	0.979296	0.038877	-0.406491	1.117941	0.118103	-0.378046	0.122967	0.050463	0.035621	0.033667	0.074002	0.034668	0.039679	0.051152	-0.011761	0.620342	0.521197	0.057852	0.668527	0.574649	0.022092	0.705226	0.607348	0.054555
37	0.100000000	1.098623	1.006470	0.123116	1.091638	1.022130	-0.221347	1.232830	1.060503	0.034400	1.236937	1.061926	-0.134809	0.918971	1.497234	-0.094551	1.056381	1.384416	0.016253	1.049264	1.360612	-0.164544	0.654782	1.666278	-0.098313	0.576730	1.531627	-0.094838	0.697185	1.605686	0.013222	0.815362	1.426626	0.117530	0.964821	1.485675	0.065046	0.939857	1.105792	0.127254	0.950476	1.264981	0.171701	0.833933	0.864642	0.057515	0.923689	1.434788	-0.232410	0.903372	1.021637	-0.183338	0.908857	1.175619	-0.268640	0.795625	0.799247	-0.064795	1.094044	0.510240	0.227788	0.987436	0.051892	0.226111	1.021487	0.043455	0.327135	1.165985	0.097453	0.270844	1.045991	0.528353	-0.298552	0.981287	0.036324	-0.288878	0.979290	0.038870	-0.406491	1.117908	0.118065	-0.378028	0.122803	0.050521	0.034797	0.033613	0.074171	0.033860	0.039582	0.051263	-0.012634	0.620297	0.521190	0.057459	0.668507	0.574608	0.021745	0.705214	0.607311	0.054205
