DataType=double
version=3
OpenSimVersion=4.6-2026-06-22-85aaf64
endheader
time	/forceset/tau_pelvis_tilt	/forceset/tau_pelvis_list	/forceset/tau_pelvis_rotation	/forceset/tau_pelvis_tx	/forceset/tau_pelvis_ty	/forceset/tau_pelvis_tz	/forceset/tau_hip_flexion_r	/forceset/tau_hip_adduction_r	/forceset/tau_hip_rotation_r	/forceset/tau_knee_angle_r	/forceset/tau_knee_angle_r_beta	/forceset/tau_ankle_angle_r	/forceset/tau_subtalar_angle_r	/forceset/tau_mtp_angle_r	/forceset/tau_hip_flexion_l	/forceset/tau_hip_adduction_l	/forceset/tau_hip_rotation_l	/forceset/tau_knee_angle_l	/forceset/tau_knee_angle_l_beta	/forceset/tau_ankle_angle_l	/forceset/tau_subtalar_angle_l	/forceset/tau_mtp_angle_l	/forceset/tau_lumbar_extension	/forceset/tau_lumbar_bending	/forceset/tau_lumbar_rotation	/forceset/tau_arm_flex_r	/forceset/tau_arm_add_r	/forceset/tau_arm_rot_r	/forceset/tau_elbow_flex_r	/forceset/tau_pro_sup_r	/forceset/tau_wrist_flex_r	/forceset/tau_wrist_dev_r	/forceset/tau_arm_flex_l	/forceset/tau_arm_add_l	/forceset/tau_arm_rot_l	/forceset/tau_elbow_flex_l	/forceset/tau_pro_sup_l	/forceset/tau_wrist_flex_l	/forceset/tau_wrist_dev_l
0	0.0005451925694965388	-0.0002078355866101362	-9.574143753175267e-05	1.615704748419226e-05	8.889325121663257e-05	2.3460225561588e-06	-0.0007174505991012714	0.0002787581248718331	0.0008294921574663229	-0.0004145778701887078	-0.0002037878494251724	0.0003529905747936324	0.007782412237618113	-0.0002418144721629222	-0.0007463163305271903	-0.0001623835947394945	-0.0002197994230059609	1.614376291199162e-05	5.718233799104901e-06	0.000102112728350065	-0.001247969884580802	2.777810484305708e-05	-0.0007267518696201558	0.0001429292196411515	0.0002630119596600621	0.0006349131919532063	-1.339445649918063e-05	-5.555103834625188e-05	-0.001672535895305642	0.0002077424389544299	0.001222913854024879	-0.0008851946626272466	6.40099313174183e-05	-0.0001233032695264255	0.0002966937923448661	-6.915248340401454e-05	-0.0008103430340107344	-4.985520403912159e-05	3.093777566239583e-05
0.005000000000000001	0.001307970584462276	-0.0006640840333038762	-0.0002828401436068961	3.543345493259753e-05	0.0002290306320950995	2.218522520573357e-05	-0.001672531303383327	0.001100190872738388	0.001560863183810207	-0.000613295422099119	-0.0003062163871762101	0.0002089284253834479	0.003118621857066662	-0.0001014638331280185	-0.001775752792266577	-0.0006443684589376212	-0.0004112002612558557	0.0001224036644746518	6.053296902461859e-05	0.0001279490178746688	-0.001127931018732989	2.391902664253539e-05	-0.001771352497625582	0.0005202768130690255	0.0006945795274523909	0.001262460457444454	-9.470386348715194e-05	-0.0002826259837427508	-0.003576260471118581	0.0009297458072370552	0.002891887279772756	-0.001951267410919501	0.0001589395725151224	-0.0003633518448394446	0.0007658461315260817	-0.0002360575544890454	-0.0006630409682476578	-7.430319612485751e-05	0.0001174321108617735
0.01	0.002070748599428012	-0.001120332479997616	-0.0004699388496820397	5.47098623810028e-05	0.0003691680129735664	4.202442785530834e-05	-0.002627612007665382	0.001921623620604944	0.002292234210154091	-0.0008120129740095303	-0.0004086449249272477	6.48662759732635e-05	-0.001545168523484788	3.888680590688511e-05	-0.002805189254005964	-0.001126353323135748	-0.0006026010995057506	0.000228663566037312	0.0001153477042501323	0.0001537853073992725	-0.001007892152885176	2.00599484420137e-05	-0.002815953125631008	0.0008976244064968996	0.00112614709524472	0.001890007722935701	-0.0001760132704751233	-0.0005097009291392498	-0.005479985046931521	0.00165174917551968	0.004560860705520632	-0.003017340159211755	0.0002538692137128265	-0.0006034004201524637	0.001234998470707297	-0.0004029626255740762	-0.0005157389024845813	-9.875118821059339e-05	0.0002039264460611513
0.015	0.002551157479990767	-0.001377328790982142	-0.000507728613325345	6.945238000938894e-05	0.0004644466657839316	4.36038830918751e-05	-0.00322417070328437	0.002324512524858329	0.002770684989901755	-0.0009378331355393585	-0.0004723412953834405	-4.945353194707599e-05	-0.002068785596044634	6.296308290609522e-05	-0.003401568515974843	-0.001314654266738676	-0.0005689417346482535	0.0003577334002005472	0.0001801408492345243	-7.115581924605524e-05	-0.001153863293982227	3.494443915692779e-05	-0.003406940447994302	0.001098995966232746	0.001325556314569693	0.001992856073455407	-0.0002068456104259329	-0.0007377606947166727	-0.006130473452918515	0.001288391216545001	0.004975536600998971	-0.003249549055946381	0.0003328694271553362	-0.0007554235606702898	0.001509577366765059	-0.0005883229066078289	-0.00050485956296049	-9.940299760911055e-05	0.0002641957457243401
0.02	0.003031566360553521	-0.001634325101966668	-0.0005455183769686502	8.419489763777508e-05	0.0005597253185942968	4.518333832844185e-05	-0.003820729398903359	0.002727401429111714	0.003249135769649418	-0.001063653297069186	-0.0005360376658396332	-0.0001637733398674155	-0.00259240266860448	8.703935990530534e-05	-0.003997947777943721	-0.001502955210341604	-0.0005352823697907563	0.0004868032343637826	0.0002449339942189164	-0.000296096945891383	-0.001299834435079278	4.982892987184187e-05	-0.003997927770357596	0.001300367525968592	0.001524965533894667	0.002095704423975113	-0.0002376779503767426	-0.0009658204602940956	-0.006780961858905509	0.0009250332575703209	0.00539021249647731	-0.003481757952681007	0.0004118696405978461	-0.0009074467011881159	0.00178415626282282	-0.0007736831876415817	-0.0004939802234363988	-0.0001000548070076277	0.0003244650453875288
0.025	0.003325395717024259	-0.001684152995691471	-0.0004716964474074528	9.57844707649556e-05	0.0006188196987428258	3.003952364316569e-05	-0.004163946844557277	0.00268258812609147	0.003583362484545097	-0.00120182117845492	-0.0006037012844322731	-0.000702175297401567	0.002419799025280341	-3.265601921942966e-05	-0.004335371289922702	-0.001393861577813559	-0.0003086540782115401	0.0005251184433343585	0.0002629786202394021	-0.000310059341411484	-0.000549096426790834	3.214885932399353e-05	-0.004285839082713187	0.00130311189533668	0.001543585126901667	0.001936540849370713	-0.0002309493776395016	-0.001240559037775314	-0.006724211345306254	0.001583805328635813	0.005518131835110533	-0.003469561613943252	0.0004761052686450821	-0.0009832864568990649	0.001876152087462951	-0.0009478045701125759	-0.000393079010320594	-0.0001141523878391905	0.0003386599741580077
0.03	0.003619225073494997	-0.001733980889416275	-0.0003978745178462554	0.0001073740438921361	0.0006779140788913548	1.489570895788951e-05	-0.004507164290211194	0.002637774823071226	0.003917589199440775	-0.001339989059840653	-0.0006713649030249129	-0.001240577254935719	0.007432000719165162	-0.0001523513983441647	-0.004672794801901685	-0.001284767945285514	-8.202578663232394e-05	0.0005634336523049343	0.0002810232462598878	-0.000324021736931585	0.0002016415814976098	1.446878877614519e-05	-0.004573750395068777	0.001305856264704767	0.001562204719908668	0.001777377274766314	-0.0002242208049022606	-0.001515297615256532	-0.006667460831706998	0.002242577399701306	0.005646051173743756	-0.003457365275205497	0.0005403408966923181	-0.001059126212610013	0.001968147912103082	-0.00112192595258357	-0.0002921777972047892	-0.0001282499686707534	0.0003528549029284864
0.035	0.003710886277773253	-0.001713585885630222	-0.0003143627617293316	0.0001110062365738584	0.0007026908477043095	4.178585079917606e-06	-0.004571755396316688	0.002547656890860901	0.003691749860153805	-0.001177786095462388	-0.0005914476309960937	-0.00142632635330848	0.003814105819257496	-3.507703188762976e-05	-0.004761303196554456	-0.001135230264518726	5.800023569427593e-05	0.0005847218677248461	0.0002923460537159462	-0.0002068443283856275	-0.0008280457444864893	3.352505437831039e-05	-0.004616299889723843	0.001258490012209429	0.001489995008463995	0.001407627004153268	-0.0002915566106212945	-0.00136130447825651	-0.005949313459989711	0.001699634868497018	0.004858724983013705	-0.003078397990516834	0.0005843785325054775	-0.001068263408708877	0.001888904045930003	-0.001239443320537982	-0.0002127703365947769	-0.000133827323358583	0.0003418727618129347
0.04000000000000001	0.003802547482051508	-0.00169319088184417	-0.0002308510056124077	0.0001146384292555807	0.0007274676165172642	-6.538538798054297e-06	-0.004636346502422182	0.002457538958650576	0.003465910520866834	-0.001015583131084122	-0.0005115303589672747	-0.001612075451681242	0.0001962109193498303	8.219733456890515e-05	-0.004849811591207225	-0.0009856925837519385	0.0001980262580208758	0.000606010083144758	0.0003036688611720045	-8.966691983966995e-05	-0.001857733070470588	5.258131998047559e-05	-0.004658849384378909	0.001211123759714091	0.001417785297019322	0.001037876733540223	-0.0003588924163403284	-0.001207311341256487	-0.005231166088272424	0.00115669233729273	0.004071398792283652	-0.002699430705828171	0.0006284161683186369	-0.001077400604807741	0.001809660179756924	-0.001356960688492394	-0.0001333628759847646	-0.0001394046780464126	0.0003308906206973831
0.04500000000000001	0.003758346745904942	-0.001595900564443797	-0.000121578255646636	0.0001147669767629177	0.0007238120462005283	-2.017060896324677e-05	-0.004564043163428952	0.002179310595854649	0.003151526392279054	-0.0009206762690144734	-0.000463625603936491	-0.001577364666174511	0.0004405913234529097	7.290186820391813e-05	-0.004775953680747373	-0.000790394709058597	0.0003548491085193882	0.0005263156615181039	0.0002638741390138729	-3.423816834344425e-05	-0.001635943412646527	4.401956936902243e-05	-0.004529131409116264	0.001100540532281574	0.001260201403184889	0.0005820798379329502	-0.00046329474924394	-0.0008421859808451525	-0.004136771918273284	0.0005275757945918596	0.002942790855815842	-0.002209140937471263	0.0006553206096467178	-0.001020620717389251	0.001587904638887075	-0.001397017272042543	-6.706572069232911e-05	-0.0001421046964425544	0.0002924811028227738
0.05	0.003714146009758376	-0.001498610247043425	-1.23055056808643e-05	0.0001148955242702547	0.0007201564758837924	-3.380267912843925e-05	-0.004491739824435721	0.001901082233058721	0.002837142263691275	-0.0008257694069448247	-0.0004157208489057074	-0.00154265388066778	0.0006849717275559892	6.360640183893111e-05	-0.004702095770287519	-0.0005950968343652555	0.0005116719590179006	0.0004466212398914498	0.0002240794168557412	2.119058315278145e-05	-0.001414153754822465	3.545781875756927e-05	-0.004399413433853619	0.0009899573048490558	0.001102617509350456	0.000126282942325677	-0.0005676970821475516	-0.0004770606204338177	-0.003042377748274145	-0.0001015407481090112	0.001814182919348031	-0.001718851169114356	0.0006822250509747987	-0.0009638408299707609	0.001366149098017225	-0.001437073855592692	-7.685653998935846e-07	-0.0001448047148386961	0.0002540715849481645
0.05500000000000001	0.003547664924926979	-0.001371899743606805	0.0001235130504983348	0.0001118690814401353	0.0006906269315984814	-4.955446857085294e-05	-0.004312434270895605	0.001515419979141356	0.002380135189032189	-0.0007797797110881816	-0.0003916712000702723	-0.00161147361283616	0.002820570764343554	6.640596744797905e-06	-0.004473581433804433	-0.0003986796770898764	0.0006726436023721375	0.0003121200602132156	0.000156410917594156	-8.90721474792063e-05	-0.0006801720398714409	2.280402870258527e-05	-0.004120251669438832	0.0008658326387956324	0.000864480431960745	-0.0003916723594256528	-0.0006742054895603061	-0.0001223310760164009	-0.001705226067121927	-0.0006979975654244156	0.0006229979708683227	-0.001029171501910442	0.0006879910804056145	-0.0008568509734307302	0.001063927575804675	-0.001399521961513512	4.323562802559648e-06	-0.0001408126931651466	0.0002006580589331038
0.06	0.003381183840095582	-0.001245189240170185	0.0002593316066775339	0.000108842638610016	0.0006610973873131701	-6.530625801326664e-05	-0.004133128717355488	0.00112975772522399	0.001923128114373102	-0.0007337900152315384	-0.0003676215512348372	-0.00168029334500454	0.004956169801131119	-5.032520834933531e-05	-0.004245067097321347	-0.0002022625198144973	0.0008336152457263745	0.0001776188805349813	8.874241833257064e-05	-0.000199334878111194	5.38096750795833e-05	1.015023864760128e-05	-0.003841089905024044	0.0007417079727422088	0.000626343354571034	-0.0009096276611769826	-0.0007807138969730607	0.000232398468401016	-0.0003680743859697085	-0.00129445438273982	-0.0005681869776113854	-0.0003394918347065294	0.0006937571098364302	-0.0007498611168906994	0.0007617060535921242	-0.001361970067434331	9.415691005012881e-06	-0.000136820671491597	0.0001472445329180432
0.06499999999999999	0.003087437030134765	-0.00113322341176926	0.0004161895893060567	0.0001020725441724742	0.0006064946889044576	-7.926478746060569e-05	-0.003833976544286214	0.0007724377941281703	0.00113031259991105	-0.0005874023797713116	-0.000295088194526791	-0.001850314215561555	0.002621594892183341	2.491401016155308e-05	-0.00384973819792413	-4.684819552693418e-05	0.0009682056916259118	6.623881153434166e-05	3.346395097946529e-05	-0.0002230413808031269	-2.0060079666394e-05	1.256648301050723e-05	-0.003412190529062739	0.0006518306102347296	0.0003182753582378507	-0.001501832948373673	-0.0008416228002437594	0.0003771124610028812	0.001210801280245621	-0.00124534141746183	-0.001586401480804828	0.0005105714372084878	0.0006639878750382344	-0.0006263620424604557	0.00046383812555501	-0.001249809323681407	9.199225377974133e-05	-0.0001199594339898733	9.182093368164479e-05
0.06999999999999999	0.002793690220173947	-0.001021257583368336	0.0005730475719345795	9.530244973493231e-05	0.0005518919904957452	-9.322331690794474e-05	-0.003534824371216941	0.0004151178630323504	0.0003374970854489982	-0.0004410147443110848	-0.0002225548378187448	-0.00202033508611857	0.000287019983235564	0.0001001532286724415	-0.003454409298526912	0.000108566128760629	0.001102796137525449	-4.514125746629794e-05	-2.181451637364007e-05	-0.0002467478834950597	-9.392983441237131e-05	1.498272737341319e-05	-0.002983291153101434	0.0005619532477272501	1.020736190466739e-05	-0.002094038235570363	-0.000902531703514458	0.0005218264536047464	0.00278967694646095	-0.00119622845218384	-0.00260461598399827	0.001360634709123505	0.0006342186402400384	-0.0005028629680302119	0.0001659701975178956	-0.001137648579928484	0.0001745688165544698	-0.0001030981964881496	3.639733444524643e-05
0.07500000000000001	0.002434200616451102	-0.0008408763506708342	0.0007923318342441472	9.147491714806614e-05	0.0004756386911706955	-0.0001177474640112472	-0.003230612561159782	-0.0001359211830505492	-0.0002643895742680972	-0.0004907300248698349	-0.0002431518097351148	-0.0009787859064010432	0.006150339083691845	-0.0001237982098008715	-0.002954908238363864	0.000381029641991869	0.001270677492951188	-0.0001277954944970194	-6.502288644627038e-05	-0.0001111820810942425	-0.0007065319554030572	2.425401794656345e-05	-0.002434627958070169	0.0004121742254612424	-0.0003679207124723867	-0.002691724961559547	-0.0008746188555030661	0.0004171266954637564	0.004523861982058779	-0.0009232503040968075	-0.003551939971932112	0.0023418026476632	0.0005640158978948756	-0.0003824500975517865	-6.155760461310804e-05	-0.0009553510651935	0.0003027758512922034	-7.574211924770915e-05	-6.254372392115459e-06
0.08000000000000002	0.002074711012728257	-0.0006604951179733328	0.001011616096553715	8.764738456119996e-05	0.0003993853918456458	-0.0001422716111145497	-0.002926400751102622	-0.0006869602291334489	-0.0008662762339851927	-0.0005404453054285851	-0.0002637487816514848	6.276327331648298e-05	0.01201365818414813	-0.0003477496482741844	-0.002455407178200816	0.0006534931552231091	0.001438558848376927	-0.0002104497315277409	-0.0001082312565189007	2.438372130657481e-05	-0.001319134076393743	3.352530851971371e-05	-0.001885964763038904	0.0002623952031952347	-0.0007460487868494408	-0.003289411687548731	-0.0008467060074916744	0.0003124269373227665	0.006258047017656607	-0.0006502721560097749	-0.004499263959865954	0.003322970586202896	0.0004938131555497126	-0.0002620372270733609	-0.0002890854067441117	-0.0007730535504585161	0.0004309828860299369	-4.83860420072687e-05	-4.890607922947735e-05
0.08500000000000002	0.001563168395397554	-0.0005992314715401644	0.001063771197401811	7.178524771756276e-05	0.0003054515653029303	-0.0001314090967582001	-0.002343842195338803	-0.0006477686883295731	-0.001892151905130308	-7.109416319045852e-05	-3.487416674494108e-05	0.0007908933192140301	-0.003217657170432176	5.599896582639637e-05	-0.001780902771428515	0.0005797321698748986	0.001523576318377513	-0.0002133552783733924	-0.0001052186963505859	0.0001540590174918921	4.11518857114979e-05	-1.164121551615578e-05	-0.001262573033020286	0.0002673376099372075	-0.0009538254776647659	-0.003489172426004356	-0.0006714102756876998	6.583171039369542e-05	0.007287127596083955	-0.0002316018825011199	-0.004978094292900216	0.003849576044478411	0.0003931065569169862	-0.0001612995623227375	-0.0004260593722754755	-0.0005687632934715968	0.0006463280569739651	-7.500164100703901e-06	-6.279317309497399e-05
0.09000000000000001	0.001051625778066851	-0.0005379678251069962	0.001115926298249907	5.592311087392557e-05	0.0002115177387602149	-0.0001205465824018504	-0.001761283639574985	-0.0006085771475256973	-0.002918027576275422	0.000398256979047668	0.0001940004481616026	0.001519023365111577	-0.01844897252501248	0.0004597475799269772	-0.001106398364656214	0.0005059711845266879	0.001608593788378099	-0.0002162608252190439	-0.0001022061361822711	0.0002837343136772093	0.001401437847816739	-5.680773955202528e-05	-0.000639181303001669	0.0002722800166791802	-0.001161602168480091	-0.00368893316445998	-0.0004961145438837251	-0.0001807635165353756	0.008316208174511303	0.000187068391007535	-0.005456924625934478	0.004376181502753927	0.0002923999582842597	-6.056189757211414e-05	-0.0005630333378068394	-0.0003644730364846773	0.000861673227917993	3.33857138058609e-05	-7.668026696047065e-05
0.095	0.0006245154301464899	-0.0003442697865281627	0.0007724292133340682	3.641106909893952e-05	0.0001253202029663828	-8.13728978980177e-05	-0.001121116900615897	-0.0004615319950568851	-0.00195989769786926	0.0002109460343995406	0.0001026703882061424	0.001358257904610446	-0.009843505952502685	0.0002220977775083549	-0.0006387333113216723	0.0003239365609284391	0.001214438347837921	-0.0002016371816115447	-9.632474145943773e-05	0.0004052176039200262	0.003776446657815064	-0.0001174626274129552	-0.0003214249871628898	0.0001751202218815866	-0.0008222627573937963	-0.002462301854258595	-0.0002499144426547145	-0.0002397740730579177	0.005710145506573107	0.0002423525171355569	-0.003685924564151244	0.003001739521596676	0.0001874363998847146	-1.803728991942299e-06	-0.0004491990842310487	-0.0002144888667504846	0.0009314630107326919	7.045191114303838e-05	-2.068566815667256e-05
0.1	0.000197405082226129	-0.0001505717479493293	0.0004289321284182299	1.689902732395348e-05	3.912266717255074e-05	-4.219921339418498e-05	-0.0004809501616568095	-0.0003144868425880731	-0.001001767819463097	2.363508975141331e-05	1.134032825068225e-05	0.001197492444109315	-0.00123803937999289	-1.555202491026736e-05	-0.0001710682579871301	0.0001419019373301903	0.0008202829072977441	-0.0001870135380040456	-9.044334673660438e-05	0.000526700894162843	0.006151455467813389	-0.0001781175152738851	-3.668671324110564e-06	7.796042708399305e-05	-0.0004829233463075016	-0.00123567054405721	-3.714341425703949e-06	-0.0002987846295804598	0.003104082838634912	0.0002976366432635788	-0.00191492450236801	0.001627297540439426	8.247284148516954e-05	5.695443958822954e-05	-0.000335364830655258	-6.450469701629184e-05	0.001001252793547391	0.0001075181084802159	3.530893064712553e-05
