inDegrees=no
num_controls=1
num_derivatives=0
num_input_controls=0
num_iterations=23
num_multipliers=0
num_parameters=0
num_slacks=0
num_states=4
objective=0.000000
objective_effort=0.000000
objective_marker_tracking=0.000000
solver_duration=0.834963
status=Solve_Succeeded
success=true
DataType=double
version=3
OpenSimVersion=4.6-2026-06-22-85aaf64
endheader
time	/jointset/slider/slide/value	/jointset/slider/slide/speed	/forceset/flexor/activation	/forceset/flexor/fiber_length	/forceset/flexor
0	0.31	0	0.05	0.108573946282611	0.3464663775959531
0.0025	0.3099979759608069	-0.001696153754567103	0.1421434674516967	0.1083695761543193	0.3185175399696072
0.005000000000000001	0.3099911346192269	-0.003853841909483792	0.1865173959473365	0.1079940440256922	0.2905687023432613
0.007500000000000001	0.3099781483676762	-0.006624419411668094	0.2159741082931198	0.1076691243459	0.3016793586060744
0.01	0.3099575662217657	-0.009930557397303027	0.2394253152521056	0.107377569978256	0.3127900148688874
0.0125	0.3099280924196053	-0.01371810689022121	0.2585654558626876	0.1071152937026495	0.3194738646228169
0.015	0.3098886275745182	-0.01792339173868533	0.2741637039614361	0.1068760619514419	0.3261577143767464
0.0175	0.3098381788874956	-0.02248758266648083	0.2873169786843778	0.1066547351066496	0.3325314532199972
0.02	0.3097759295372505	-0.02736392231669642	0.2986465214363087	0.1064474655384267	0.338905192063248
0.0225	0.3097011349545015	-0.03251047638279592	0.3085226361825503	0.1062510556780974	0.3439431467530191
0.025	0.3096131834928355	-0.03788942545020748	0.3171659449217861	0.1060629707985619	0.3489811014427902
0.0275	0.3095115256533842	-0.04346335571651329	0.324900616334298	0.1058807305316877	0.3539340062155897
0.03	0.309395734166224	-0.04919634361752219	0.3319355467091878	0.1057019011338695	0.3588869109883893
0.03249999999999999	0.3092654410394327	-0.055053713736084	0.3385186210341515	0.1055241025879208	0.3644278798120849
0.035	0.3091203878179409	-0.06100441937784424	0.3448164997684019	0.1053450791181044	0.3699688486357804
0.03750000000000001	0.3089603661622748	-0.0670197125875303	0.3510097517386334	0.1051626652372725	0.3764838163865054
0.04000000000000001	0.3087852552178407	-0.07307585039228492	0.3572227417102307	0.1049748727544154	0.3829987841372304
0.04250000000000001	0.3085949715012329	-0.07915173248985172	0.3635307921837796	0.1047798421394639	0.3902421332244791
0.04500000000000001	0.3083894935074117	-0.08523127216300141	0.3699865351915727	0.1045759865091834	0.3974854823117279
0.0475	0.3081688243574391	-0.09130071973207583	0.3765357932112686	0.1043619050218541	0.4045597558138089
0.05	0.3079330065491663	-0.09735019880323575	0.3831408693446293	0.1041365904422057	0.4116340293158899
0.0525	0.3076820973881869	-0.103371360069592	0.3896424446995464	0.1038992616871706	0.4173366323277353
0.05500000000000001	0.3074161785983715	-0.1093579018721148	0.3959279959436882	0.1036495833257118	0.4230392353395808
0.0575	0.3071353415764008	-0.115304047527346	0.4017704018740051	0.1033874418191429	0.4260904440140023
0.06	0.3068396967016202	-0.1212041841200779	0.4070063512820776	0.1031131243696127	0.4291416526884239
0.0625	0.3065293637474381	-0.1270523554198631	0.4114175589028166	0.1028270612758434	0.4287494592472726
0.065	0.3062044840435499	-0.1328415838847958	0.4148425000152743	0.1025298782768455	0.4283572658061214
0.0675	0.305865211023282	-0.1385642359102814	0.4170635988653619	0.1022222514024919	0.4237440000548101
0.06999999999999999	0.3055117258460948	-0.1442113094202031	0.4179143290058693	0.1019049721438283	0.4191307343034989
0.0725	0.3051442255377514	-0.1497731245562595	0.4176329212190777	0.10157866741298	0.4064034245082944
0.07500000000000001	0.3047629392868049	-0.155240063502666	0.4164173514125036	0.1012434350389163	0.3936761147130898
0.07750000000000001	0.3043681120722506	-0.1606032062484283	0.414457498731818	0.1008991720456947	0.3814762386453036
0.08000000000000002	0.3039600157650248	-0.1658553376396733	0.4118111879644854	0.100545647281605	0.3692763625775174
0.0825	0.3035389334879117	-0.1709901472344957	0.4086361068127204	0.1001826720697082	0.3601394518472878
0.08500000000000001	0.3031051667129345	-0.1760029359308489	0.4050750987934855	0.09981002622385002	0.3510025411170583
0.08750000000000001	0.302659024099785	-0.1808897634105082	0.401269396339004	0.0994274514014588	0.3451271073064314
0.09000000000000001	0.3022008248517728	-0.185648243821067	0.397345551515181	0.09903457818157128	0.3392516734958045
0.09250000000000001	0.3017308912198511	-0.1902767550884556	0.3930280623075957	0.09863121733954762	0.3247997251066869
0.095	0.30124955060947	-0.1947738265885767	0.388072004861511	0.09821780206711374	0.3103477767175692
0.0975	0.3007571343420717	-0.1991376431402276	0.3842004220937741	0.09779382430212211	0.3469073720708379
0.1	0.3002539701147176	-0.2033721945533376	0.383010321781255	0.09735563627768754	0.3834669674241067
