DataType=double
version=3
OpenSimVersion=4.6-2026-06-22-85aaf64
endheader
time	/jointset/slider/slide/value	/jointset/slider/slide/speed	/forceset/flexor/activation	/forceset/flexor/fiber_length
0	0.31	0	0.05	0.108573946282611
0.005	0.31	0	0.05	0.108573946282611
0.01	0.31	0	0.05	0.108573946282611
0.015	0.31	0	0.05	0.108573946282611
0.02	0.31	0	0.05	0.108573946282611
0.025	0.31	0	0.05	0.108573946282611
0.03	0.31	0	0.05	0.108573946282611
0.035	0.31	0	0.05	0.108573946282611
0.04	0.31	0	0.05	0.108573946282611
0.045	0.31	0	0.05	0.108573946282611
0.05	0.31	0	0.05	0.108573946282611
0.055	0.31	0	0.05	0.108573946282611
0.06	0.31	0	0.05	0.108573946282611
0.065	0.31	0	0.05	0.108573946282611
0.07000000000000001	0.31	0	0.05	0.108573946282611
0.075	0.31	0	0.05	0.108573946282611
0.08	0.31	0	0.05	0.108573946282611
0.08500000000000001	0.31	0	0.05	0.108573946282611
0.09	0.31	0	0.05	0.108573946282611
0.095	0.31	0	0.05	0.108573946282611
0.1	0.31	0	0.05	0.108573946282611
