inDegrees=no
num_controls=1
num_derivatives=0
num_input_controls=0
num_iterations=12
num_multipliers=0
num_parameters=0
num_slacks=0
num_states=4
objective=0.000000
objective_effort=0.000000
objective_marker_tracking=0.000000
solver_duration=1.692547
status=Solve_Succeeded
success=true
DataType=double
version=3
OpenSimVersion=4.6-2026-06-22-85aaf64
endheader
time	/jointset/slider/slide/value	/jointset/slider/slide/speed	/forceset/flexor/activation	/forceset/flexor/fiber_length	/forceset/flexor
0	0.31	0	0.05	0.108573946282611	0.4509419949475822
0.0006250000000000001	0.3099998775070272	-0.000394765548811962	0.08703039306229099	0.1085478912670064	0.4004623344829111
0.00125	0.3099995030580192	-0.0008062593128985147	0.1133098864671357	0.1084861754704714	0.3499826740182398
0.001875	0.3099988635854515	-0.001245368408086212	0.1331443341876063	0.1084085073442613	0.3315819844991125
0.0025	0.3099979397031282	-0.001716370531139263	0.1490291218767894	0.1083223105464635	0.313181294979985
0.003125	0.3099967107449181	-0.00222231617274049	0.1621452661278544	0.1082328254360511	0.3060725947534269
0.00375	0.3099951542823731	-0.002764384402461248	0.1733371765354766	0.1081424789605099	0.2989638945268688
0.004375	0.30999324755284	-0.003343291097844201	0.1830553166252389	0.1080530023870395	0.2962106775490381
0.005000000000000001	0.3099909674922577	-0.003959043759920424	0.1916481194436867	0.1079652512961213	0.2934574605712075
0.005625000000000001	0.3099882910973421	-0.004611429627443153	0.1993350582029045	0.1078798268575335	0.2927609252569395
0.00625	0.3099851956931521	-0.005299873437537474	0.206293166514768	0.1077969847667892	0.2920643899426714
0.006875000000000001	0.3099816588796893	-0.006023667418832121	0.2126475723349495	0.1077168702581038	0.2925168262551434
0.0075	0.309977658936659	-0.006781888053788306	0.2185019628661158	0.1076394748178107	0.2929692625676153
0.008124999999999999	0.3099731745501344	-0.007573535036912844	0.2239337335868663	0.1075647410576931	0.2941090176226035
0.008749999999999999	0.309968185285098	-0.008397499291379777	0.2290082005178692	0.1074925475377122	0.2952487726775917
0.009375000000000001	0.3099626711791331	-0.009252642129165474	0.2337759747952395	0.1074227550141979	0.2968171329878806
0.01	0.3099566132295207	-0.01013779896325663	0.2382803279564054	0.1073552053311856	0.2983854932981695
0.010625	0.3099499929207426	-0.01105180867459607	0.2425556576958368	0.1072897377372563	0.3002257028694173
0.01125	0.3099427926942424	-0.01199353567433545	0.2466316561732518	0.1072261935577518	0.3020659124406651
0.011875	0.3099349954614861	-0.01296186556008814	0.2505324557317596	0.1071644179591344	0.3040802219884753
0.0125	0.309926585041774	-0.01395573393319289	0.2542790396035325	0.107104266259456	0.3060945315362856
0.013125	0.3099175456924761	-0.01497410445128575	0.257888682531248	0.1070455996791384	0.3082172054787732
0.01375	0.3099078625104208	-0.01601599875707815	0.2613764890595515	0.106988291653509	0.3103398794212608
0.014375	0.3098975209943252	-0.0170804712817927	0.2647551295420726	0.1069322221625168	0.3125286657225272
0.015	0.3098865073981525	-0.01816665500373628	0.2680357320914967	0.106877285506416	0.3147174520237936
0.015625	0.309874808328267	-0.01927372349438423	0.2712277109701803	0.1068233829766787	0.3169424421339664
0.01625	0.3098624110502036	-0.02040092117328423	0.2743393637478903	0.1067704279137239	0.3191674322441393
0.016875	0.309849303136999	-0.02154752369660793	0.2773777077446253	0.1067183388748804	0.321405507323634
0.0175	0.3098354727423139	-0.02271286191099195	0.2803489446060919	0.1066670435725655	0.3236435824031286
0.018125	0.3098209082929272	-0.02389629058758702	0.2832583055720574	0.1066164736663172	0.3258765339596693
0.01875	0.309805598736003	-0.02509720603079288	0.2861104229114544	0.1065665677124136	0.32810948551621
0.019375	0.3097895332659743	-0.0263150221719115	0.2889091879204956	0.1065172672267871	0.3303228453371309
0.02	0.3097727015531497	-0.02754918297748278	0.2916580507364981	0.1064685188850342	0.3325362051580518
0.020625	0.3097550934964461	-0.02879914488557786	0.2943598938213033	0.1064202715738201	0.3347184308341835
0.02125	0.3097366994390283	-0.03006438526278847	0.2970172742718775	0.1063724780458689	0.3369006565103153
0.021875	0.3097175099396978	-0.03134439002393036	0.2996323210482075	0.1063250927186643	0.3390427475479209
0.0225	0.309697515979712	-0.03263865936004393	0.3022069224040735	0.1062780729492001	0.3411848385855265
0.023125	0.3096767087471396	-0.03394669928747001	0.3047426599174315	0.1062313773754977	0.343280275514612
0.02375	0.3096550798375827	-0.03526802571048504	0.3072409350274699	0.1061849669327915	0.3453757124436975
0.024375	0.3096326210473546	-0.03660215868164831	0.3097029418023799	0.1061388035761603	0.3474201624156605
0.025	0.3096093245696531	-0.03794862562496732	0.3121297366599604	0.1060928511242214	0.3494646123876233
0.025625	0.3095851827938395	-0.03930695725240314	0.3145222451900658	0.1060470742410957	0.3514555172240237
0.02625	0.3095601884977454	-0.04067669052261769	0.3168812847004436	0.1060014391646914	0.353446422060424
0.02687500000000001	0.3095343346515009	-0.04205736539545432	0.3192075980435664	0.105955912861791	0.3553825825972949
0.0275	0.3095076146060812	-0.04344852788370158	0.3215018398974634	0.1059104636765271	0.3573187431341658
0.028125	0.3094800219010004	-0.04484972707516198	0.3237646250610604	0.1058650606021756	0.3591997808473838
0.02875	0.3094515504488619	-0.04626051846841245	0.3259964943849354	0.10581967387289	0.3610808185606019
0.029375	0.3094221943468139	-0.04768046090680648	0.3281979715432346	0.1057742743148486	0.3629068930883359
0.03	0.3093919480567011	-0.04910912027581794	0.3303695165406186	0.1057288338941699	0.3647329676160699
0.030625	0.3093608062205165	-0.05054606615785466	0.3325115854016904	0.1056833251251958	0.3665045345690163
0.03125	0.3093287638357	-0.05199087589820836	0.3346245782347891	0.1056377215825273	0.3682761015219628
0.031875	0.309295816074988	-0.0534431309021474	0.3367088980622336	0.1055919973531926	0.3699937476431906
0.0325	0.3092619584564201	-0.05490242103688762	0.3387648981370637	0.1055461275178953	0.3717113937644183
0.03312500000000001	0.3092271866680416	-0.05636834056283566	0.3407929387345157	0.1055000876389149	0.37337577020767
0.03375	0.3091914967322308	-0.05784049282011446	0.3427933353704345	0.1054538542138116	0.3750401466509216
0.034375	0.3091548848356934	-0.05931848582557451	0.3447664130254984	0.1054074041941604	0.3766519307867044
0.035	0.3091173474877916	-0.06080193718606052	0.3467124560951655	0.1053607154142446	0.3782637149224872
0.035625	0.3090788813562173	-0.06229046941194587	0.3486317617931349	0.1053137661371021	0.3798236528211199
0.03625	0.3090394834190761	-0.06378371500046083	0.3505245901168815	0.1052665354598397	0.3813835907197526
0.036875	0.3089991508065573	-0.06528131152305669	0.352391215101769	0.1052190028851509	0.3828924378885989
0.03750000000000001	0.308957880946593	-0.06678290682611762	0.3542318764223745	0.1051711487056543	0.3844012850574453
0.038125	0.3089156714127739	-0.06828815394853403	0.3560468305340774	0.1051229535983458	0.3858598649332215
0.03875000000000001	0.3088725200634652	-0.06979671639297885	0.3578363018073327	0.1050743989895148	0.3873184448089977
0.03937500000000001	0.3088284248961479	-0.07130826292617178	0.3596005338656492	0.1050254666704114	0.3887276486611684
0.04000000000000001	0.3087833841799283	-0.07282247287980151	0.3613397400401618	0.1049761391445774	0.3901368525133391
0.040625	0.3087373963164232	-0.07433903088020723	0.3630541555749361	0.1049263992628783	0.3914976534689791
0.04125	0.3086904599656482	-0.07585763214359302	0.3647439867746999	0.1048762305549287	0.392858454424619
0.041875	0.3086425739135079	-0.07737797717597816	0.3664094635389022	0.1048256168818581	0.394171881116436
0.0425	0.30859373719109	-0.07889977703199999	0.3680507878776871	0.10477454275375	0.395485307808253
0.043125	0.3085439489487763	-0.0804227480204788	0.3696681883089254	0.1047229929980262	0.3967524914045906
0.04375	0.3084932085690036	-0.08194661690050405	0.3712618661408317	0.1046709530640847	0.3980196750009282
0.044375	0.30844151554697	-0.08347111562330327	0.3728320500800386	0.1046184087060853	0.399241785648477
0.04500000000000001	0.3083888695969544	-0.08499598644253314	0.3743789421455289	0.1045653462766126	0.4004638962960256
0.04562500000000001	0.3083352705395565	-0.086520976718774	0.3759027723882742	0.10451175242204	0.4016421363026402
0.04625000000000001	0.3082807184016958	-0.08804584392374232	0.3774037445757124	0.1044576143665833	0.4028203763092549
0.046875	0.3082252133102912	-0.08957035053049155	0.3788820905099456	0.1044029196186839	0.4039559595495363
0.0475	0.3081687555860835	-0.09109426889360864	0.3803380160613978	0.1043476562466897	0.4050915427898178
0.048125	0.3081113456436358	-0.09261737624541953	0.3817717540542764	0.1042918125949077	0.4061856568840211
0.04875	0.3080529840791436	-0.09413945943611815	0.3831835117755663	0.1042353775521046	0.4072797709782245
0.049375	0.3079936715766122	-0.09566031005393122	0.384573521794821	0.104178340275875	0.4083335547030004
0.05	0.3079334089898388	-0.0971797290108536	0.3859419916249987	0.1041206904548811	0.4093873384277762
0.050625	0.3078721972546019	-0.0986975218028211	0.3872891527893943	0.1040624180402717	0.410401893031349
0.05125	0.3078100374650158	-0.1002135029285727	0.3886152122800388	0.1040035135020412	0.4114164476349218
0.051875	0.3077469307915484	-0.1017274913041605	0.3899203947877892	0.1039439675674209	0.412392656570169
0.0525	0.3076828785519641	-0.1032393145029251	0.391204901443373	0.1038837714732109	0.4133688655054162
0.05312500000000001	0.3076178821349692	-0.1047488043368661	0.3924689471832196	0.1038229167091046	0.4143074699910612
0.05375	0.3075519430659729	-0.1062558009072184	0.3937127245601	0.1037613952659851	0.4152460744767062
0.054375	0.3074850629361453	-0.1077601483646786	0.3949364386189635	0.1036991993832403	0.4161477600015233
0.05500000000000001	0.3074172434632378	-0.1092616987623749	0.3961402731769543	0.10363632179219	0.4170494455263404
0.05562500000000001	0.3073484864258235	-0.1107603080054562	0.3973244241728791	0.1035727554676387	0.4179148748565742
0.05625	0.3072787937194285	-0.1122558395007286	0.3984890673815258	0.1035084938655057	0.4187803041868081
0.056875	0.3072081672957121	-0.1137481603021214	0.3996343909394801	0.1034435306803602	0.4196101401283298
0.0575	0.3071366092141627	-0.1152371445666927	0.4007605637534244	0.1033778600438674	0.4204399760698515
0.05812500000000001	0.3070641215859649	-0.1167226699095799	0.4018677679963008	0.1033114762808867	0.4212349071076114
0.05875	0.3069907066214715	-0.1182046207127721	0.4029561673776805	0.103244374073152	0.4220298381453712
0.059375	0.3069163665785059	-0.119682884665006	0.4040259397466594	0.1031765482659735	0.4227905799516305
0.06	0.3068411038057803	-0.1211573559447232	0.4050772451079785	0.1031079939955453	0.4235513217578898
0.060625	0.3067649206954254	-0.1226279319126504	0.406110259150031	0.1030387065233671	0.4242786437802975
0.06125000000000001	0.3066878197224875	-0.1240945162103811	0.4071251401517078	0.1029686813148389	0.4250059658027053
0.06187500000000001	0.3066098034015106	-0.1255570155775775	0.4081220644396719	0.1028979139118226	0.4257007241704496
0.0625	0.3065308743221882	-0.1270153429158015	0.409101191137243	0.1028263999560792	0.4263954825381939
0.063125	0.3064510351098655	-0.1284694141902291	0.4100627022975203	0.1027541351114871	0.4270587157920259
0.06375	0.3063702884573584	-0.1299191515061213	0.4110067625772821	0.1026811150412123	0.427721949045858
0.064375	0.3062886370893002	-0.1313644800452257	0.4119335669110975	0.1026073353871574	0.4283549757971372
0.065	0.3062060837900957	-0.1328053311743941	0.4128432920956311	0.102532791738115	0.4289880025484163
0.065625	0.3061226313721005	-0.1342416393686608	0.4137361543496226	0.1024574796568213	0.429592498064108
0.06625	0.3060382826996866	-0.1356733453143662	0.4146123503796385	0.1023813946988886	0.4301969935797997
0.066875	0.3059530406612881	-0.1371003927991576	0.4154721252578155	0.1023045324458827	0.4307749952318844
0.0675	0.3058669081896395	-0.1385227317150583	0.4163157026117377	0.1022268886158265	0.4313529968839693
0.068125	0.3057798882377126	-0.1399403149544459	0.4171433622204737	0.1021484590385398	0.4319068730737299
0.06875000000000001	0.3056919837953174	-0.1413531012133714	0.4179553600663961	0.1020692398358873	0.4324607492634904
0.06937500000000001	0.3056031978688675	-0.1427610519895043	0.4187520141561637	0.1019892273031182	0.4329931377450307
0.06999999999999999	0.3055135334946263	-0.1441641341457605	0.4195336161083525	0.1019084180876157	0.433525526226571
0.07062500000000001	0.3054229937221073	-0.145562317108826	0.4203005247547751	0.1018268090052182	0.4340393139769425
0.07125000000000001	0.3053315816242482	-0.1469555752339372	0.4210530697789482	0.1017443971480596	0.4345531017273139
0.07187500000000001	0.3052393002841635	-0.148343885242326	0.4217916545868935	0.1016611797076504	0.4350514773529251
0.0725	0.3051461528024387	-0.1497272284820323	0.422516650421037	0.1015771539787013	0.4355498529785363
0.073125	0.3050521422869542	-0.1511055885635268	0.4232285131212906	0.1014923172558233	0.436036473604229
0.07375000000000001	0.3049572718573654	-0.1524789536156801	0.4239276627887197	0.1014066667526675	0.4365230942299217
0.07437500000000001	0.3048615446378053	-0.1538473140251663	0.4246146206294089	0.1013201996057369	0.4370023057728319
0.07500000000000001	0.3047649637585234	-0.1552106647253688	0.4252898676040417	0.1012329127970572	0.4374815173157423
0.075625	0.3046675323514022	-0.1565690029392822	0.4259540052673363	0.1011448032452722	0.4379584842330971
0.07625	0.3045692535487535	-0.157922330413026	0.4266075893468017	0.1010558678699384	0.438435451150452
0.07687500000000001	0.3044701304816807	-0.1592706511234138	0.4272513147308863	0.1009661036704104	0.4389161442665814
0.07750000000000001	0.3043701662762199	-0.1606139732548704	0.4278858239766924	0.1008755080038227	0.4393968373827109
0.078125	0.3042693640545502	-0.1619523069642743	0.4285119156753863	0.1007840785022942	0.4398879900999679
0.07875	0.3041677269289192	-0.1632856659311095	0.4291303288523897	0.1006918134639168	0.440379142817225
0.079375	0.3040652580055072	-0.1646140653848	0.4297419759686727	0.1005987115555258	0.4408882865508186
0.08000000000000002	0.3039619603766914	-0.1659375232232347	0.4303477019636077	0.1005047721412878	0.4413974302844123
0.080625	0.3038578371271199	-0.1672560584668676	0.4309485447754016	0.1004099948934993	0.44193299107126
0.08125	0.3037528913247811	-0.1685696920786453	0.4315454660280588	0.1003143799671018	0.4424685518581077
0.081875	0.3036471260287348	-0.1698784458451988	0.4321396430978603	0.1002179276822318	0.4430399882518599
0.0825	0.3035405442792552	-0.1711823430650657	0.4327321672323229	0.1001206385464664	0.443611424645612
0.083125	0.3034331491067589	-0.1724814077261286	0.4333243756518014	0.1000225130873026	0.4442295303295425
0.08375	0.3033249435210936	-0.173775665206188	0.4339175081239951	0.09992355174629021	0.444847636013473
0.08437500000000001	0.3032159305213972	-0.1750651415846597	0.4345130897307713	0.09982375482495352	0.4455249154375011
0.08500000000000001	0.3031061130844099	-0.176349864536898	0.4351125346911873	0.09972312219068431	0.446202194861529
0.08562500000000001	0.3029954941751766	-0.1776298626338009	0.4357175913955049	0.09962165345295795	0.4469532670296936
0.08625000000000001	0.3028840767340875	-0.178905166475491	0.4363298813015482	0.09951934769737827	0.4477043391978582
0.08687500000000001	0.3027718636885728	-0.180175807793005	0.4369514218195673	0.09941620372927511	0.4485464837021452
0.08750000000000001	0.3026588579385694	-0.1814418208390933	0.437584083902574	0.09931221977016945	0.4493886282064323
0.08812500000000001	0.3025450623694816	-0.1827032412573515	0.4382302138134119	0.09920739372644634	0.4503425262304444
0.08875	0.3024304798357284	-0.1839601077683742	0.4388919872757497	0.09910172284449571	0.4512964242544565
0.08937500000000001	0.3023151131752772	-0.1852124607790621	0.4395721583028268	0.09899520401090321	0.452387155465872
0.09000000000000001	0.3021989651908752	-0.1864603444106529	0.4402732802264852	0.09888783335423834	0.4534778866772874
0.09062500000000001	0.3020820386665023	-0.1877038048126754	0.440998620894705	0.09877960658524072	0.4547363287301263
0.09125	0.301964336345822	-0.1889428925942765	0.4417512091089799	0.09867051852866297	0.4559947707829653
0.091875	0.3018458609509505	-0.190177660796334	0.442534975088593	0.09856056351442574	0.457459715986567
0.09250000000000001	0.3017266151575744	-0.1914081678089549	0.4433535600279074	0.09844973481515294	0.4589246611901687
0.09312500000000001	0.3016066016164997	-0.1926344749403501	0.444211766920951	0.09833802510415363	0.4606458891982285
0.09375	0.3014858229247609	-0.1938566499343014	0.4451140431339605	0.0982254257634162	0.4623671172062883
0.094375	0.3013642816505042	-0.1950747640530708	0.4460664225931871	0.09811192742367233	0.4644120661974485
0.095	0.3012419802992372	-0.1962888963671475	0.4470744886748393	0.09799751907258722	0.4664570151886087
0.09562500000000002	0.3011189213427199	-0.1974991302378857	0.4481459184426334	0.09788218873509082	0.4689146320327199
0.09625	0.3009951071792524	-0.1987055586080538	0.4492878096324276	0.09776592232443318	0.4713722488768313
0.096875	0.3008705401674414	-0.1999082797159584	0.450511310506757	0.0976487043410028	0.4744094112141544
0.0975	0.300745222578947	-0.2011074039942246	0.4518267188276453	0.09753051595913829	0.4774465735514775
0.098125	0.3006191566381339	-0.2023030487654669	0.4532455958414955	0.09741133679890975	0.4811293285484991
0.09875	0.3004923444652928	-0.2034953464839729	0.4547785991126136	0.09729114360276647	0.4848120835455207
0.099375	0.3003647881243049	-0.2046844379333926	0.4564689367967443	0.09716990768348674	0.4904155617430679
0.1	0.3002364895513058	-0.2058704889200777	0.4583564476275174	0.09704758360436601	0.4960190399406151
