{
  "type": "Feature",
  "properties": {
    "hole_number": 13,
    "par": 5,
    "yardage": 510,
    "name": "Augusta National — Hole 13 (Azalea)",
    "schema_version": "1.1"
  },
  "geometry": {
    "type": "GeometryCollection",
    "geometries": [
      {
        "type": "Point",
        "role": "tee",
        "coordinates": [-82.0229, 33.5031]
      },
      {
        "type": "Point",
        "role": "green_center",
        "coordinates": [-82.0185, 33.5012]
      },
      {
        "type": "Polygon",
        "role": "fairway",
        "coordinates": [
          [
            [-82.0228, 33.50295],
            [-82.0218, 33.50265],
            [-82.0205, 33.5022],
            [-82.0193, 33.5019],
            [-82.0187, 33.5015],
            [-82.01855, 33.5012],
            [-82.01865, 33.50095],
            [-82.019, 33.5009],
            [-82.0196, 33.501],
            [-82.0208, 33.5014],
            [-82.0222, 33.5019],
            [-82.023, 33.5025],
            [-82.02295, 33.50285],
            [-82.0228, 33.50295]
          ]
        ]
      },
      {
        "type": "Polygon",
        "role": "green",
        "coordinates": [
          [
            [-82.01875, 33.50145],
            [-82.01845, 33.50148],
            [-82.01825, 33.50138],
            [-82.0182, 33.50118],
            [-82.0183, 33.50098],
            [-82.01855, 33.5009],
            [-82.0188, 33.50098],
            [-82.01888, 33.50118],
            [-82.01875, 33.50145]
          ]
        ]
      },
      {
        "type": "Polygon",
        "role": "water",
        "coordinates": [
          [
            [-82.0194, 33.50165],
            [-82.0187, 33.50165],
            [-82.0184, 33.50145],
            [-82.0184, 33.5006],
            [-82.0196, 33.5006],
            [-82.0196, 33.5013],
            [-82.0194, 33.50165]
          ]
        ]
      },
      {
        "type": "Polygon",
        "role": "bunker",
        "coordinates": [
          [
            [-82.0187, 33.5016],
            [-82.01855, 33.50163],
            [-82.01845, 33.50154],
            [-82.0185, 33.50145],
            [-82.01865, 33.50142],
            [-82.01875, 33.5015],
            [-82.0187, 33.5016]
          ]
        ]
      }
    ]
  }
}
