{
  "type": "Feature",
  "properties": {
    "hole_number": 16,
    "par": 3,
    "yardage": 231,
    "name": "Cypress Point — Hole 16 (Clifftop Par 3)",
    "schema_version": "1.1"
  },
  "geometry": {
    "type": "GeometryCollection",
    "geometries": [
      {
        "type": "Point",
        "role": "tee",
        "coordinates": [-121.9684, 36.5731]
      },
      {
        "type": "Point",
        "role": "green_center",
        "coordinates": [-121.965, 36.5722]
      },
      {
        "type": "Polygon",
        "role": "green",
        "coordinates": [
          [
            [-121.9653, 36.5724],
            [-121.96495, 36.57242],
            [-121.96472, 36.5723],
            [-121.96468, 36.5721],
            [-121.9648, 36.57197],
            [-121.9651, 36.57193],
            [-121.96535, 36.57205],
            [-121.9654, 36.57222],
            [-121.9653, 36.5724]
          ]
        ]
      },
      {
        "type": "Polygon",
        "role": "bunker",
        "coordinates": [
          [
            [-121.9655, 36.5725],
            [-121.96525, 36.57255],
            [-121.9651, 36.57245],
            [-121.96515, 36.57232],
            [-121.96535, 36.57228],
            [-121.96552, 56.57238],
            [-121.9655, 36.5725]
          ]
        ]
      },
      {
        "type": "Polygon",
        "role": "rough",
        "coordinates": [
          [
            [-121.9658, 36.5727],
            [-121.9645, 36.5727],
            [-121.9645, 36.5717],
            [-121.9658, 36.5717],
            [-121.9658, 36.5727]
          ]
        ]
      },
      {
        "type": "Polygon",
        "role": "water",
        "coordinates": [
          [
            [-121.9684, 36.5733],
            [-121.9658, 36.5733],
            [-121.9644, 36.5727],
            [-121.9644, 36.5715],
            [-121.9684, 36.5715],
            [-121.9684, 36.5733]
          ]
        ]
      }
    ]
  }
}
