{
  "type": "Feature",
  "properties": {
    "hole_number": 7,
    "par": 3,
    "yardage": 106,
    "name": "Pebble Beach — Hole 7",
    "schema_version": "1.1"
  },
  "geometry": {
    "type": "GeometryCollection",
    "geometries": [
      {
        "type": "Point",
        "role": "tee",
        "coordinates": [-121.9488, 36.5689]
      },
      {
        "type": "Point",
        "role": "green_center",
        "coordinates": [-121.9487, 36.5682]
      },
      {
        "type": "Polygon",
        "role": "green",
        "coordinates": [
          [
            [-121.94895, 36.5684],
            [-121.94865, 36.56843],
            [-121.94845, 36.56832],
            [-121.9484, 36.56812],
            [-121.94852, 36.568],
            [-121.94878, 36.56797],
            [-121.94898, 36.56808],
            [-121.94903, 36.56825],
            [-121.94895, 36.5684]
          ]
        ]
      },
      {
        "type": "Polygon",
        "role": "bunker",
        "coordinates": [
          [
            [-121.9492, 36.5685],
            [-121.94895, 36.56855],
            [-121.9488, 36.56845],
            [-121.94885, 36.56832],
            [-121.94905, 36.56828],
            [-121.94922, 36.56838],
            [-121.9492, 36.5685]
          ]
        ]
      },
      {
        "type": "Polygon",
        "role": "rough",
        "coordinates": [
          [
            [-121.9494, 36.569],
            [-121.9482, 36.569],
            [-121.9482, 36.5678],
            [-121.9494, 36.5678],
            [-121.9494, 36.569]
          ]
        ]
      }
    ]
  }
}
