{
  "type": "Feature",
  "properties": {
    "hole_number": 17,
    "par": 4,
    "yardage": 455,
    "name": "St Andrews Old Course — Hole 17 (Road Hole)",
    "schema_version": "1.1"
  },
  "geometry": {
    "type": "GeometryCollection",
    "geometries": [
      {
        "type": "Point",
        "role": "tee",
        "coordinates": [-2.8029, 56.3407]
      },
      {
        "type": "Point",
        "role": "green_center",
        "coordinates": [-2.8054, 56.3417]
      },
      {
        "type": "Polygon",
        "role": "fairway",
        "coordinates": [
          [
            [-2.80295, 56.34065],
            [-2.8032, 56.3408],
            [-2.8036, 56.34105],
            [-2.8041, 56.3413],
            [-2.8046, 56.3415],
            [-2.8051, 56.3416],
            [-2.8054, 56.34162],
            [-2.8055, 56.34175],
            [-2.80535, 56.34183],
            [-2.8051, 56.3418],
            [-2.8046, 56.3417],
            [-2.8041, 56.34155],
            [-2.8036, 56.3413],
            [-2.8031, 56.34105],
            [-2.80275, 56.34082],
            [-2.8028, 56.34067],
            [-2.80295, 56.34065]
          ]
        ]
      },
      {
        "type": "Polygon",
        "role": "green",
        "coordinates": [
          [
            [-2.80558, 56.34182],
            [-2.8053, 56.34185],
            [-2.80512, 56.34177],
            [-2.8051, 56.34162],
            [-2.80525, 56.34153],
            [-2.80552, 56.34155],
            [-2.80565, 56.34165],
            [-2.80558, 56.34182]
          ]
        ]
      },
      {
        "type": "Polygon",
        "role": "bunker",
        "coordinates": [
          [
            [-2.80548, 56.34178],
            [-2.80532, 56.3418],
            [-2.80523, 56.34172],
            [-2.80528, 56.34162],
            [-2.80542, 56.34159],
            [-2.80552, 56.34167],
            [-2.80548, 56.34178]
          ]
        ]
      },
      {
        "type": "Polygon",
        "role": "ob",
        "coordinates": [
          [
            [-2.8056, 56.342],
            [-2.8047, 56.342],
            [-2.8047, 56.34185],
            [-2.8056, 56.34185],
            [-2.8056, 56.342]
          ]
        ]
      }
    ]
  }
}
