DataType=double
version=3
OpenSimVersion=4.6-2026-06-22-85aaf64
endheader
time	/forceset/tau_pelvis_tilt	/forceset/tau_pelvis_list	/forceset/tau_pelvis_rotation	/forceset/tau_pelvis_tx	/forceset/tau_pelvis_ty	/forceset/tau_pelvis_tz	/forceset/tau_hip_flexion_r	/forceset/tau_hip_adduction_r	/forceset/tau_hip_rotation_r	/forceset/tau_knee_angle_r	/forceset/tau_knee_angle_r_beta	/forceset/tau_ankle_angle_r	/forceset/tau_subtalar_angle_r	/forceset/tau_mtp_angle_r	/forceset/tau_hip_flexion_l	/forceset/tau_hip_adduction_l	/forceset/tau_hip_rotation_l	/forceset/tau_knee_angle_l	/forceset/tau_knee_angle_l_beta	/forceset/tau_ankle_angle_l	/forceset/tau_subtalar_angle_l	/forceset/tau_mtp_angle_l	/forceset/tau_lumbar_extension	/forceset/tau_lumbar_bending	/forceset/tau_lumbar_rotation	/forceset/tau_arm_flex_r	/forceset/tau_arm_add_r	/forceset/tau_arm_rot_r	/forceset/tau_elbow_flex_r	/forceset/tau_pro_sup_r	/forceset/tau_wrist_flex_r	/forceset/tau_wrist_dev_r	/forceset/tau_arm_flex_l	/forceset/tau_arm_add_l	/forceset/tau_arm_rot_l	/forceset/tau_elbow_flex_l	/forceset/tau_pro_sup_l	/forceset/tau_wrist_flex_l	/forceset/tau_wrist_dev_l
0	-0.005988055112610488	-0.007550512872879505	0.008721371102294614	0.01963265598218285	0.00430647601866953	-0.02854780312523903	-0.003603038900610941	-0.007811078398574346	-0.0001434282844061651	0.002833393095523344	-1.269330107836587e-06	-5.455168690074943e-06	-0.0002572972987254148	5.78225716531277e-06	-0.003291809172819511	0.007560109518168905	0.000984047795553635	0.003952038458780617	-6.137708991838547e-07	-0.0004143475701708424	0.0005694592062194685	-3.087575596525741e-06	0.01492418036310235	0.02737880666606691	0.02917714883920045	-0.02632589480622588	-0.02694651247471134	0.03707337317830264	0.04639596164999487	0.03954204388279309	0.03668369597199807	0.01413934662592335	0.002016656192820072	0.004146760755473037	0.002315500064532109	-0.001569122178256319	5.837658624440055e-06	-0.0002319207317113057	0.0002818472516005597
0.005000000000000001	-0.01554442786109093	-0.005040297001916772	0.001671777344164126	0.01801408632771491	0.01637982250336297	-0.01925408546066359	-0.003281786894161394	-0.007789277745929516	0.0001852541916626786	0.002962437473860456	-1.523221767167897e-06	0.0001089570981423992	-0.0002706721631857475	-1.144544511120986e-06	-0.004641705816378044	0.006852843014031096	0.0001677996469393539	0.004149674563783905	-1.071145818750581e-06	-0.0001426065927027717	0.0002736746644448947	-7.206177086561452e-06	0.0114983027663612	0.01834897895109138	0.0174972456810067	-0.01256853298259161	0.0013273789350466	0.01944486742575226	0.0148179578179972	0.01521245594547612	0.01114506966603684	0.01047341955159978	-0.0004304726443285488	-0.002275947170024602	-0.0006126307734438801	0.0004801803447797601	9.058699796570085e-07	4.958787251011188e-05	-5.317129786871997e-05
0.01	-0.02510080060957138	-0.00253008113095404	-0.005377816413966363	0.01639551667324696	0.0284531689880564	-0.009960367796088148	-0.002960534887711847	-0.007767477093284685	0.0005139366677315223	0.003091481852197568	-1.777113426499207e-06	0.0002233693649748734	-0.0002840470276460801	-8.071346187554741e-06	-0.005991602459936577	0.006145576509893287	-0.0006484485016749271	0.004347310668787191	-1.528520738317308e-06	0.000129134384765299	-2.210987732967901e-05	-1.132477857659716e-05	0.008072425169620055	0.009319151236115857	0.005817342522812954	0.001188828841042653	0.02960127034480454	0.001816361673201879	-0.01676004601400048	-0.009117131991840843	-0.01439355663992438	0.006807492477276204	-0.002877601481477169	-0.008698655095522241	-0.003540761611419869	0.002529482867815839	-4.025918665126038e-06	0.0003310964767315295	-0.0003881898473379997
0.015	-0.03927621326683843	-0.003356246778279113	-0.006421553415250267	0.005677680077891159	0.05058110928043932	-0.002296480864019213	-0.0003219856465526632	-0.00547136435185771	0.0002510280714808743	0.001592760663547931	-2.924921670331953e-06	0.0003804009997988976	-0.0002306682234294988	-1.43657759209753e-05	-0.002958562694119613	0.004177098454132553	-0.0002525021834418538	0.002728066929180018	-2.700431465067275e-06	0.0003138252014568201	-6.424522288582306e-05	-1.590287168699664e-05	-0.002975208941273065	-0.006057300012014608	-0.006563940866573533	-0.00340252311181487	0.02173345476695332	0.004981607553823804	-0.009601300171500097	-0.002812291209013799	-0.007418358139911455	0.007243929722542965	-0.001411847695123681	-0.004567893651609423	-0.001759878947576927	0.002312597380440749	2.601767030803162e-05	0.0002715704832392799	-0.0001840995386946274
0.02	-0.05345162592410548	-0.004182412425604186	-0.007465290416534171	-0.005040156517464641	0.07270904957282223	0.005367406068049723	0.00231656359460652	-0.003175251610430735	-1.188052476977376e-05	9.40394748982941e-05	-4.072729914164699e-06	0.0005374326346229218	-0.0001772894192129174	-2.066020565439586e-05	7.447707169735037e-05	0.00220862039837182	0.0001434441347912196	0.001108823189572844	-3.872342191817242e-06	0.0004985160181483412	-0.0001063805684419671	-2.048096479739613e-05	-0.01402284305216618	-0.02143375126014507	-0.01894522425596002	-0.007993875064672393	0.0138656391891021	0.008146853434445728	-0.002442554328999719	0.003492549573813245	-0.0004431596398985239	0.007680366967809726	5.390609122980759e-05	-0.0004371322076966055	2.100371626601403e-05	0.002095711893065659	5.606125928118928e-05	0.0002120444897470302	1.999076994874493e-05
0.025	-0.06750467851880933	-0.006490309784002487	-0.003465299651713078	-0.01189798572872926	0.09420955011915816	0.01263472463447585	0.00344911923979123	-0.0009769210803591015	-7.167396111692041e-05	-0.0005358016071302513	-5.094249687758658e-06	0.0007033422164827972	-0.0001636101264870059	-2.84177012076036e-05	0.002767021399572076	0.00152651181696672	6.682712540278259e-05	-0.0001526503367320234	-5.075086347126818e-06	0.0007531361994076788	-0.0002159369269494154	-2.686105291320406e-05	-0.02043666794017487	-0.03586470643137472	-0.02470767895047293	-0.004731173925070976	0.01237049931058562	0.002605152409336892	-0.006236000299070361	-0.0005576941309542035	-0.003366081841601721	0.004894270302483077	-0.0002497686778673413	0.0001948988791629186	2.031090166896916e-05	0.002614920492186313	7.027477698595538e-05	0.0002626557662450493	2.073748047418357e-05
0.03	-0.08155773111351318	-0.008798207142400788	0.0005346911131080155	-0.01875581493999388	0.1157100506654941	0.01990204320090198	0.004581674884975939	0.001221409449712531	-0.0001314673974640671	-0.001165642689158797	-6.115769461352618e-06	0.0008692517983426725	-0.0001499308337610943	-3.617519676081135e-05	0.0054595657274468	0.0008444032355616198	-9.789883985654381e-06	-0.001414123863036891	-6.277830502436394e-06	0.001007756380667016	-0.0003254932854568637	-3.3241141029012e-05	-0.02685049282818356	-0.05029566160260437	-0.03047013364498585	-0.001468472785469559	0.01087535943206914	-0.002936548615771944	-0.010029446269141	-0.004607937835721652	-0.006289004043304918	0.002108173637156428	-0.0005534434469644903	0.0008269299660224427	1.961808707192429e-05	0.003134129091306966	8.44882946907215e-05	0.0003132670427430684	2.14841909996222e-05
0.035	-0.09191891726295501	-0.01136866130405074	0.00626881356029684	-0.02116990588622826	0.1304556090850807	0.0210293954054981	0.004801181484780603	0.002366453724510977	-0.0002715441616980703	-0.00138744875866396	-6.970598537365726e-06	0.0009765430075957333	-0.000157820137359956	-4.050571789129209e-05	0.007209219026538475	0.001118293157602757	0.0001568439550565378	-0.002097815484491161	-7.157711899746793e-06	0.001141816000060061	-0.0003203846422770646	-3.845662726445138e-05	-0.02910437204958895	-0.05682699467009123	-0.02913746896020272	-0.003998054215773044	0.003539739419098275	-0.0001201489976038699	-0.003929732852542609	-0.0001415277338944683	-0.00167679421687907	0.002848298294307031	-9.370543876825382e-05	0.002437601914520903	0.0006856219539897719	0.0030819549577623	9.591400641938465e-05	0.0002873728463709748	9.958812912003368e-05
0.04000000000000001	-0.1022801034123968	-0.0139391154657007	0.01200293600748567	-0.02358399683246264	0.1452011675046673	0.02215674761009422	0.005020688084585267	0.003511497999309422	-0.0004116209259320735	-0.001609254828169123	-7.825427613378833e-06	0.001083834216848794	-0.0001657094409588177	-4.483623902177284e-05	0.008958872325630148	0.001392183079643894	0.0003234777940987299	-0.002781507105945429	-8.037593297057192e-06	0.001275875619453107	-0.0003152759990972655	-4.367211349989075e-05	-0.03135825127099433	-0.0633583277375781	-0.02780480427541959	-0.006527635646076528	-0.003795880593872588	0.002696250620564204	0.002169980564055784	0.004324882367932715	0.002935415609546778	0.003588422951457635	0.0003660325694279827	0.004048273863019362	0.001351625820907619	0.003029780824217634	0.0001073397181480478	0.0002614786499988812	0.0001776920672404452
0.04500000000000001	-0.1056719261939739	-0.01138898464473934	0.008535633386515135	-0.02674508595334187	0.1505130894853965	0.02449903995142213	0.006056553172067193	0.005181326632256388	-0.0004901860860953609	-0.002304100424551285	-8.088673183585633e-06	0.001160961656320332	-0.0001605448675868385	-4.779490130452245e-05	0.00975719117382973	0.001114047524719955	0.00025638719440434	-0.003293238410102803	-8.372421121488847e-06	0.001366974595986491	-0.0003589308478410678	-4.574194874937632e-05	-0.03589348415507183	-0.06754766439322329	-0.0347849459374631	-0.003136165939844278	-0.002895718723795385	-0.002244836580524716	0.0002180012433602927	0.001237783830485795	0.002098719017774909	-0.0009544873707042148	0.00035570602206262	0.003637594382144436	0.001199889670967485	0.003379093418129161	0.0001192684892177112	0.0003070099044530147	0.0001631114417633535
0.05	-0.109063748975551	-0.008838853823777984	0.005068330765544607	-0.02990617507422109	0.1558250114661257	0.02684133229275003	0.007092418259549118	0.006851155265203353	-0.0005687512462586482	-0.002998946020933446	-8.351918753792438e-06	0.00123808909579187	-0.0001553802942148593	-5.075356358727207e-05	0.01055551002202931	0.0008359119697960159	0.00018929659470995	-0.003804969714260176	-8.707248945920503e-06	0.001458073572519876	-0.0004025856965848702	-4.78117839988619e-05	-0.04042871703914933	-0.07173700104886849	-0.04176508759950662	0.0002553037663879712	-0.001995556853718182	-0.007185923781613637	-0.001733978077335199	-0.001849314706961125	0.00126202242600304	-0.005497397692866064	0.0003453794746972573	0.003226914901269509	0.001048153521027351	0.003728406012040688	0.0001311972602873746	0.0003525411589071481	0.0001485308162862617
0.05500000000000001	-0.1053722001726662	-0.005576324914233818	0.001253828524928313	-0.0289703360998428	0.1503570005442695	0.02463269303820982	0.007182054665705729	0.006388859101066797	-0.0001115476902337487	-0.002735306763259933	-8.140488705442522e-06	0.001166343017590348	-0.0001105610020893341	-4.963794778414722e-05	0.009864042303145384	0.001249511210192677	-0.0001613892222307649	-0.0036020456570242	-8.433474140875566e-06	0.001392404498781068	-0.0003854106217963444	-4.490973692538293e-05	-0.04075542278372375	-0.06686730217767563	-0.04495057596230592	0.006972573413938359	0.01357490678777792	-0.01542356609234503	-0.01522797021975007	-0.01236853143300149	-0.008197360703588192	-0.009667702851701758	-0.00166124450691181	0.001191278002793146	-0.000487209987323832	0.003917422950200522	9.64162615334178e-05	0.0003916933568024011	-3.437296986446996e-05
0.06	-0.1016806513697814	-0.002313796004689652	-0.002560673715687981	-0.02803449712546451	0.1448889896224133	0.02242405378366962	0.007271691071862341	0.005926562936930241	0.0003456558657911509	-0.002471667505586421	-7.929058657092604e-06	0.001094596939388826	-6.574170996380882e-05	-4.852233198102237e-05	0.009172574584261455	0.001663110450589338	-0.0005120750391714799	-0.003399121599788223	-8.15969933583063e-06	0.00132673542504226	-0.0003682355470078187	-4.200768985190396e-05	-0.04108212852829816	-0.06199760330648275	-0.04813606432510521	0.01368984306148875	0.02914537042927402	-0.02366120840307643	-0.02872196236216494	-0.02288774815904186	-0.01765674383317942	-0.01383800801053745	-0.003667868488520877	-0.0008443588956832172	-0.002022573495675016	0.004106439888360356	6.163526277946102e-05	0.0004308455546976541	-0.0002172767560152016
0.06499999999999999	-0.09213488635591546	-0.002547034384278609	-0.001543422218046334	-0.02178386297337371	0.1279770307474908	0.0120006647322928	0.005506050029159469	0.004221086915302189	-0.0003637925324899613	-0.002191451093082151	-7.048206550551481e-06	0.001024433479247812	-0.0001849151026285802	-4.056238832669026e-05	0.007837828509215458	0.001997226854955212	0.0001572171875038419	-0.002509845440581243	-7.197532470752774e-06	0.001145622889688956	-0.000245084755696217	-4.015638838846849e-05	-0.0350082173781049	-0.04928743182075041	-0.03627525734556307	-0.0093632216813604	0.003964966927964414	0.006573106582580762	0.002134905436873276	0.006127987173181857	0.003663076164283109	0.005835699808173194	0.0001613586207928833	0.003488878537033767	0.001084457046304954	0.002369633961402469	8.671458544510126e-05	0.0001924427863599838	0.0001477183523405057
0.06999999999999999	-0.08258912134204956	-0.002780272763867567	-0.0005261707204046861	-0.01553322882128291	0.1110650718725683	0.001577275680915988	0.003740408986456598	0.002515610893674138	-0.001073240930771073	-0.001911234680577882	-6.167354444010358e-06	0.0009542700191067964	-0.0003040884952933515	-3.260244467235816e-05	0.006503082434169463	0.002331343259321087	0.0008265094141791637	-0.001620569281374263	-6.235365605674917e-06	0.0009645103543356521	-0.0001219339643846153	-3.830508692503302e-05	-0.02893430622791164	-0.03657726033501808	-0.02441445036602094	-0.03241628642420954	-0.02121543657334519	0.03680742156823795	0.03299177323591149	0.03514372250540557	0.02498289616174565	0.02550940762688384	0.003990585730106643	0.007822115969750751	0.004191487588284922	0.0006328280344445819	0.0001117939081107415	-4.595998197768653e-05	0.000512713460696213
0.07500000000000001	-0.06708059049664175	0.005287266856886371	-0.01583057935677233	-0.01124177374845265	0.09119520209269102	0.008337049858866505	0.003275590833337541	0.003298313044499198	0.0001039240809386863	-0.000710807977299261	-5.179715966028038e-06	0.0007001903751773597	-7.757279570232603e-05	-3.116008510381329e-05	0.00238108798935237	0.001591175844046197	-7.57107049637985e-05	4.47365861837078e-05	-5.04192759578759e-06	0.0007252927549648619	-0.0002056740718100267	-2.586408941634278e-05	-0.02698770402282243	-0.03214632819412692	-0.03743428274427111	0.004095202178278091	0.02654600115229175	-0.008886325592614586	-0.01827349103682484	-0.01154577916435348	-0.01072737128635102	-0.003751363465682349	-0.002535645386297084	-0.0008769633433284952	-0.001317903590187542	0.00237405276892001	3.579137595692929e-05	0.0002386210851202607	-0.0001288387221477685
0.08000000000000002	-0.05157205965123395	0.01335480647764031	-0.03113498799313999	-0.006950318675622392	0.07132533231281374	0.01509682403681702	0.002810772680218484	0.004081015195324259	0.001281089092648446	0.0004896187259793602	-4.192077488045717e-06	0.0004461107312479229	0.0001489429038886995	-2.971772553526842e-05	-0.001740906455464723	0.0008510084287713076	-0.0009779308241067608	0.001710042453741678	-3.848489585900263e-06	0.0004860751555940717	-0.0002894141792354382	-1.342309190765255e-05	-0.02504110181773321	-0.02771539605323577	-0.05045411512252129	0.04060669078076573	0.07430743887792871	-0.05458007275346712	-0.06953875530956118	-0.05823528083411254	-0.04643763873444768	-0.03301213455824854	-0.009061876502700811	-0.009576042656407741	-0.006827294768660007	0.004115277503395438	-4.021115619688292e-05	0.0005232021522182079	-0.00077039090499175
0.08500000000000002	-0.03852178867782424	0.006351920774178055	-0.01839052679251485	0.006060353988704767	0.04633604685502893	-0.005973853287456666	-0.002697962563515437	-0.001951745766687238	-0.0002738189501954497	0.001943536437169638	-2.753455807482884e-06	0.0003372659955466901	-0.0001867179942726719	-1.341344024281598e-05	-0.002092810134550134	0.002095950478732272	0.0002512868557901681	0.002158976941151866	-2.616565251623395e-06	0.0003270443049919434	-6.783383372745495e-05	-1.643611274264282e-05	-0.007713782147357642	-0.004726700082823261	-0.01539997282556032	-0.006771415660084355	0.01724690643001868	0.009094645110075837	-0.001354472668556455	0.003385763878237136	-0.0003073914194091249	0.007069944610997997	0.0001830763460507508	-0.0004714360309365744	0.0001233793584893585	0.001135847662005009	3.488610893586251e-05	0.0001007388020957492	3.141108538751866e-05
0.09000000000000001	-0.02547151770441453	-0.0006509649292841967	-0.005646065591889713	0.01907102665303193	0.02134676139724411	-0.02704453061173035	-0.008206697807249358	-0.007984506728698736	-0.001828726993039346	0.003397454148359916	-1.31483412692005e-06	0.0002284212598454574	-0.0005223788924340432	2.890845049636469e-06	-0.002444713813635546	0.003340892528693236	0.001480504535687097	0.002607911428562053	-1.384640917346528e-06	0.0001680134543898151	0.0001537465117805283	-1.944913357763309e-05	0.009613537523017929	0.01826199588758925	0.01965416947140065	-0.05414952210093444	-0.03981362601789133	0.0727693629736188	0.06682980997244826	0.06500680859058681	0.04582285589562943	0.04715202378024453	0.009428029194802314	0.008633170594534592	0.007074053485638723	-0.00184358217938542	0.0001099833740686079	-0.0003217245480267095	0.0008332130757667873
0.095	-0.01394301446549266	0.003345146969056289	-0.009619000855181739	0.0124885450206943	0.01285130522279094	-0.009382132966375382	-0.00483606554942289	-0.004121510658557721	0.0001885253506523261	0.002854377683308141	-9.001303543393295e-07	8.942025731884416e-05	-0.0001608651778096716	-4.317556318349169e-06	-0.003402206677374838	0.002327304664403357	-0.000251858334632248	0.002185481675922688	-8.216299308034123e-07	5.25991449936362e-05	4.270288609363413e-06	-5.46560242348913e-06	0.006009304457156086	0.008533573404387962	0.001879077783731975	0.004567532538268855	0.02437184233695328	-0.002674374381353034	-0.01345516336240946	-0.009448645742873411	-0.01082223443462907	5.209126929877715e-05	-0.001523279697258164	-0.004552122888098928	-0.001942307199871379	0.001431841142125793	-4.405735855827944e-06	0.0001876507847874628	-0.0002231362963051969
0.1	-0.002414511226570797	0.007341258867396774	-0.01359193611847376	0.00590606338835668	0.004355849048337774	0.008280264678979592	-0.001465433291596419	-0.0002585145884167083	0.002205777694343998	0.002311301218256367	-4.854265817586095e-07	-4.958074520776905e-05	0.0002006485368146999	-1.152595768633481e-05	-0.00435969954111413	0.001313716800113479	-0.001984221204951593	0.001763051923283323	-2.586189442602964e-07	-6.281516440254266e-05	-0.0001452059345618014	8.517928730654834e-06	0.002405071391294242	-0.001194849078813328	-0.01589601390393671	0.06328458717747215	0.0885573106917979	-0.07811811173632487	-0.09374013669726719	-0.08390410007633363	-0.06746732476488757	-0.04704784124164698	-0.01247458858931864	-0.01773741637073245	-0.01095866788538148	0.004707264463637006	-0.0001187948457802638	0.000697026117601635	-0.001279485668377181
