replay
version=1
nRows=37
nColumns=40
inDegrees=no
endheader
time	/jointset/ground_pelvis/pelvis_tilt/value	/jointset/ground_pelvis/pelvis_list/value	/jointset/ground_pelvis/pelvis_rotation/value	/jointset/ground_pelvis/pelvis_tx/value	/jointset/ground_pelvis/pelvis_ty/value	/jointset/ground_pelvis/pelvis_tz/value	/jointset/hip_r/hip_flexion_r/value	/jointset/hip_r/hip_adduction_r/value	/jointset/hip_r/hip_rotation_r/value	/jointset/walker_knee_r/knee_angle_r/value	/jointset/patellofemoral_r/knee_angle_r_beta/value	/jointset/ankle_r/ankle_angle_r/value	/jointset/subtalar_r/subtalar_angle_r/value	/jointset/mtp_r/mtp_angle_r/value	/jointset/hip_l/hip_flexion_l/value	/jointset/hip_l/hip_adduction_l/value	/jointset/hip_l/hip_rotation_l/value	/jointset/walker_knee_l/knee_angle_l/value	/jointset/patellofemoral_l/knee_angle_l_beta/value	/jointset/ankle_l/ankle_angle_l/value	/jointset/subtalar_l/subtalar_angle_l/value	/jointset/mtp_l/mtp_angle_l/value	/jointset/back/lumbar_extension/value	/jointset/back/lumbar_bending/value	/jointset/back/lumbar_rotation/value	/jointset/acromial_r/arm_flex_r/value	/jointset/acromial_r/arm_add_r/value	/jointset/acromial_r/arm_rot_r/value	/jointset/elbow_r/elbow_flex_r/value	/jointset/radioulnar_r/pro_sup_r/value	/jointset/radius_hand_r/wrist_flex_r/value	/jointset/radius_hand_r/wrist_dev_r/value	/jointset/acromial_l/arm_flex_l/value	/jointset/acromial_l/arm_add_l/value	/jointset/acromial_l/arm_rot_l/value	/jointset/elbow_l/elbow_flex_l/value	/jointset/radioulnar_l/pro_sup_l/value	/jointset/radius_hand_l/wrist_flex_l/value	/jointset/radius_hand_l/wrist_dev_l/value
0	-0.1447829783	-0.1540222821	-0.3302292182	1.171958032	1.05258637	-0.09643914845	0.2150611217	0.15618574	0.2041070731	0.147493456	0.147493456	-0.1859323571	-0.1893397227	6.857213317e-07	0.1823132543	-0.1571402206	-0.2067419991	0.1429651917	0.1429651917	-0.05280447175	-0.1463079449	6.739386002e-07	0.2510091901	0.9410543571	-0.7953314723	-0.8095493174	-1.299404343	-1.083478787	0.629530099	0.2010707481	0.4740271827	-0.7786500158	-0.003008472706	0.7103264844	-1.042483728	1.710799808	0.1964445088	1.438872391e-05	-5.212770599e-06
0.002777778	-0.1448399056	-0.1540951595	-0.3302145211	1.172007869	1.053583776	-0.0964828665	0.2150673838	0.1561478129	0.2041257421	0.1475036352	0.1475036352	-0.1859172337	-0.1893459293	6.193637094e-07	0.1823158308	-0.1571372336	-0.2067507199	0.1429480912	0.1429480912	-0.05277074035	-0.1463765624	6.238461322e-07	0.2510507929	0.9410483626	-0.7953253331	-0.8096774315	-1.299575199	-1.08353821	0.6294136998	0.2010537493	0.473831483	-0.779226969	-0.003017139301	0.7103412726	-1.042475411	1.710800649	0.1964403369	1.416877857e-05	-8.793225998e-06
0.005555556	-0.1449015745	-0.154178121	-0.3302080824	1.172062921	1.054510199	-0.0965339675	0.2150667899	0.1561013546	0.2041349501	0.1475138998	0.1475138998	-0.1859151781	-0.1893353806	5.097647041e-07	0.1823126068	-0.1571279898	-0.2067324232	0.1429391853	0.1429391853	-0.05275484017	-0.1463992816	5.502234428e-07	0.2510953048	0.9410751924	-0.7953332078	-0.8098250335	-1.299717722	-1.083473711	0.6293467101	0.2012255056	0.4737304488	-0.7799972688	-0.003019176985	0.7103772895	-1.042455645	1.71079664	0.1964369746	1.297199821e-05	-1.001708811e-05
0.008333333	-0.1449674845	-0.1542681935	-0.3302056711	1.172123376	1.055366495	-0.09659104813	0.2150586093	0.1560456208	0.2041421368	0.147524188	0.147524188	-0.1859177498	-0.1893205081	3.933680248e-07	0.1823025934	-0.1571112834	-0.2067041042	0.1429365312	0.1429365312	-0.05274789255	-0.1464015082	4.734770807e-07	0.2511462592	0.9411260826	-0.7953401416	-0.8099718068	-1.299827589	-1.083355686	0.6293065744	0.2014305884	0.4737087147	-0.7808104237	-0.003017581325	0.7104173628	-1.042433406	1.710792502	0.1964329391	1.140891214e-05	-9.986091153e-06
0.011111111	-0.1450371796	-0.154362431	-0.3302031277	1.172189402	1.05615353	-0.09665270309	0.2150421899	0.1559799309	0.2041546322	0.1475344441	0.1475344441	-0.1859166412	-0.1893135556	3.029571034e-07	0.1822848836	-0.1570859791	-0.2066825242	0.1429382195	0.1429382195	-0.05274112548	-0.1464083042	4.156013729e-07	0.2512071931	0.9411923702	-0.7953314267	-0.810098298	-1.299900805	-1.083254319	0.6292690771	0.2015643057	0.4737112097	-0.7815422381	-0.003015322454	0.7104445719	-1.042417529	1.710792886	0.1964267689	1.008072537e-05	-9.781073944e-06
0.013888889	-0.1451097428	-0.1544589088	-0.3301986925	1.172260398	1.056872766	-0.09671744011	0.2150176719	0.1559053632	0.2041754291	0.1475444787	0.1475444787	-0.1859083953	-0.1893190783	2.454283472e-07	0.1822594207	-0.1570529198	-0.2066750361	0.142943198	0.142943198	-0.05273059854	-0.1464306641	3.76740604e-07	0.2512787184	0.9412684377	-0.7953023967	-0.8101982739	-1.299937334	-1.083201221	0.6292197674	0.2016069896	0.4736913586	-0.7821484535	-0.003014043422	0.7104516248	-1.042411603	1.710799766	0.1964176242	9.240406989e-06	-9.947209035e-06
0.016666667	-0.1451836268	-0.1545570294	-0.3301937364	1.172334758	1.057526443	-0.09678365261	0.2149861997	0.1558252773	0.2042018859	0.1475539317	0.1475539317	-0.1858958541	-0.1893316205	2.018455219e-07	0.1822272217	-0.1570155149	-0.2066767561	0.1429515232	0.1429515232	-0.05271866486	-0.146461259	3.372976464e-07	0.2513575809	0.9413526225	-0.7952614414	-0.8102826023	-1.299942114	-1.083176988	0.6291589856	0.2015987147	0.4736553633	-0.782663823	-0.003013655752	0.7104437565	-1.042412398	1.71081163	0.1964054677	8.689487406e-06	-1.033965385e-05
0.019444444	-0.1452572716	-0.1546562797	-0.3301898469	1.172410811	1.058116852	-0.09684972522	0.2149490223	0.1557431947	0.2042310033	0.1475624494	0.1475624494	-0.1858822582	-0.1893450869	1.597765852e-07	0.182189408	-0.1569773538	-0.2066820149	0.1429633373	0.1429633373	-0.05270806748	-0.1464915592	2.908758737e-07	0.2514402995	0.9414435327	-0.7952177911	-0.8103634214	-1.299920366	-1.083158769	0.629088566	0.2015716269	0.4736223758	-0.7831225222	-0.003013962369	0.7104270181	-1.042416236	1.710826728	0.1963903127	8.213766296e-06	-1.077180124e-05
0.022222222	-0.1453291264	-0.1547560397	-0.3301884557	1.172486942	1.058646278	-0.09691409757	0.2149073274	0.1556624221	0.2042601507	0.1475697451	0.1475697451	-0.1858704634	-0.1893540878	1.157035582e-07	0.1821470832	-0.156941729	-0.206685836	0.142978731	0.142978731	-0.05270119025	-0.146514158	2.445180099e-07	0.2515235041	0.9415396873	-0.795179808	-0.8104514456	-1.299877326	-1.08312678	0.6290102456	0.2015456993	0.4736160026	-0.7835500201	-0.003014893178	0.7104069122	-1.04241979	1.710843462	0.1963722125	7.639489729e-06	-1.108342186e-05
0.025	-0.1453975225	-0.154854913	-0.3301897693	1.172561974	1.059117008	-0.09697562215	0.2148615892	0.1555845984	0.204289369	0.1475759024	0.1475759024	-0.1858605746	-0.1893583524	6.769928496e-08	0.1821009814	-0.1569096575	-0.2066882905	0.1429973137	0.1429973137	-0.05269790818	-0.1465299703	2.007583272e-07	0.2516044751	0.9416388565	-0.7951494972	-0.8105462978	-1.299818576	-1.083084648	0.6289220053	0.2015174044	0.4736390667	-0.7839398391	-0.003017277413	0.7103848826	-1.042422313	1.710861406	0.1963515118	6.985357735e-06	-1.130475017e-05
0.027777778	-0.1454607414	-0.1549511535	-0.3301934498	1.172634919	1.059531325	-0.09703333613	0.2148119686	0.1555106166	0.2043199036	0.1475811787	0.1475811787	-0.185851459	-0.1893599146	1.83486637e-08	0.1820516748	-0.1568811376	-0.2066917208	0.1430184817	0.1430184817	-0.05269696433	-0.1465436403	1.596285913e-07	0.2516807791	0.9417384749	-0.7951260048	-0.8106424781	-1.299749875	-1.083046557	0.6288199321	0.2014764868	0.4736820302	-0.7842729352	-0.003022346996	0.7103605508	-1.042424226	1.71088066	0.1963286844	6.35829742e-06	-1.155559534e-05
0.030555556	-0.1455170763	-0.1550430136	-0.3301991693	1.172704795	1.05989151	-0.09708627748	0.2147586443	0.1554413734	0.2043530112	0.1475858451	0.1475858451	-0.1858419741	-0.1893608259	-2.272687985e-08	0.1819997482	-0.1568561691	-0.2066984839	0.1430416368	0.1430416368	-0.05269708636	-0.1465598111	1.236670227e-07	0.2517499829	0.9418359834	-0.7951084592	-0.810734263	-1.299676997	-1.083026731	0.628699962	0.2014150042	0.4737335518	-0.7845312314	-0.003031333221	0.7103335349	-1.042425953	1.710901325	0.1963042024	5.871982847e-06	-1.196112989e-05
0.033333333	-0.1455655639	-0.1551290627	-0.3302072124	1.172770753	1.060199663	-0.0971337164	0.2147022648	0.1553777326	0.2043892515	0.1475901217	0.1475901217	-0.1858317393	-0.1893619752	-4.809651796e-08	0.1819461368	-0.1568347875	-0.2067094493	0.1430661778	0.1430661778	-0.05269742224	-0.1465809512	9.563335165e-08	0.251810121	0.9419299662	-0.7950969082	-0.8108172087	-1.299605084	-1.083031962	0.6285615359	0.2013346932	0.4737849269	-0.7847073166	-0.003044965115	0.7103046452	-1.042427238	1.710922879	0.1962784914	5.585683218e-06	-1.25714373e-05
0.036111111	-0.1456068847	-0.1552085784	-0.3302192225	1.172832259	1.060457471	-0.09717544296	0.2146445026	0.1553204754	0.2044276242	0.1475940973	0.1475940973	-0.1858220855	-0.1893616391	-6.465548674e-08	0.1818925367	-0.1568170977	-0.2067221584	0.1430914852	0.1430914852	-0.05269807654	-0.1466046875	7.508965815e-08	0.2518602676	0.9420215581	-0.7950934484	-0.8108901041	-1.299537849	-1.083052415	0.6284122196	0.2012547582	0.4738364846	-0.7848158342	-0.003062851427	0.7102773535	-1.042426289	1.710943418	0.1962518779	5.427390015e-06	-1.325906766e-05
0.038888889	-0.1456419318	-0.1552809322	-0.3302370418	1.172888817	1.060666566	-0.09721131613	0.2145871614	0.1552703707	0.2044669344	0.1475978474	0.1475978474	-0.1858145739	-0.1893577416	-7.998163576e-08	0.1818407299	-0.156803211	-0.206733722	0.1431169282	0.1431169282	-0.05269928666	-0.1466279865	5.836256792e-08	0.2518996019	0.942112238	-0.7951004204	-0.8109522091	-1.29947879	-1.083076012	0.628260797	0.2011949341	0.4738912477	-0.7848735203	-0.003084447735	0.7102554916	-1.042421106	1.710960847	0.1962246769	5.307272761e-06	-1.386900404e-05
0.041666667	-0.1456715522	-0.1553454604	-0.3302624662	1.172939931	1.060828542	-0.09724118576	0.2145320168	0.1552281575	0.2045060469	0.1476014339	0.1476014339	-0.1858106532	-0.1893483838	-1.002196486e-07	0.1817924545	-0.1567932053	-0.2067414452	0.1431418701	0.1431418701	-0.05270124778	-0.1466479959	3.892947022e-08	0.2519272795	0.9422034092	-0.795120065	-0.8110029832	-1.299431199	-1.083091126	0.6281160802	0.2011728986	0.4739528658	-0.7848965826	-0.003109238784	0.7102426445	-1.042409806	1.710973204	0.196197246	5.139099769e-06	-1.424980438e-05
0.044444444	-0.1456960483	-0.1554009815	-0.3302963441	1.172985098	1.060944394	-0.09726478213	0.2144805732	0.155194129	0.2045444634	0.1476046691	0.1476046691	-0.1858100592	-0.1893343367	-1.221224339e-07	0.1817490869	-0.1567866788	-0.2067452975	0.1431657371	0.1431657371	-0.05270345532	-0.1466647328	1.757538654e-08	0.2519426906	0.9422953117	-0.7951536422	-0.8110446403	-1.29939558	-1.083092636	0.627985969	0.2011896327	0.4740227269	-0.7849005391	-0.00313720496	0.7102386446	-1.042392274	1.710980476	0.1961705625	4.914992671e-06	-1.436348744e-05
0.047222222	-0.1457153059	-0.1554459193	-0.3303387834	1.173023804	1.061014651	-0.09728174453	0.2144341239	0.1551682362	0.2045821639	0.1476071668	0.1476071668	-0.1858112128	-0.1893184255	-1.377355037e-07	0.1817117288	-0.1567828631	-0.2067472849	0.1431880072	0.1431880072	-0.05270486582	-0.1466804248	3.345119388e-10	0.2519454244	0.9423872913	-0.7952016807	-0.8110814524	-1.299370294	-1.08308043	0.6278776143	0.2012338167	0.4741000784	-0.7849005936	-0.003168706763	0.7102404369	-1.04236975	1.710984147	0.1961460788	4.68574435e-06	-1.426291332e-05
0.05	-0.1457291935	-0.1554786939	-0.3303898669	1.17305554	1.061039833	-0.09729171062	0.2143939433	0.1551504226	0.2046191346	0.147608528	0.147608528	-0.1858125094	-0.1893035242	-1.437354822e-07	0.1816814655	-0.1567809829	-0.2067494578	0.1432081556	0.1432081556	-0.05270442543	-0.1466973541	-1.027443145e-08	0.2519350753	0.9424786741	-0.7952647015	-0.8111176802	-1.299353643	-1.083054545	0.6277981136	0.2012943242	0.4741837594	-0.7849121198	-0.003204109212	0.7102448937	-1.042343511	1.710985738	0.1961252583	4.498766284e-06	-1.400471267e-05
0.052777778	-0.1457371286	-0.1554984851	-0.3304483199	1.173079902	1.061020315	-0.09729457702	0.214360481	0.1551405388	0.2046558409	0.1476083521	0.1476083521	-0.1858127965	-0.1892913112	-1.405674576e-07	0.1816589767	-0.1567803659	-0.2067536611	0.1432259044	0.1432259044	-0.05270159206	-0.1467170268	-1.402739266e-08	0.2519114076	0.9425689404	-0.7953421254	-0.8111569192	-1.299342523	-1.083017452	0.6277470465	0.2013578558	0.4742722757	-0.7849471717	-0.0032438597	0.710249008	-1.042314939	1.710986713	0.196108655	4.405580483e-06	-1.365215358e-05
0.055555556	-0.145736752	-0.1555074933	-0.3305074566	1.173096929	1.060955889	-0.09729127403	0.2143309379	0.15513806	0.2046946832	0.1476062594	0.1476062594	-0.1858127058	-0.1892786936	-1.262507505e-07	0.1816433597	-0.1567807464	-0.2067609343	0.1432419788	0.1432419788	-0.05269785932	-0.1467378469	-6.485856735e-09	0.2518748713	0.9426581814	-0.79542894	-0.8112002116	-1.299328186	-1.082981319	0.6276940412	0.20140116	0.4743637141	-0.7850040177	-0.003288751234	0.7102502564	-1.042285831	1.710988289	0.1960931828	4.489063011e-06	-1.329396221e-05
0.058333333	-0.1457252536	-0.1555086733	-0.3305592261	1.173106766	1.060846204	-0.09728299161	0.2143016906	0.1551423601	0.2047385347	0.1476018669	0.1476018669	-0.1858133187	-0.1892613778	-1.031913341e-07	0.1816333101	-0.1567819535	-0.206772103	0.1432573526	0.1432573526	-0.05269523935	-0.1467574529	1.418848029e-08	0.2518260985	0.942746635	-0.7955190462	-0.8112478619	-1.299300482	-1.082960721	0.6276011691	0.2013995574	0.4744552185	-0.785077935	-0.003339663818	0.7102462358	-1.04225809	1.710991623	0.1960748453	4.835689219e-06	-1.302472282e-05
0.061111111	-0.1456999097	-0.1555049095	-0.3305958224	1.173109565	1.060690889	-0.09727090746	0.2142692159	0.1551527925	0.2047901706	0.1475948067	0.1475948067	-0.1858157058	-0.1892351692	-7.721144024e-08	0.1816275495	-0.1567837905	-0.2067879393	0.1432729795	0.1432729795	-0.05269571151	-0.1467735333	4.483784393e-08	0.2517656804	0.9428345547	-0.7956065696	-0.811299958	-1.299249548	-1.082969622	0.6274315971	0.2013312057	0.4745426584	-0.7851649094	-0.003397414413	0.7102346728	-1.042233587	1.710997808	0.1960497341	5.523044853e-06	-1.293747618e-05
0.063888889	-0.1456616809	-0.1554965436	-0.3306194673	1.173105636	1.060488834	-0.09725567202	0.2142342742	0.1551684323	0.2048490792	0.1475855851	0.1475855851	-0.1858204784	-0.1892000499	-5.040067362e-08	0.1816260419	-0.1567855825	-0.2068077342	0.1432891655	0.1432891655	-0.05269945656	-0.146785101	7.864661207e-08	0.2516921883	0.9429232127	-0.7956932524	-0.8113566669	-1.299176265	-1.082999267	0.6271961564	0.2012111573	0.4746285861	-0.7852589551	-0.003460363959	0.7102183609	-1.042212709	1.711005356	0.1960174204	6.449664268e-06	-1.294507294e-05
0.066666667	-0.1456163244	-0.155480621	-0.3306454242	1.173095498	1.060237971	-0.09723724986	0.2142031999	0.1551880072	0.2049104942	0.1475758492	0.1475758492	-0.1858276535	-0.189161428	-1.877196943e-08	0.1816303694	-0.1567860473	-0.2068288712	0.1433053752	0.1433053752	-0.05270430573	-0.1467928761	1.09801522e-07	0.2516015524	0.9430152191	-0.7957906841	-0.8114189103	-1.299095417	-1.083011354	0.6269679953	0.2010969275	0.4747283705	-0.7853494019	-0.003523682201	0.710206681	-1.042193897	1.711009431	0.1959820044	7.289897715e-06	-1.271046508e-05
0.069444444	-0.1455699269	-0.1554539717	-0.3306898417	1.173079684	1.059936169	-0.09721555961	0.214182705	0.1552102295	0.2049693703	0.1475673212	0.1475673212	-0.185837211	-0.1891250685	2.073440017e-08	0.1816422249	-0.1567838719	-0.2068486138	0.1433210142	0.1433210142	-0.05270792544	-0.1467976903	1.373132406e-07	0.2514895113	0.9431132861	-0.7959110762	-0.8114884801	-1.299022697	-1.082965501	0.6268249092	0.2010426282	0.4748629134	-0.78542292	-0.003582320552	0.7102094633	-1.042175445	1.711004975	0.1959479	7.706389095e-06	-1.186136788e-05
0.072222222	-0.1455274074	-0.1554144538	-0.330765564	1.173058841	1.059581345	-0.0971905912	0.2141776134	0.1552342043	0.2050219729	0.1475612014	0.1475612014	-0.1858490049	-0.1890954896	6.808194174e-08	0.1816624476	-0.156778238	-0.2068647549	0.1433357472	0.1433357472	-0.05270860768	-0.1468003394	1.683247633e-07	0.2513530582	0.9432198437	-0.7960636391	-0.8115673765	-1.298969977	-1.082831013	0.6268268919	0.2010844257	0.475053807	-0.7854658454	-0.003632735919	0.7102342591	-1.042155742	1.710987974	0.1959186429	7.442297631e-06	-1.010053616e-05
0.075	-0.1454850159	-0.155367416	-0.3308609477	1.173034463	1.059171795	-0.09716286073	0.2141788164	0.1552618103	0.2050741843	0.1475548534	0.1475548534	-0.1858619065	-0.1890680309	1.190671058e-07	0.1816855856	-0.1567718431	-0.2068789235	0.143351162	0.143351162	-0.0527093704	-0.1468014284	2.117691677e-07	0.2511985871	0.9433350991	-0.7962357114	-0.8116527652	-1.298920827	-1.082649065	0.6268992533	0.2011683693	0.4752966094	-0.7854774322	-0.003682588848	0.7102717825	-1.042134029	1.71096209	0.1958912515	6.897472896e-06	-7.778034119e-06
0.077777778	-0.1454351166	-0.1553215507	-0.3309533153	1.173008423	1.058705984	-0.09713312309	0.2141709597	0.1552961381	0.2051361485	0.1475439067	0.1475439067	-0.1858743374	-0.189033919	1.687137521e-07	0.1817033916	-0.1567689305	-0.2068944101	0.1433697239	0.1433697239	-0.0527153681	-0.1468015024	2.701122984e-07	0.2510368001	0.9434582336	-0.7964049428	-0.8117384491	-1.298845998	-1.082493266	0.6269065205	0.2012053812	0.4755716932	-0.7854641287	-0.003744591877	0.7103052005	-1.042109949	1.710934406	0.1958598234	6.795367421e-06	-5.538409223e-06
0.080555556	-0.1453700858	-0.1552855202	-0.3310199252	1.172982599	1.058182377	-0.09710213775	0.2141387087	0.1553402274	0.205217931	0.1475239796	0.1475239796	-0.1858847039	-0.1889843925	2.163741901e-07	0.1817076657	-0.1567736951	-0.2069144236	0.1433939176	0.1433939176	-0.05273176988	-0.1468011498	3.394803787e-07	0.2508785311	0.9435883845	-0.7965491529	-0.8118166275	-1.298716089	-1.082437379	0.6267128835	0.2011099296	0.4758576682	-0.785432531	-0.003831482572	0.7103176897	-1.042083168	1.710911979	0.1958184606	7.897880838e-06	-4.034921214e-06
0.083333333	-0.1452889831	-0.1552624108	-0.3310541323	1.172958507	1.057598835	-0.09707049016	0.214076838	0.1553941752	0.2053227603	0.1474938612	0.1474938612	-0.1858921407	-0.1889173292	2.676824375e-07	0.1816950529	-0.1567870867	-0.2069405048	0.1434240545	0.1434240545	-0.05275956212	-0.1468022502	4.013589681e-07	0.2507296746	0.9437258103	-0.796658119	-0.8118811661	-1.298517534	-1.08250571	0.6262750457	0.200855349	0.4761410745	-0.7853876041	-0.00394738475	0.7103036178	-1.042052957	1.710897422	0.195765685	1.042941486e-05	-3.629752252e-06
0.086111111	-0.1452059047	-0.1552428723	-0.3310855359	1.172936864	1.056951874	-0.09703836759	0.2140028176	0.1554516009	0.2054386896	0.1474594762	0.1474594762	-0.1858974579	-0.1888454582	3.264218226e-07	0.1816730337	-0.1568028973	-0.2069706265	0.1434555341	0.1434555341	-0.05279029456	-0.1468094977	4.280155281e-07	0.2505848538	0.9438734208	-0.7967480102	-0.8119349952	-1.298272356	-1.082611621	0.6257585663	0.2005421254	0.4764265053	-0.785333169	-0.004077074374	0.7102824729	-1.042017592	1.710883418	0.1957099585	1.338120138e-05	-3.955530553e-06
0.088888889	-0.1451370788	-0.1552159194	-0.3311486564	1.172918282	1.056237824	-0.09700590302	0.2139372627	0.1555053301	0.2055517836	0.1474277193	0.1474277193	-0.1859017077	-0.1887834685	3.905016258e-07	0.1816506363	-0.1568140374	-0.2070023308	0.1434831075	0.1434831075	-0.05281419931	-0.1468279438	4.253896779e-07	0.2504372385	0.9440345889	-0.7968383373	-0.8119868578	-1.298007317	-1.082653852	0.6253583152	0.2002850066	0.4767201701	-0.7852753184	-0.004202749565	0.7102771547	-1.041975102	1.710861303	0.195661114	1.56114492e-05	-4.475277883e-06
0.091666667	-0.1450977285	-0.155171481	-0.3312752259	1.172903365	1.055453129	-0.09697328638	0.2138993849	0.1555486963	0.2056491107	0.1474049499	0.1474049499	-0.1859057962	-0.188745026	4.494055787e-07	0.1816364399	-0.1568139672	-0.2070334204	0.1435018934	0.1435018934	-0.05282219831	-0.1468622129	4.387209568e-07	0.2502808797	0.9442125255	-0.7969467306	-0.8120495808	-1.297747049	-1.082539577	0.6252557111	0.2001869545	0.4770251811	-0.7852222607	-0.004307793723	0.7103087768	-1.041923765	1.71082322	0.1956282977	1.608176481e-05	-4.59864939e-06
0.094444444	-0.1450859843	-0.1551127187	-0.3314539615	1.172892468	1.054596113	-0.09694157241	0.213885499	0.1555813915	0.2057321501	0.1473892948	0.1473892948	-0.1859080473	-0.188728972	4.927743997e-07	0.1816305986	-0.156803092	-0.207064867	0.1435123809	0.1435123809	-0.05281645286	-0.1469107881	5.070350736e-07	0.2501220539	0.9444060397	-0.7970658104	-0.8121192073	-1.297485056	-1.082294805	0.6254066317	0.2002078773	0.4773219003	-0.7851704638	-0.004393264995	0.7103708441	-1.041867599	1.710773828	0.1956097289	1.497877521e-05	-4.078722264e-06
0.097222222	-0.1450866839	-0.1550529425	-0.3316403533	1.172885747	1.053666553	-0.09691248206	0.2138741687	0.1556079025	0.2058134067	0.147372523	0.147372523	-0.1859047688	-0.1887227873	5.248829967e-07	0.1816266823	-0.1567870626	-0.2070999998	0.1435191978	0.1435191978	-0.05280784791	-0.1469674412	6.109351289e-07	0.2499764308	0.9446103905	-0.7971692254	-0.8121724678	-1.297190624	-1.082036665	0.6255916875	0.2002005094	0.4775750959	-0.7851037665	-0.004473860485	0.7104355616	-1.041815193	1.710727443	0.1955951946	1.347083363e-05	-2.980287084e-06
0.1	-0.1450842038	-0.1550056869	-0.3317889175	1.172883353	1.052664273	-0.09688775365	0.2138433883	0.1556327415	0.2059055967	0.1473462179	0.1473462179	-0.1858921856	-0.1887137198	5.686293489e-07	0.1816180114	-0.1567715676	-0.2071421188	0.1435270912	0.1435270912	-0.05280755973	-0.1470258349	6.751011386e-07	0.2498599319	0.9448205801	-0.7972304263	-0.8121793811	-1.296832046	-1.08188428	0.6255856148	0.200015623	0.4777527375	-0.7850012233	-0.004564677013	0.7104745488	-1.041775402	1.710698644	0.1955742601	1.282657868e-05	-1.401816939e-06
