inDegrees=no
DataType=double
version=3
OpenSimVersion=4.6-2026-06-22-85aaf64
endheader
time	/jointset/ground_pelvis/pelvis_tilt/value	/jointset/ground_pelvis/pelvis_list/value	/jointset/ground_pelvis/pelvis_rotation/value	/jointset/ground_pelvis/pelvis_tx/value	/jointset/ground_pelvis/pelvis_ty/value	/jointset/ground_pelvis/pelvis_tz/value	/jointset/hip_r/hip_flexion_r/value	/jointset/hip_r/hip_adduction_r/value	/jointset/hip_r/hip_rotation_r/value	/jointset/hip_l/hip_flexion_l/value	/jointset/hip_l/hip_adduction_l/value	/jointset/hip_l/hip_rotation_l/value	/jointset/back/lumbar_extension/value	/jointset/back/lumbar_bending/value	/jointset/back/lumbar_rotation/value	/jointset/walker_knee_r/knee_angle_r/value	/jointset/patellofemoral_r/knee_angle_r_beta/value	/jointset/walker_knee_l/knee_angle_l/value	/jointset/patellofemoral_l/knee_angle_l_beta/value	/jointset/acromial_r/arm_flex_r/value	/jointset/acromial_r/arm_add_r/value	/jointset/acromial_r/arm_rot_r/value	/jointset/acromial_l/arm_flex_l/value	/jointset/acromial_l/arm_add_l/value	/jointset/acromial_l/arm_rot_l/value	/jointset/ankle_r/ankle_angle_r/value	/jointset/ankle_l/ankle_angle_l/value	/jointset/elbow_r/elbow_flex_r/value	/jointset/elbow_l/elbow_flex_l/value	/jointset/subtalar_r/subtalar_angle_r/value	/jointset/subtalar_l/subtalar_angle_l/value	/jointset/radioulnar_r/pro_sup_r/value	/jointset/radioulnar_l/pro_sup_l/value	/jointset/mtp_r/mtp_angle_r/value	/jointset/mtp_l/mtp_angle_l/value	/jointset/radius_hand_r/wrist_flex_r/value	/jointset/radius_hand_r/wrist_dev_r/value	/jointset/radius_hand_l/wrist_flex_l/value	/jointset/radius_hand_l/wrist_dev_l/value	/jointset/ground_pelvis/pelvis_tilt/speed	/jointset/ground_pelvis/pelvis_list/speed	/jointset/ground_pelvis/pelvis_rotation/speed	/jointset/ground_pelvis/pelvis_tx/speed	/jointset/ground_pelvis/pelvis_ty/speed	/jointset/ground_pelvis/pelvis_tz/speed	/jointset/hip_r/hip_flexion_r/speed	/jointset/hip_r/hip_adduction_r/speed	/jointset/hip_r/hip_rotation_r/speed	/jointset/hip_l/hip_flexion_l/speed	/jointset/hip_l/hip_adduction_l/speed	/jointset/hip_l/hip_rotation_l/speed	/jointset/back/lumbar_extension/speed	/jointset/back/lumbar_bending/speed	/jointset/back/lumbar_rotation/speed	/jointset/walker_knee_r/knee_angle_r/speed	/jointset/patellofemoral_r/knee_angle_r_beta/speed	/jointset/walker_knee_l/knee_angle_l/speed	/jointset/patellofemoral_l/knee_angle_l_beta/speed	/jointset/acromial_r/arm_flex_r/speed	/jointset/acromial_r/arm_add_r/speed	/jointset/acromial_r/arm_rot_r/speed	/jointset/acromial_l/arm_flex_l/speed	/jointset/acromial_l/arm_add_l/speed	/jointset/acromial_l/arm_rot_l/speed	/jointset/ankle_r/ankle_angle_r/speed	/jointset/ankle_l/ankle_angle_l/speed	/jointset/elbow_r/elbow_flex_r/speed	/jointset/elbow_l/elbow_flex_l/speed	/jointset/subtalar_r/subtalar_angle_r/speed	/jointset/subtalar_l/subtalar_angle_l/speed	/jointset/radioulnar_r/pro_sup_r/speed	/jointset/radioulnar_l/pro_sup_l/speed	/jointset/mtp_r/mtp_angle_r/speed	/jointset/mtp_l/mtp_angle_l/speed	/jointset/radius_hand_r/wrist_flex_r/speed	/jointset/radius_hand_r/wrist_dev_r/speed	/jointset/radius_hand_l/wrist_flex_l/speed	/jointset/radius_hand_l/wrist_dev_l/speed
0	-0.1447829782569814	-0.1540222820755058	-0.3302292182393379	1.171958031660362	1.052586370425997	-0.09643914845177386	0.2150611217208162	0.1561857399570048	0.2041070731065253	0.1823132543061509	-0.1571402206417266	-0.206741999144355	0.2510091900956897	0.9410543570914518	-0.7953314723218718	0.1474934559877736	0.1474934559877734	0.1429651917497994	0.1429651917497992	-0.8095493173799178	-1.29940434264012	-1.083478787112455	-0.003008472705621536	0.7103264844059903	-1.042483727618614	-0.1859323571292923	-0.05280447174915444	0.6295300989537979	1.710799807518004	-0.1893397226884409	-0.1463079449139728	0.201070748073861	0.1964445088358416	6.857213317443561e-07	6.739386001579575e-07	0.4740271827225233	-0.7786500158208984	1.438872390896493e-05	-5.212770598772434e-06	-0.0195750938930955	-0.02406382886070348	0.007287254925063044	0.01702470408104217	0.3719458479259427	-0.01424118164908781	0.003395192227419879	-0.01220948756874563	0.009316058737580821	0.001847803375786845	9.582273374788221e-05	-0.01004134174449888	0.01487145060049551	-0.009121268376667926	0.006525345373255301	0.003640688983769803	0.003640688983769803	-0.0078651046986239	-0.007865104698623898	-0.0400984430670988	-0.06606478325384181	-0.05209139918556384	-0.004672129689048344	-0.0005594962956344136	-0.0001467172835968997	0.008810782603166494	0.01641747013776543	-0.05336511359619507	0.001742516206227446	-0.006742412229783699	-0.03601232380151242	-0.06233750743614635	-0.001825879054911894	-1.166471724732384e-05	-1.204434803178115e-05	-0.08638683504514126	-0.1530075992956689	0.0001710323011442647	-0.001846020355691809
0.005000000000000001	-0.1448888618674898	-0.1541608642519556	-0.3302089123204104	1.172051484167072	1.054330553464123	-0.09652322385848942	0.2150674672262955	0.1561113566691656	0.204133513855869	0.1823137350716902	-0.1571303882249752	-0.2067374339670366	0.2510859623758787	0.9410676136538936	-0.7953312200520954	0.1475118400795323	0.1475118400795319	0.1429403966018861	0.1429403966018877	-0.8097948448858322	-1.299691618417355	-1.08349272842437	-0.003019152006416094	0.7103692058414705	-1.042460087063683	-0.1859149430004262	-0.05275702601768152	0.6293582292106603	1.710797606752821	-0.1893382309887495	-0.1463971899241766	0.2011579364513326	0.1964376494091122	5.357228469955948e-07	5.674807453155858e-07	0.4737647773675784	-0.7798224039757875	1.325514933400774e-05	-9.911662655951318e-06	-0.02268430218434082	-0.03079118748394351	0.00165768515597178	0.02039259396084885	0.325893431124178	-0.01911620496316699	-0.000995608177733929	-0.01768743505112796	0.002705636415642542	-0.001843785953227765	0.004070297307358416	0.008564498565063521	0.01652969078725858	0.01272112057372354	-0.00351884013428116	0.003701329072058387	0.003701329072058388	-0.002429539652444584	-0.002429539652444582	-0.05417096161332102	-0.04801568457221982	0.03277523673895695	-0.0001824285729925809	0.01431063104952847	0.007857956938108772	-0.0002051195217939524	0.004287741144670156	-0.01990767502369314	-0.001705583467429954	0.004921945770738301	-0.004624484971126724	0.07052579937955238	-0.001205594701714605	-4.160319388289114e-05	-2.684147389672014e-05	-0.02445356514726395	-0.2884240636445137	-0.0005049698678416338	-0.0002472596335410433
0.01	-0.1450088807975656	-0.1543244154079924	-0.3302044156626781	1.172162320553549	1.055846965375234	-0.09662758274066574	0.2150497794576184	0.1560074295316519	0.2041485834248395	0.1822929335586873	-0.1570971861352476	-0.2066893832997726	0.251181409296684	0.9411645405693926	-0.7953376047499306	0.1475303530920182	0.1475303530920176	0.1429371305014119	0.1429371305014153	-0.8100516110191973	-1.299876201055161	-1.083288431121869	-0.003016125370793642	0.7104362163221046	-1.042422597872414	-0.1859180082091611	-0.05274432515077509	0.6292857732899118	1.710791924071449	-0.1893146746940895	-0.1464035778105952	0.2015091354772041	0.1964295758581759	3.370042206083401e-07	4.424970612752301e-07	0.4737238644889061	-0.7812590204671892	1.053394786340364e-05	-9.822598597795857e-06	-0.02522922172005814	-0.03405142069552713	0.0009635504469813374	0.02397825598754771	0.2808373971198443	-0.02235457183337484	-0.00621811743516057	-0.02402702743851304	0.004767586588339551	-0.006665108041093662	0.009443691924173048	0.007352854233692742	0.0223413068470505	0.02434687284619937	0.003870558328576841	0.003692257274668014	0.003692257274668014	0.0007465142769854163	0.0007465142769854165	-0.0445938940473769	-0.02498752748240472	0.03520404658107624	0.0008102448777551512	0.009156121766097732	0.005392737251205896	0.0006190475627178124	0.002519524311165108	-0.01359958464069421	0.0003497497302921605	0.00208342575765299	-0.002869474287384659	0.04326675192380208	-0.002311528737627054	-3.115277390272112e-05	-1.945467971097475e-05	0.002210155463865088	-0.2586989339007237	-0.0004640184571145001	6.916209044192885e-05
0.015	-0.1451392116507935	-0.1544979970962276	-0.3301967080354878	1.172289827973509	1.057141979504602	-0.09674383825741234	0.2150058361740314	0.155873802162624	0.2041854848916664	0.182247269946554	-0.1570382866186302	-0.2066748918929109	0.2513095336604494	0.9413012399432957	-0.7952869626508082	0.1475483440475979	0.1475483440475951	0.1429461104291894	0.1429461104291917	-0.8102336458543942	-1.299942905514109	-1.083188696034108	-0.003013775684258563	0.7104499835293677	-1.042411283633316	-0.185903747757373	-0.05272587924144004	0.6291972751409141	1.710804003724154	-0.1893235371909678	-0.1464423111269531	0.201590440204864	0.1964131198908869	2.253183702847375e-07	3.634720383293181e-07	0.4736926852185645	-0.7823557973651204	8.969949351439239e-06	-1.008921560065189e-05	-0.02659914050004229	-0.03528157877605684	0.001811295481177877	0.0266997428787016	0.237613323160878	-0.02383364510049068	-0.01111731531802622	-0.02873967995799257	0.009409629633618978	-0.01138310187258984	0.01341863453479176	-0.0004538508130024446	0.02823110156297545	0.03006195569253292	0.01459150997082763	0.003435035004151832	0.003435035004151832	0.002872910495325373	0.002872910495325373	-0.03057008277227097	-0.002710374050338069	0.009130553855972326	0.0001679201465232563	-0.002472863332326084	-0.0001523807700304441	0.004455078089451805	0.004325250940892296	-0.02146157671953025	0.004142425902348397	-0.004443282442156688	-0.01096603448760447	-0.004081651436882116	-0.004268108619798807	-1.598418283965947e-05	-1.36498233686228e-05	-0.01128835650712655	-0.1868545853265183	-0.00020335350401227	-0.0001392557248447881
0.02	-0.1452718324118558	-0.1546762344375281	-0.3301893847573455	1.172426068291158	1.05822754929218	-0.09686277929402287	0.2149410251112543	0.1557268751342183	0.2042368460160877	0.1821812748893574	-0.1569699745917799	-0.2066828974011426	0.2514569469413527	0.9414624509160928	-0.7952096373637179	0.1475640125425357	0.1475640125425308	0.1429661341429815	0.1429661341429827	-0.8103808122743292	-1.299913465975203	-1.083152719929983	-0.003014063265225942	0.7104232514440669	-1.042416975071697	-0.1858797579788974	-0.05270640852618575	0.6290745385051045	1.710829951475976	-0.189347256097843	-0.1464966599777891	0.2015349510570646	0.1963869222675599	1.525362260823498e-07	2.910538885766742e-07	0.4736449159947687	-0.7831959939210024	8.082687259870846e-06	-1.084962417884821e-05	-0.02614518485386518	-0.03591368192161289	0.0008098108278258047	0.02747141506337019	0.1970596604038818	-0.02342877977893978	-0.01456522911118149	-0.02934689118967378	0.01055144962611229	-0.01479768606646021	0.01320869601729795	-0.001645911803671765	0.03005687370224472	0.03415151240383557	0.0145438335157859	0.002763273017915309	0.002763273017915309	0.005164028682817736	0.005164028682817736	-0.03064652794269513	0.01347007165884402	0.009700453126523489	-0.0002446621232283049	-0.00704359525946206	-0.001409533740673612	0.004510778237740185	0.002929446678867348	-0.02729497936547309	0.005896989376911558	-0.003859138241121067	-0.009115688078570531	-0.01145079825995811	-0.00620819115281566	-1.559129145423515e-05	-1.681193043366755e-05	-0.004425825917795902	-0.1560667970811227	-0.000193323888956097	-0.0001283545396941886
0.025	-0.1453975124936033	-0.1548549356171286	-0.3301898304379924	1.172561960267563	1.059117018624045	-0.09697562020797254	0.2148615982035722	0.1555846347789566	0.2042893014187612	0.1821009836613859	-0.156909697192444	-0.2066881299979922	0.2516044012607188	0.9416389267235306	-0.7951496528674722	0.1475758976654374	0.1475758976654348	0.1429973176243523	0.1429973176243532	-0.8105469759025559	-1.299818798951476	-1.08308306944061	-0.003017238481821762	0.7103850574318458	-1.04242220661836	-0.1858606722669779	-0.05269800522491081	0.6289232932694135	1.710861358384725	-0.1893581960121045	-0.1465297056527192	0.2014766019073112	0.1963515144932936	6.634340678316213e-08	2.113990052438957e-07	0.4736742261970873	-0.7839212952785627	6.950200248774862e-06	-1.130411187599784e-05	-0.02379336993065246	-0.0352269003615275	-0.0009227896625459143	0.02669392877166867	0.1591719923670182	-0.02152047841971122	-0.01717313723267347	-0.02737573432468445	0.01067477071353424	-0.01720683388611649	0.01090304596071323	-0.0009056572684383983	0.02845151672324224	0.03593993498664239	0.009619455573228039	0.002042154324877659	0.002042154324877659	0.007192326898559408	0.007192326898559408	-0.03472271789552905	0.0232760353733813	0.0153893566732125	-0.001265227876096251	-0.008309339297297163	-0.0007660740061945277	0.003345588904153372	0.0006783284633512448	-0.03397896512941413	0.006685859956812115	-0.0009154679588907992	-0.005008086319136242	-0.01371950946246562	-0.007862894001217169	-1.775593043520773e-05	-1.487915453035767e-05	0.01415956281888609	-0.1304046517069601	-0.0002381876230131224	-7.731557345716324e-05
0.03	-0.1455064313320176	-0.1550251045455726	-0.3301979597197305	1.172691093111607	1.059823708416099	-0.0970761130044078	0.2147696177062176	0.1554548529568744	0.2043460343159255	0.1820103262628567	-0.1568609363097364	-0.2066965392771497	0.2517367287353758	0.9418168615101132	-0.7951117479020781	0.1475849478675987	0.1475849478675984	0.1430368870422984	0.143036887042299	-0.8107170773987604	-1.299691912646055	-1.083026530222749	-0.003029113577596872	0.7103394047544105	-1.042425465702575	-0.1858440812661145	-0.0526971606952298	0.6287269903516255	1.710897010933888	-0.1893603971823861	-0.146555795885237	0.2013794494842292	0.1963092135730726	-1.372401996740552e-08	1.439710269639597e-07	0.4737666081826942	-0.7844635494957118	5.915643954431368e-06	-1.186153025633485e-05	-0.01944068752058905	-0.03250078145899309	-0.00226362960862947	0.02476776211940813	0.1239478444794279	-0.01848953277317308	-0.01958666498016026	-0.02436347791791006	0.01226244742240134	-0.0189441542895245	0.008602089365979473	-0.002916584726854575	0.02400613581862831	0.03473510406186459	0.005712021175214736	0.001629304721776972	0.001629304721776972	0.008518403312905013	0.008518403312905012	-0.03222167513387235	0.02635778433647062	0.004455944521077154	-0.003724613794944318	-0.01002706134517171	-0.000620548761409578	0.003512893815331049	-9.406195869915199e-05	-0.0453180522043165	0.007595245542961931	-0.0003636406491923948	-0.006333511113593655	-0.02697210759143336	-0.008965449534685269	-1.314113443478715e-05	-1.192116841253052e-05	0.0208028873975186	-0.08284794091669888	-0.0001541516022551005	-0.0001695268129691407
0.035	-0.1455911534844329	-0.1551776336525806	-0.330213920221833	1.172808198684731	1.060360301392379	-0.09715944313639113	0.2146676906329509	0.1553426287816296	0.2044119688705872	0.1819138868544149	-0.1568237965587679	-0.2067167631375602	0.2518413578145957	0.9419852252487705	-0.7950940075161238	0.1475925365151642	0.1475925365151613	0.1430813309990327	0.1430813309990318	-0.8108625984021213	-1.299564288376272	-1.08304064166408	-0.003055158202105536	0.7102881344253105	-1.042426892397686	-0.185825939055699	-0.05269791741399557	0.6284742998243178	1.710935374231227	-0.1893618267012889	-0.1465946152351128	0.2012237794567274	0.1962626190286008	-5.666024212576992e-08	9.927323450040439e-08	0.4738698652404644	-0.7847509154197007	5.441040847280892e-06	-1.298372915036166e-05	-0.01462149404894331	-0.0283887587316884	-0.004479006423686903	0.02197830691884707	0.09100678706661937	-0.01481508473610505	-0.02083400090793717	-0.02037667029036789	0.01387948498517108	-0.01928582813277934	0.006232121057547821	-0.004611667065547298	0.01768497901025214	0.03289801364932358	0.00092989709395797	0.00142073008040363	0.00142073008040363	0.009136250389007098	0.009136250389007096	-0.0258446180842316	0.02401180334715749	-0.007753108073783623	-0.006587199569574243	-0.009736229778878084	0.0004385304100532999	0.003440346372515021	-0.0002548704788046761	-0.05405304555404186	0.007343383069938419	0.000195303901826797	-0.008604356015256656	-0.03136366242988547	-0.009611099196022592	-5.55736916888571e-06	-6.776992742660209e-06	0.02100633939400164	-0.03540166124062764	-5.335210281239421e-05	-0.0002491246228434899
0.04000000000000001	-0.1456543794785411	-0.1553077711067643	-0.3302463341358803	1.172909914578683	1.060736950697102	-0.09722398949892831	0.2145647793313239	0.1552525814728674	0.2044825102712059	0.181820925791073	-0.1567988319987993	-0.2067370430240876	0.2519119733568872	0.9421487178690893	-0.7951069912922636	0.1475993009261704	0.1475993009261651	0.1431270202562751	0.1431270202562726	-0.8109741024983399	-1.299458595814881	-1.083080587173693	-0.003093925208903142	0.7102494908617814	-1.042417193801544	-0.185812714242173	-0.05270017184932978	0.6282035110277323	1.710966377861363	-0.1893544094352305	-0.1466359407171744	0.2011051352697243	0.1962137152716922	-8.453785905953381e-08	6.801065783967124e-08	0.4739817356134685	-0.7848505984337361	5.205498304234379e-06	-1.405049526678881e-05	-0.01084222419775281	-0.02354412032926597	-0.00884499438649726	0.01861189045035211	0.05997037585622707	-0.01097602499471556	-0.01998035632433218	-0.01549273132480461	0.01410518580519467	-0.01755281624953181	0.003732012966093702	-0.002938995173683318	0.01040072104723378	0.03278665672643282	-0.006577643662424701	0.00129961009809902	0.00129961009809902	0.009016523516161817	0.009016523516161817	-0.01861491227689303	0.01758510097954841	-0.005877682792176345	-0.008813566710520785	-0.004976355116822339	0.003829567739969877	0.001545935059537999	-0.0006931485860752166	-0.05255735991545325	0.004651378662008528	0.003175073335290244	-0.007335963987861933	-0.01216177139195744	-0.00988913450943041	-7.117692344946944e-06	-6.547082091401673e-06	0.02424821349106165	-0.007774776935343965	-5.852737661351559e-05	-0.0001473537019292757
0.04500000000000001	-0.1457003098498065	-0.1554109136504288	-0.3303042869237162	1.172993337781234	1.060962098115276	-0.09726871025318649	0.214470888527835	0.1551883909526659	0.2045518926341147	0.1817411282243294	-0.1567858227101609	-0.2067453884869399	0.2519440969942146	0.9423138712347043	-0.7951624744549354	0.1476052417681966	0.1476052417681932	0.1431703617184922	0.1431703617184925	-0.8110523598960143	-1.299390158049605	-1.083087699572044	-0.00314312333203094	0.7102390574086614	-1.042387892986551	-0.1858104233253807	-0.05270405637270348	0.6279644162988645	1.710981335654891	-0.1893308577522158	-0.1466672302590756	0.2011076989339085	0.1961654609820264	-1.203249939539154e-07	3.393854561892324e-08	0.4741163094214571	-0.7848586351159501	4.821786359862415e-06	-1.435118455760521e-05	-0.007504640820233136	-0.01740540864550746	-0.01435258402537487	0.01465798304718587	0.03018958988989376	-0.006841810164456541	-0.01732759680088546	-0.01019456078295902	0.01364535537982902	-0.01415483478269693	0.001622610605778297	-0.0007981206477438586	0.002369830570646656	0.03314352289816731	-0.01571634423541619	0.0009995337640827026	0.0009995337640827024	0.008218188148407987	0.008218188148407985	-0.01352317952236459	0.01011975789812282	0.003024772043240272	-0.01093694883247305	0.0001950631010944874	0.007642653002144781	-0.0003172745894009927	-0.0006557117073394276	-0.04169737663140308	0.001627627574226701	0.005686962478637039	-0.005623555665524678	0.01102724148263129	-0.00912799676545116	-6.358067482284909e-06	-6.422567396659994e-06	0.02934645450239062	0.001564992140456564	-8.549897334190894e-05	1.624592839221685e-05
0.05	-0.1457291730518615	-0.1554787503083089	-0.3303900246089093	1.173055500333927	1.061039856580767	-0.09729170293513185	0.2143939870460182	0.1551505250247664	0.2046189397852194	0.1816814911998981	-0.1567810968115763	-0.2067490135373703	0.2519348826294633	0.9424788414318571	-0.7952651619629094	0.1476085243343224	0.147608524334321	0.143208183405528	0.1432081834055311	-0.8111176856208582	-1.299354100708226	-1.083050418967344	-0.003204007360146619	0.710245362385115	-1.042343248324071	-0.1858127640505348	-0.05270467947584255	0.6278003688114209	1.710985613025356	-0.1893031261843634	-0.1466966133027589	0.2011938077287206	0.1961252811499523	-1.397275925771751e-07	1.037693787544669e-08	0.4742728516064722	-0.7848648996314246	4.4450928487489e-06	-1.399635655497163e-05	-0.004015356513573131	-0.009421766015499579	-0.01995895332939634	0.01010763050748855	0.001014794783354851	-0.002284796069581354	-0.01318462765550598	-0.004962894403978229	0.01317110108356438	-0.009488599324621601	0.0004186569445681253	-0.00105083020493297	-0.006134479784153154	0.03271338934160461	-0.02545938178339264	0.0002362997379524393	0.0002362997379524393	0.006808613443630035	0.006808613443630036	-0.01344224314465987	0.004632931420934758	0.01187951842886254	-0.0134879287056732	0.001719016712635334	0.00996710673504167	-0.0003067217190422697	0.0006114195077739889	-0.02253846334576477	0.0003792094372905679	0.004847027270410984	-0.006573364700715746	0.02125628085923509	-0.006659351472698098	-5.63877836498205e-07	-2.342880300493092e-06	0.03303556430161861	-0.007065910239547881	-5.572000331013617e-05	0.0001148532154507155
0.05500000000000001	-0.145737605626562	-0.1555064796934287	-0.3304961436477624	1.173094059274057	1.060972409272468	-0.09729236152204555	0.2143367567302062	0.1551381158509434	0.2046863932506563	0.1816460231657927	-0.1567807342676763	-0.2067587054647821	0.2518829541384173	0.9426405973357003	-0.7954116234988862	0.1476068457901626	0.1476068457901596	0.1432388824126543	0.143238882412655	-0.8111913647837694	-1.299332279076151	-1.082983234235231	-0.00327920509377505	0.7102508725211998	-1.042291308204394	-0.1858129884143378	-0.05269886006733938	0.6277092130690578	1.710987732492816	-0.1892810175710617	-0.1467328668691715	0.2012835627626962	0.1960964073924843	-1.255093707771522e-07	1.590649558582649e-08	0.4744443203318279	-0.784938721880056	4.394715057377379e-06	-1.334903419641906e-05	0.001189228200472626	-0.002243791054824035	-0.02092266163927253	0.005344438352204862	-0.02806219419377387	0.001789959822409108	-0.0104122749168362	-0.0001236294289345225	0.01436813155332526	-0.004952426655544315	-0.0002392233190665701	-0.002985583697095829	-0.01451346792595214	0.03203419728913753	-0.03194120187611957	-0.0009823891880579331	-0.0009823891880579329	0.005660120105642852	0.005660120105642851	-0.01605908436066174	0.006070619474445752	0.0121515698973054	-0.01676229707966784	1.764313618689462e-05	0.01043842185101316	7.012587320826751e-06	0.001324182822239902	-0.02130383141922097	0.0006936640857924779	0.004831604115576153	-0.007470146490989938	0.009873702197656719	-0.005667347499510774	5.810365669178304e-06	4.598711803239601e-06	0.03499754365763282	-0.02152108096468188	5.220233776149028e-05	0.0001252050408864069
0.06	-0.1457118117541857	-0.1555069262490816	-0.3305835912195761	1.173109229645526	1.060758549877924	-0.09727611735172469	0.2142828165343746	0.1551480601874399	0.2047681995653739	0.1816294288099629	-0.1567831448841121	-0.2067804658037143	0.2517909824372869	0.9427996356556831	-0.7955727336743588	0.1475979537245846	0.1475979537245801	0.1432666759135793	0.1432666759135775	-0.8112785730878733	-1.299273645532828	-1.082957331313561	-0.003373341654282983	0.7102408648706255	-1.04224256929841	-0.185814793560767	-0.05269535925833269	0.6275135305190308	1.710994800531608	-0.1892464582825546	-0.1467667356139352	0.2012448244453638	0.1960608357151072	-8.603194475868251e-08	5.680414009378856e-08	0.4746172832212179	-0.7850706913585881	5.133450736363428e-06	-1.293301301694663e-05	0.009675222317160476	0.001491365771223211	-0.01249036651364637	0.0007522030430868569	-0.0575500397143528	0.004476306824243358	-0.01186857966331682	0.003978509723824878	0.018912240795858	-0.001939128014346155	-0.0006906071897593442	-0.005878194813121146	-0.02215176381786118	0.03162635579749343	-0.03131883758171117	-0.002649108829313496	-0.002649108829313496	0.005646410963106425	0.005646410963106422	-0.01885389962176793	0.01935769591968059	-0.004633205748250321	-0.02106345945747389	-0.00448809795108455	0.008686621257706294	-0.0009390347695404334	-0.0003160202908201038	-0.06434918641137484	0.002358637970518959	0.009827297352524985	-0.005619436041146407	-0.03014105966395093	-0.009338519436312646	9.539803850880548e-06	1.180435441853982e-05	0.03363322991530068	-0.03032480219983001	0.0002599253848328915	2.233274381865931e-05
0.06499999999999999	-0.1456440053135952	-0.1554913342931357	-0.3306288674039441	1.173102241755385	1.060394495416839	-0.0972486787428436	0.2142210446067731	0.1551759953652281	0.2048733652261687	0.181626993895071	-0.1567861496181104	-0.2068155839171872	0.2516579611466891	0.9429596803254486	-0.7957308832023464	0.1475816433213439	0.1475816433213421	0.1432957133333501	0.1432957133333468	-0.8113799178924245	-1.299144171419363	-1.083004514936209	-0.003485799963130454	0.710213195787702	-1.042204683247691	-0.1858234055457385	-0.05270175260402633	0.6271032433668294	1.711007523474084	-0.1891841684344784	-0.1467876135963475	0.2010265192921018	0.1960034065121812	-3.405438582553632e-08	1.142126078358763e-07	0.4747863401448723	-0.7852305257108091	6.738991911842367e-06	-1.289530675325918e-05	0.01626424212170479	0.005360995004240024	-0.00875923700367157	-0.003443805129689491	-0.08848632346298387	0.006514942864109012	-0.01153579841015152	0.006945993320535273	0.02217308585090391	0.001294058190606369	-0.000256773078244886	-0.007636914806852307	-0.03188493948614376	0.03291920503237711	-0.03431592272017753	-0.003540399865603676	-0.003540399865603676	0.005853222550230942	0.005853222550230941	-0.02203903816549323	0.02936883845392364	-0.006357696151463849	-0.02293783287338532	-0.004669066643923763	0.006799280778269777	-0.002502255132077367	-0.001787099288212325	-0.08467454080250182	0.001747444128467155	0.01396748118064106	-0.002892894881031907	-0.04629850808043509	-0.01277565158618024	1.171322562743516e-05	1.118068101314446e-05	0.0377384925474996	-0.03123778424986109	0.0003156702533911809	6.435630665893725e-05
0.06999999999999999	-0.1455610004509422	-0.1554471605150681	-0.3307025748873141	1.173075827133928	1.059869540855862	-0.09721080986172442	0.2141805024799446	0.1552150244399363	0.2049801210471715	0.1816456583531991	-0.1567831674815811	-0.2068515135940912	0.2514638511717768	0.9431341046352439	-0.7959396423926287	0.1475658962519343	0.1475658962519352	0.1433240547951365	0.1433240547951315	-0.811502513629196	-1.299010588258416	-1.082942082803478	-0.003592899670935545	0.7102132788899296	-1.042171261673142	-0.185839781071218	-0.05270868806423063	0.626817696447673	1.711002444023978	-0.1891179950777213	-0.1467972759423182	0.2008906643001638	0.1959416543007246	3.572037056624118e-08	1.688274335737249e-07	0.4750321576767036	-0.7853593576566992	7.623944950600201e-06	-1.157338450033106e-05	0.01575459114213628	0.01292409461987802	-0.02386288611443971	-0.007018489482937518	-0.1219100796706295	0.008648415719479568	-0.003376659354098551	0.00841606849182637	0.01954830487908634	0.006500621193628131	0.001704141021347507	-0.006202820185557614	-0.04658723754363119	0.03737821180943391	-0.05156270249958589	-0.002423775296822302	-0.002423775296822303	0.005368027769325568	0.005368027769325568	-0.02735427250984039	0.02100131491225798	0.03921309640336534	-0.01892001904052195	0.006612776109261873	0.006900830789546674	-0.004044450972761077	-0.000532866095090439	-0.01445309319331695	-0.004762319062297418	0.01138070082490928	-0.001133181464475812	0.002839004865674447	-0.01106772284857603	1.665868283433308e-05	1.068689761684418e-05	0.06433747318608717	-0.01792383966738782	-2.830986985554999e-05	0.0005360191395149307
0.07500000000000001	-0.1454849460214754	-0.1553675216061287	-0.3308612143391129	1.173034397010244	1.059171830849877	-0.09716284533902643	0.2141788445670774	0.155261991457648	0.2050739228294333	0.181685569278096	-0.1567720410300876	-0.2068782746688239	0.2511981804549609	0.9433353791771816	-0.7962363397856878	0.1475548408260642	0.1475548408260628	0.1433511840064867	0.1433511840064879	-0.8116525610543126	-1.298921083775064	-1.082644520828052	-0.003682412921728174	0.7102724899455848	-1.042133603688008	-0.1858623226903252	-0.05270978571535621	0.6269037669580866	1.710961921573084	-0.1890674046289532	-0.1468002251354878	0.2010043928149823	0.1958912814579436	1.224337463654586e-07	2.424744129910483e-07	0.4754421686052396	-0.7853981733528731	6.780642651662211e-06	-7.763286031921498e-06	0.01615546362168931	0.01724133482171513	-0.03516582737437714	-0.009188799642129325	-0.1574721689802878	0.01039000417613612	-0.0002765441085183309	0.01096769822649449	0.01994113502105227	0.007861853331738809	0.001924878719785935	-0.005134295320664411	-0.05758339095323801	0.04296623780103023	-0.06278013453524986	-0.002850955803114018	-0.002850955803114018	0.005966387755744273	0.005966387755744271	-0.03123754462078733	0.02052701172080354	0.06538554562198946	-0.0193647373314897	0.01379140698747895	0.00822853192881811	-0.004662803350451544	-0.0009125662431007544	0.0224807987843727	-0.01006888240209414	0.0105641389553159	-0.0001565031456132855	0.02500527855477245	-0.01023222596014787	1.785001144696988e-05	1.871580917189111e-05	0.09625615949742027	0.00156879311025971	-0.0001646647071785102	0.0008605489809214511
0.08000000000000002	-0.1453845629849541	-0.1552916485081928	-0.3310099624887508	1.172987586740995	1.058291836703491	-0.09710838371179882	0.2141478366557018	0.1553306710185373	0.2051992196673365	0.1817082579321825	-0.1567721343029455	-0.2069091834034292	0.2509089938445397	0.9435621133416087	-0.7965240825360937	0.1475288610863912	0.1475288610863877	0.1433885459825254	0.1433885459825327	-0.8118006175462437	-1.298748052808281	-1.082432488828713	-0.003811341604800044	0.7103183905681512	-1.04208831466721	-0.1858833151715261	-0.05272787744554122	0.6267784994497732	1.710915532988888	-0.1889952670854385	-0.1467999410471968	0.2009642458606422	0.1958278239241599	2.124539246521013e-07	3.554246755106962e-07	0.4759606118843689	-0.7853519574064719	7.420761304226451e-06	-4.242607360390934e-06	0.0254860339639459	0.01141777021846433	-0.01990636525007356	-0.009170547708556527	-0.1948237358307127	0.01124725753133553	-0.01511665875752116	0.0171010857628388	0.03214632713570521	-0.0003882871305235193	-0.002783748719160877	-0.007861884134622969	-0.05599359498566365	0.0475620608052815	-0.04798084543844149	-0.008393500817909978	-0.008393500817909978	0.009461133644713987	0.009461133644713984	-0.02655789923559471	0.05441190828513424	0.005001105967775889	-0.03468619195221818	0.001288602873727746	0.009953245054634024	-0.003424795810265953	-0.007330497718863718	-0.09898830068411386	-0.007108772383421574	0.01999953872351041	0.0001601311197446991	-0.05871118279774219	-0.01630159924961776	1.798140382930322e-05	2.640821085777394e-05	0.10771041342343	0.01608881736271697	0.0005650585107453411	0.0004202512207633315
0.08500000000000002	-0.1452381946634889	-0.1552510287353423	-0.3310714210641745	1.172945105255105	1.057218546865422	-0.09705124802163154	0.2140325672450657	0.155428803183784	0.2053914915092362	0.1816823330909733	-0.1567968833649016	-0.206957441700396	0.2506422159512297	0.9438131686652143	-0.7967140660535291	0.1474732883915003	0.1474732883915022	0.1434431331448365	0.1434431331448417	-0.8119083232912079	-1.298374231681313	-1.082567666368707	-0.004024416300836064	0.7102911318522015	-1.04203208210593	-0.1858959823872095	-0.05277876822331362	0.6259677099508227	1.710889302463683	-0.1888732005566781	-0.146804180824076	0.200453151671809	0.1957319913632317	3.178864909094008e-07	4.361126265571835e-07	0.4765053236530809	-0.785244417611037	1.205472593162569e-05	-3.825094245956093e-06	0.02990285707773937	0.00696468218247594	-0.01139007880730165	-0.007702611104867733	-0.2352061911426289	0.01158113659548437	-0.02698014987612783	0.02075967989261165	0.04205431626691128	-0.008223438256583195	-0.005740291121521957	-0.01096482897875491	-0.05204335211872826	0.05352014634588073	-0.03179984141772739	-0.01249518547782742	-0.01249518547782742	0.01135349703315552	0.01135349703315552	-0.01842246366478573	0.08988673017325166	-0.03929539095814984	-0.04708250433230286	-0.007738956947859563	0.01292652388861893	-0.001847987958631329	-0.01112551672830085	-0.187472787410931	-0.005068631985255924	0.02597296765270566	-0.002837965559358134	-0.1226338886882442	-0.02011901872524726	2.329246293248698e-05	8.119354406594093e-06	0.1105758557993226	0.0250873159741152	0.001065808731014029	-0.0001472008151633169
0.09000000000000001	-0.1451171187896208	-0.1552006562537606	-0.3311909934157027	1.172911754985371	1.055932634874607	-0.0969928311652449	0.2139181447131482	0.155524346813031	0.2055926818964331	0.1816436056605825	-0.156815781364743	-0.2070140656364833	0.2503753024255488	0.9441039155821566	-0.7968799537490916	0.1474173131482031	0.1474173131482105	0.1434918786103974	0.1434918786104004	-0.8120038228320381	-1.297901483629838	-1.082627675428224	-0.004247554826824199	0.7102855323217296	-1.041955181984013	-0.1859038540260679	-0.0528201296462063	0.6252823186905151	1.710847994726168	-0.1887640784601911	-0.1468381399396697	0.1999688330142324	0.1956457578008717	4.363869565656749e-07	4.591420680343685e-07	0.4770703860597417	-0.7851194820951019	1.585166252236347e-05	-4.654163913763322e-06	0.01536905492510483	0.01531885371090882	-0.04315187569185134	-0.00551806124658296	-0.2798725969293347	0.01175972401908112	-0.01477790727013785	0.01606567136295352	0.0357137452546117	-0.005509322803142314	-0.0004433238732393523	-0.01120813978281968	-0.05604784793397413	0.06343869813995744	-0.03834251668933884	-0.008554520180366088	-0.008554520180366088	0.007124454944591986	0.007124454944591987	-0.02167541758196507	0.09398267808771443	0.03506849815834141	-0.03871172393306382	0.009952277064841662	0.01822026930887613	-0.001506565080312967	-0.003518755766974877	-0.04882900522696236	-0.01313965730745776	0.01482176581412565	-0.01172760436608098	-0.0480009702951326	-0.01246199982233627	2.320856358889308e-05	3.344807030053048e-06	0.1158506686029629	0.02304710556284363	0.0002302472960807598	-7.838189213349708e-05
0.095	-0.145085609765006	-0.1551004495480446	-0.3314926959853716	1.172890686206552	1.054416046264949	-0.09693546742769117	0.2138839202617098	0.1555872325252976	0.2057476737243861	0.1816299147233348	-0.156800319571426	-0.2070706225852934	0.2500906840320626	0.9444465700003324	-0.7970896426815053	0.1473863384630061	0.1473863384630104	0.1435138806087037	0.1435138806087039	-0.8121273585530355	-1.297430258730271	-1.082235867710344	-0.004408820606793506	0.7103855252676997	-1.041856006270987	-0.1859085139246581	-0.05281507009383155	0.6254557637693858	1.710763568762962	-0.1887266794259033	-0.1469201504743113	0.1999345353970887	0.195606889498287	5.158719708988021e-07	5.894511178205787e-07	0.47762754102683	-0.7850149489740219	1.43829943713945e-05	-3.971782855606658e-06	0.0002670453291202667	0.02213047881725613	-0.0686934767868463	-0.002880390064769915	-0.3267974131394986	0.01084788648257059	-0.003185440248817715	0.009971060846922973	0.02875923504174073	-0.001263086787687246	0.005517019719197636	-0.01206131615699409	-0.05470734725493636	0.07265961132531069	-0.04035636964922402	-0.005470162727745638	-0.00547016272774564	0.002598460454082689	0.002598460454082688	-0.02214934361012208	0.1006875938417613	0.09829937944239574	-0.02872519911200098	0.02452818825277991	0.01973662567180832	0.0003754942998626077	0.003374223469848417	0.07461361879080794	-0.0177972846429482	0.002619106185015293	-0.01984326852639696	0.003333253645493881	-0.005115131282328766	1.252138776981122e-05	3.745889826020461e-05	0.102265499978526	0.02381283545296759	-0.0005767355956980911	0.0003316608447243438
0.1	-0.1450841234322467	-0.1550056849631709	-0.3317895714296827	1.172883241686883	1.052664315081158	-0.09688773114561761	0.2138435546412237	0.1556328818945327	0.2059050367380022	0.1816180144457883	-0.1567717213823595	-0.2071411455622112	0.2498591505750552	0.9448208771173592	-0.7972317505793149	0.1473462634326419	0.1473462634326432	0.1435270843757083	0.1435270843757056	-0.812169420996071	-1.296832804570396	-1.081878233729315	-0.004564112928517629	0.7104756470735536	-1.041774949629593	-0.185892770196513	-0.05280807094397807	0.6255925206985785	1.710698356313059	-0.1887130748155007	-0.1470242392152923	0.1996926788527659	0.1955743083873404	6.009602905183215e-07	7.205319043941498e-07	0.478045582876989	-0.7848308868147335	1.249409617308514e-05	-1.534290173238079e-06	0.003359978182880235	0.01314200537393541	-0.04122102554875285	-6.83575869656252e-05	-0.3739296265822981	0.007908741827014497	-0.01723437488926323	0.009171134150346285	0.03666221951985962	-0.004793058922621602	0.004811234426561714	-0.01679455102592942	-0.03481387334247465	0.07609977768037472	-0.01131010284778387	-0.01219465824719992	-0.01219465824719992	0.003605162423917563	0.003605162423917562	0.01091389360272558	0.144474382210449	0.02139900341767753	-0.0363223406349901	0.006003821018413635	0.01097264065633662	0.006654885613804506	-0.00274291677548718	-0.0635042650982167	-0.005454251986176595	0.005303996260024408	-0.02055888690188707	-0.1310245411667506	-0.009947123167119792	2.544988570345001e-05	3.653501744997395e-06	0.06020542183130407	0.05485872084629951	6.215527714460646e-05	0.000623662757551269
