golf_humanoid
inDegrees=no
nColumns=79
nRows=6
DataType=double
version=3
OpenSimVersion=4.6-2026-06-22-85aaf64
endheader
time	/jointset/ground_pelvis/pelvis_tilt/value	/jointset/ground_pelvis/pelvis_tilt/speed	/jointset/ground_pelvis/pelvis_list/value	/jointset/ground_pelvis/pelvis_list/speed	/jointset/ground_pelvis/pelvis_rotation/value	/jointset/ground_pelvis/pelvis_rotation/speed	/jointset/ground_pelvis/pelvis_tx/value	/jointset/ground_pelvis/pelvis_tx/speed	/jointset/ground_pelvis/pelvis_ty/value	/jointset/ground_pelvis/pelvis_ty/speed	/jointset/ground_pelvis/pelvis_tz/value	/jointset/ground_pelvis/pelvis_tz/speed	/jointset/hip_r/hip_flexion_r/value	/jointset/hip_r/hip_flexion_r/speed	/jointset/hip_r/hip_adduction_r/value	/jointset/hip_r/hip_adduction_r/speed	/jointset/hip_r/hip_rotation_r/value	/jointset/hip_r/hip_rotation_r/speed	/jointset/walker_knee_r/knee_angle_r/value	/jointset/walker_knee_r/knee_angle_r/speed	/jointset/patellofemoral_r/knee_angle_r_beta/value	/jointset/patellofemoral_r/knee_angle_r_beta/speed	/jointset/ankle_r/ankle_angle_r/value	/jointset/ankle_r/ankle_angle_r/speed	/jointset/subtalar_r/subtalar_angle_r/value	/jointset/subtalar_r/subtalar_angle_r/speed	/jointset/mtp_r/mtp_angle_r/value	/jointset/mtp_r/mtp_angle_r/speed	/jointset/hip_l/hip_flexion_l/value	/jointset/hip_l/hip_flexion_l/speed	/jointset/hip_l/hip_adduction_l/value	/jointset/hip_l/hip_adduction_l/speed	/jointset/hip_l/hip_rotation_l/value	/jointset/hip_l/hip_rotation_l/speed	/jointset/walker_knee_l/knee_angle_l/value	/jointset/walker_knee_l/knee_angle_l/speed	/jointset/patellofemoral_l/knee_angle_l_beta/value	/jointset/patellofemoral_l/knee_angle_l_beta/speed	/jointset/ankle_l/ankle_angle_l/value	/jointset/ankle_l/ankle_angle_l/speed	/jointset/subtalar_l/subtalar_angle_l/value	/jointset/subtalar_l/subtalar_angle_l/speed	/jointset/mtp_l/mtp_angle_l/value	/jointset/mtp_l/mtp_angle_l/speed	/jointset/back/lumbar_extension/value	/jointset/back/lumbar_extension/speed	/jointset/back/lumbar_bending/value	/jointset/back/lumbar_bending/speed	/jointset/back/lumbar_rotation/value	/jointset/back/lumbar_rotation/speed	/jointset/acromial_r/arm_flex_r/value	/jointset/acromial_r/arm_flex_r/speed	/jointset/acromial_r/arm_add_r/value	/jointset/acromial_r/arm_add_r/speed	/jointset/acromial_r/arm_rot_r/value	/jointset/acromial_r/arm_rot_r/speed	/jointset/elbow_r/elbow_flex_r/value	/jointset/elbow_r/elbow_flex_r/speed	/jointset/radioulnar_r/pro_sup_r/value	/jointset/radioulnar_r/pro_sup_r/speed	/jointset/radius_hand_r/wrist_flex_r/value	/jointset/radius_hand_r/wrist_flex_r/speed	/jointset/radius_hand_r/wrist_dev_r/value	/jointset/radius_hand_r/wrist_dev_r/speed	/jointset/acromial_l/arm_flex_l/value	/jointset/acromial_l/arm_flex_l/speed	/jointset/acromial_l/arm_add_l/value	/jointset/acromial_l/arm_add_l/speed	/jointset/acromial_l/arm_rot_l/value	/jointset/acromial_l/arm_rot_l/speed	/jointset/elbow_l/elbow_flex_l/value	/jointset/elbow_l/elbow_flex_l/speed	/jointset/radioulnar_l/pro_sup_l/value	/jointset/radioulnar_l/pro_sup_l/speed	/jointset/radius_hand_l/wrist_flex_l/value	/jointset/radius_hand_l/wrist_flex_l/speed	/jointset/radius_hand_l/wrist_dev_l/value	/jointset/radius_hand_l/wrist_dev_l/speed
0	0	0	0	0	0	0	0	0	0.93	0	0	0	0	0	0	0	0	0	0	0	0	0	0	0	0	0	0	0	0	0	0	0	0	0	0	0	0	0	0	0	0	0	0	0	0	0	0	0	0	0	0	0	0	0	0	0	0	0	0	0	0	0	0	0	0	0	0	0	0	0	0	0	0	0	0	0	0	0
0.01	1.67101425727385e-06	0.0004005431682208697	5.883486264718747e-10	-4.056476328723122e-05	-3.979512251566453e-07	-0.0001228782003726771	1.578204807378823e-08	2.877237542766975e-06	0.929509805859196	-0.09803308744352575	2.927252502939875e-09	8.478791666412568e-06	-2.336389401726086e-06	-0.0005370789691725952	-4.581261541164195e-07	3.733497333646247e-05	-1.36915155764783e-06	0.0003365286457733833	-9.8048256769863e-07	-0.0002227367150222259	-9.804825677036889e-07	-0.0002227367150232832	6.360005055752301e-06	0.0002644488960448399	2.789207782063355e-05	0.0008157239134765604	-5.101161651487019e-06	-0.0002734632359255329	-2.332855881462115e-06	-0.0005647399951747956	2.459000350843219e-07	-8.745382076510433e-06	7.596137917646277e-07	8.417543156359713e-05	-9.259174211110852e-07	-0.000227327311987429	-9.259174211147562e-07	-0.0002273273119881954	-2.482594692899435e-06	-0.0004744008053096612	-1.221758533429866e-05	-0.00225930116437023	1.031823005723235e-06	0.0001912791785288922	-1.842975146245533e-06	-0.0004432893899354599	1.473444395233494e-07	7.394598109793103e-05	2.121513310361069e-07	7.933755458185727e-05	5.036069036414818e-06	0.001211021598003836	1.110660641284989e-06	0.0002700641999468416	-6.808596706891705e-06	-0.001677050268320197	-1.867514351559595e-05	-0.004486971878204523	4.253594042369789e-05	0.01024846919601201	1.48114548139039e-05	0.003560386951305107	4.374359189320243e-07	0.0001018488387580605	2.926389555227023e-07	8.802531317211759e-05	8.132556822445144e-09	-4.519872714660404e-06	1.236402411410562e-05	0.002689373266679584	1.100803089409001e-07	-5.489732585674941e-05	-3.952656277889071e-05	-0.007785384036240611	4.56080728570594e-07	0.0001284944721207765	6.645359327222733e-06	0.001541197369363049
0.02979253118746509	2.539085738571176e-05	0.002143192057628512	-3.03171418473198e-06	-0.0002624080967967145	-7.154431149099938e-06	-0.0005553187747293707	2.133114522533377e-07	1.981324899425621e-05	0.9256499817160347	-0.2919821502993046	5.293742523152042e-07	4.105585948560814e-05	-3.461326674753564e-05	-0.002956469671086442	2.978702320019242e-06	0.0002378987326151691	2.048912812438022e-05	0.001514081237714298	-1.570034970240634e-05	-0.001404980636932092	-1.570034970243008e-05	-0.001404980636932724	-4.475245652175651e-08	-0.000516708596665922	4.727532706833457e-05	0.005167286635340575	-2.071413986205194e-05	-0.002101684897888508	-3.590576757559362e-05	-0.003029913172310579	-2.004424564147562e-06	-0.0002079260096651522	9.385013325213052e-07	-2.818935354503144e-05	-1.465204243521078e-05	-0.001239146763817817	-1.465204243522378e-05	-0.001239146763817707	-2.567158675834392e-05	-0.002017243855611304	-8.993034406973905e-05	-0.005637569821313667	6.693055890787106e-06	0.0003479591129369993	-2.81106909644447e-05	-0.002374120161483641	4.991615491832368e-06	0.0004185137253645256	4.906984433548397e-06	0.0003950278659735331	7.053838897553773e-05	0.005558227865563635	1.567530183521456e-05	0.001230128269950826	-0.0001223748846673796	-0.01089323270389109	-0.0002616223125798393	-0.02060402790976755	0.0006476949873199235	0.05347447989398766	0.0002079251875821796	0.01639066202016884	2.998576205852885e-06	8.402183925537865e-05	7.619225387339679e-06	0.0007484760575760466	-4.02663837473241e-07	-3.458782671516121e-05	0.0001432048000310784	0.01087897139389975	-1.267363495529478e-05	-0.001517228031912392	-0.0003430272205282988	-0.0224904635166021	1.477747574319477e-05	0.001609129598744598	9.122798138865514e-05	0.007404061647184313
0.06219792254110522	0.0001489786136690621	0.005379902025887449	-1.79522497840317e-05	-0.0006169193805881647	-3.356001588644397e-05	-0.0009338230714252422	1.509336383247396e-06	6.290202706035411e-05	0.9110439066502557	-0.6094845715231895	2.478394337551401e-06	6.519313699513842e-05	-0.0002075075576396865	-0.007620657455978959	1.718357758007662e-05	0.0005522951075111525	0.0001032765895156396	0.003009372644767684	-0.0001020531614121267	-0.003930149610888546	-0.0001020531614120679	-0.003930149610883353	-9.533662765695142e-05	-0.005332558661273827	0.000281941698808779	0.01128725907160301	-0.0001339989611409951	-0.005158787877664052	-0.0002098957838222251	-0.00755552843971611	-1.431461024203616e-05	-0.0004986230586242638	9.145800052924461e-06	0.000756956215126032	-8.519269280476922e-05	-0.003062685825733774	-8.519269280469857e-05	-0.003062685825728991	-0.0001356285965334889	-0.004677063105501042	-0.0003783900057669209	-0.01202204165668547	1.956185755760572e-05	0.0004042559929111078	-0.0001655255914686429	-0.00600055270058495	2.758573318231854e-05	0.0009058839145363654	2.526635292471307e-05	0.0007735309581192026	0.0003343086791818863	0.009416652039277962	7.317724229082653e-05	0.002006735945083458	-0.000646186224736964	-0.01715989390917059	-0.0012261596922865	-0.03378540949910613	0.00308270330296811	0.07830313849754933	0.0009759297102807862	0.02692471991909017	8.123276914891884e-06	0.0004992464771513927	5.999153412058541e-05	0.002515531486168383	-1.343521333249785e-06	6.083949648153797e-06	0.0006861653193271198	0.02093804438424314	-0.0001327406267524328	-0.005998379756629428	-0.001298696413343589	-0.03310274427196253	0.0001383539443853092	0.006121199797763235	0.0004883640224155175	0.01605184258709814
0.09586671818805997	0.0003637625516176012	0.006897846215450957	-3.950235667028675e-05	-0.0007402479514183214	-5.357173960159475e-05	-0.0002111342674036771	4.522355940195365e-06	0.0001080314876220121	0.8849680663761511	-0.9395204342905161	3.305774577069168e-06	-3.364333069090893e-07	-0.0005187094994034536	-0.01010214055443606	2.998080188387001e-05	0.0006158202212359266	0.0001490721154656084	0.001327172309562429	-0.0002672614187533863	-0.005399290453138385	-0.0002672614187531941	-0.005399290453136743	-0.0002609427797315819	-0.00627334366919876	0.001050929839637445	0.01603868016900502	-0.0003902297192019722	-0.006291012269360347	-0.0005102575145040192	-0.009615776827678228	-2.970104898623143e-05	-0.0006217888699773322	6.924636223167529e-05	0.002272567620058753	-0.000207889392582779	-0.003925936324467105	-0.0002078893925825647	-0.003925936324464327	-0.0003266293722436643	-0.005045732573612391	-0.0008562151917335193	-0.01101665336955991	2.801188443546776e-05	-0.0001991498057554662	-0.0004062917016283617	-0.007771322927280042	5.785394668205267e-05	0.0009310456973539034	4.517925291649936e-05	0.0003897962368474797	0.0005786164607984683	0.004232640855037866	0.0001206520701482688	0.0006313829783548468	-0.00110105772875955	-0.01217465206388506	-0.002066561649780213	-0.01329395049466928	0.005014740900027734	0.04273420186908932	0.001647788887777113	0.01072293803263228	2.089158603199345e-05	-0.0004902058863072787	0.00016873908910746	0.003744721777236209	1.393738278186407e-06	0.0001226085319380706	0.001374063187440456	0.01774511109386136	-0.0003959009545648172	-0.009224401665227937	-0.002239304805592956	-0.0167341386911921	0.0004062974614158735	0.009353262032983093	0.001045990820873794	0.01574960992102512
0.1	0.0003922674077268811	0.006896301358873107	-4.269548644451754e-05	-0.0008000927171968593	-5.434957644409336e-05	-0.0001706187588382409	4.971138360369288e-06	0.0001092410435560588	0.8810009949287672	-0.9800541802522613	3.316425647232914e-06	5.233725399182857e-06	-0.0005604262524875764	-0.01008836356438215	3.296641009887194e-05	0.0008015597468444989	0.000155971035546929	0.001883290429148457	-0.0002895042404616986	-0.005367251236236635	-0.0002895042404614986	-0.005367251236234587	-0.0002890295872778785	-0.007081253879004656	0.001101145299833203	0.009592197305901986	-0.0004129372358008577	-0.004915909049346341	-0.0005500000668102409	-0.00961893644118704	-3.258642648445228e-05	-0.0007747676031798746	7.795850657878542e-05	0.001876067828690762	-0.0002240887533851614	-0.003914957106536801	-0.0002240887533849346	-0.003914957106533614	-0.0003453313240813187	-0.003915285440365776	-0.0008933374697370977	-0.00648741842096285	2.662781110642652e-05	-0.0004922119228038255	-0.0004384228925363279	-0.007776418528562417	6.179444146101527e-05	0.0009727944057463325	4.67647354319165e-05	0.0003793673446457921	0.0005948497964925315	0.003684105086371479	0.0001229590171992219	0.0005003107575906917	-0.001152680681794635	-0.01274551895794727	-0.002116855521121082	-0.01126978855208663	0.005191677059900918	0.04283692981131398	0.001688421284294921	0.009118515828620491	1.81624153739689e-05	-0.0007951502296439561	0.0001843479268941535	0.003804300224415977	1.886136945327144e-06	0.0001156617789274163	0.001445210197392725	0.01669808302995233	-0.0004345224118732621	-0.009458259720717491	-0.002299464396772205	-0.01240950334995536	0.00044544321157924	0.009590219854806337	0.001110363856504447	0.0154226947994779
