inDegrees=no
num_controls=1
num_derivatives=0
num_input_controls=0
num_iterations=12
num_multipliers=0
num_parameters=0
num_slacks=0
num_states=4
objective=0.000000
objective_effort=0.000000
objective_marker_tracking=0.000000
solver_duration=0.931510
status=Solve_Succeeded
success=true
DataType=double
version=3
OpenSimVersion=4.6-2026-06-22-85aaf64
endheader
time	/jointset/slider/slide/value	/jointset/slider/slide/speed	/forceset/flexor/activation	/forceset/flexor/fiber_length	/forceset/flexor
0	0.31	0	0.05	0.108573946282611	0.4299346328718675
0.00125	0.3099995056632908	-0.0008072470979051604	0.1138658616208233	0.108491967025132	0.3692658291547419
0.0025	0.3099979411113475	-0.001712344374261432	0.150095698572033	0.1083207922173118	0.3085970254376163
0.003750000000000001	0.3099951597688523	-0.002762242843401943	0.1740259892361061	0.1081403401194228	0.3007416720375721
0.005000000000000001	0.3099909744061757	-0.003958776664611898	0.1922711968421549	0.1079622581745231	0.292886318637528
0.00625	0.3099852008377069	-0.005302463411001984	0.2068104751663861	0.1077938328333432	0.2924970931658376
0.0075	0.3099776594213344	-0.006787333310393458	0.2188974501109169	0.1076362108438998	0.2921078676941473
0.008749999999999999	0.3099681765792876	-0.008405969811564697	0.2292751425861582	0.1074894198807597	0.2950815737395255
0.01	0.3099565926071879	-0.01014914139503066	0.2384708439691364	0.1073522822902162	0.2980552797849038
0.01125	0.3099427557585028	-0.0120075312598347	0.2467734331880251	0.1072234954169091	0.3020627961488555
0.0125	0.3099265294921414	-0.01397220967709605	0.2543974824830585	0.1071017926047581	0.3060703125128071
0.01375	0.3099077845936856	-0.01603467454363604	0.2614837570202971	0.1069860016434718	0.3104382920415202
0.015	0.3098864051890539	-0.01818741955844181	0.2681395428986323	0.1068751640866744	0.3148062715702334
0.01625	0.3098622814191916	-0.02042354461888842	0.2744403981241995	0.1067684360885827	0.3192529338427479
0.0175	0.3098353139965123	-0.02273726406576609	0.2804448193735252	0.1066651710873357	0.3236995961152625
0.01875	0.3098054082272022	-0.02512322535649921	0.2861967909491147	0.1065647952382692	0.3281047471706114
0.02	0.3097724777868061	-0.02757673780323311	0.2917307210554174	0.1064668456091306	0.3325098982259604
0.02125	0.309736440129132	-0.03009334280883735	0.2970721399863507	0.1063708989227279	0.3367928121703445
0.0225	0.3096972198589502	-0.03266891781548161	0.3022411235546943	0.1062765928510834	0.3410757261147285
0.02375	0.3096547449526633	-0.0352994499144788	0.3072523281634232	0.106183587244972	0.3451827346996352
0.025	0.309608949939987	-0.03798108803843684	0.3121172777641297	0.1060915779008714	0.349289743284542
0.02625	0.3095597725298306	-0.04071003865168	0.3168444953850317	0.1060002748122461	0.3531900619243046
0.0275	0.309507156667258	-0.04348261190432606	0.3214406437926939	0.1059094129514483	0.3570903805640673
0.02875	0.3094510493520808	-0.04629516664072894	0.3259109737371939	0.1058187381570941	0.3607703488017216
0.03	0.3093914035650024	-0.04914416694624275	0.3302595463849262	0.1057280164173396	0.3644503170393758
0.03125	0.3093281752116854	-0.0520261339035186	0.3344899237623069	0.1056370229662504	0.3679068572944136
0.0325	0.3092613258913873	-0.05493771411598271	0.3386048274590247	0.1055455504555683	0.3713633975494513
0.03375	0.3091908199715742	-0.05787562226881817	0.3426069818621535	0.1054533996571709	0.3745996645470571
0.035	0.3091166271740059	-0.06083671852405871	0.3464984518530841	0.1053603866499504	0.3778359315446629
0.03625	0.3090387198064452	-0.0638179397929431	0.3502815745352194	0.1052663346670586	0.3808587081279185
0.03750000000000001	0.3089570751489739	-0.06681638238110657	0.3539581212867702	0.1051710804223072	0.3838814847111741
0.03875000000000001	0.3088716728680135	-0.06982922465331592	0.3575302598179576	0.105074466948309	0.3866993778070084
0.04000000000000001	0.3087824971935957	-0.07285381191313645	0.3609996439027711	0.1049763492257668	0.3895172709028426
0.04125	0.3086895345330598	-0.07588757388149442	0.3643683637323409	0.1048765878748134	0.3921395693751287
0.0425	0.3085927754365491	-0.07892810947283824	0.3676380289775587	0.1047750542582723	0.3947618678474148
0.04375	0.308492212419733	-0.08197310203194388	0.3708106845425111	0.1046716248607726	0.3971979348387632
0.04500000000000001	0.3083878417199715	-0.08502040218553156	0.3738879207457195	0.1045661860136573	0.3996340018301117
0.04625000000000001	0.3082796613308103	-0.08806794315775002	0.3768717354562515	0.104458628795957	0.4018928288059536
0.0475	0.308167672555364	-0.09111382024148465	0.3797636963376511	0.1043488534947917	0.4041516557817956
0.04875	0.308051878250148	-0.09415620801458589	0.382565728971234	0.1042367648829063	0.4062414422471196
0.05	0.3079322841855516	-0.09719343524992756	0.3852793553988288	0.1041222764910854	0.4083312287124435
0.05125	0.3078088974924545	-0.1002239054936101	0.387906382708657	0.1040053061502722	0.4102589012356641
0.0525	0.3076817278423472	-0.103246166466336	0.3904482465943355	0.1038857801188826	0.4121865737588846
0.05375000000000001	0.3075507860868547	-0.1062588351891256	0.3929065407501403	0.1037636288214103	0.4139567115205335
0.05500000000000001	0.3074160852722054	-0.1092606611173241	0.3952825323624464	0.1036387908637107	0.4157268492821825
0.05625	0.3072776394591313	-0.1122504567591669	0.3975776056888797	0.1035112088889353	0.4173430900310199
0.0575	0.3071354645879128	-0.1152271541482268	0.3997928606232938	0.1033808333412228	0.4189593307798573
0.05875	0.3069895774640668	-0.118189741705856	0.4019295562613244	0.1032476182322879	0.4204258844073518
0.06	0.306839996489397	-0.1211373154663701	0.4039886949547552	0.1031115235092837	0.4218924380348464
0.06125000000000001	0.3066867407968451	-0.1240690226774054	0.4059715192197739	0.1029725114982419	0.4232149155971227
0.0625	0.3065298308575514	-0.1269841102534	0.4078790250654807	0.1028305478784432	0.424537393159399
0.06375	0.3063692877497733	-0.1298818735694524	0.4097125579013201	0.1026855991404635	0.4257234799402282
0.065	0.306205133645183	-0.1327617051529381	0.4114732086710272	0.1025376319919234	0.4269095667210575
0.06625000000000002	0.3060373912013768	-0.1356230463363704	0.4131625769976282	0.1023866126861376	0.4279701172650318
0.0675	0.3058660839258436	-0.1384654359161888	0.4147819779691918	0.1022325076520118	0.4290306678090061
0.06875000000000001	0.3056912356895645	-0.1412884610994651	0.4163334818916353	0.1020752843883232	0.4299815428824939
0.06999999999999999	0.3055128709756721	-0.1440918000974247	0.4178188137000635	0.1019149147566987	0.4309324179559818
0.07124999999999999	0.3053310145164887	-0.146875173417385	0.4192407565283952	0.1017513734495889	0.4317958367479688
0.0725	0.3051456914450754	-0.1496383796650919	0.4206016537648595	0.1015846393554461	0.4326592555399559
0.07375000000000001	0.3049569270466114	-0.1523812535146425	0.421905227213417	0.1014146921304581	0.4334644435782035
0.07500000000000001	0.3047647468221955	-0.1551037011882423	0.4231546340903787	0.1012415104442458	0.434269631616451
0.07625	0.304569176335995	-0.1578056647901026	0.4243548055546854	0.1010650715371807	0.4350545394394629
0.07750000000000001	0.3043702411900763	-0.1604871567374459	0.4255099468198483	0.1008853529184248	0.4358394472624749
0.07875000000000001	0.3041679669604982	-0.1631482233522591	0.4266265879955473	0.1007023347129199	0.4366540504607383
0.08000000000000002	0.3039623790997837	-0.1657889665555262	0.4277103186101817	0.100516006516823	0.4374686536590017
0.08125	0.3037535029642041	-0.1684095096795289	0.4287697824020955	0.1003263633997129	0.4383788628948618
0.0825	0.3035413636773159	-0.1710100086491061	0.4298123966902056	0.1001334079056814	0.439289072130722
0.08374999999999999	0.3033259862269849	-0.1735906311064267	0.4308496224046756	0.09993714390961679	0.4403823972277217
0.08500000000000001	0.3031073953014853	-0.1761515689186597	0.4318913092498849	0.09973757342055453	0.4414757223247214
0.08625000000000001	0.3028856154249108	-0.1786930267915272	0.4329527708662379	0.09953469472565064	0.4428705160039044
0.08750000000000001	0.3026606707515292	-0.1812152438099994	0.4340471762960326	0.09932849709080335	0.4442653096830874
0.08875	0.3024325852294714	-0.1837184803497547	0.435195480586583	0.09911896426917359	0.4461296086723082
0.09000000000000001	0.3022013823284867	-0.1862030500929098	0.4364156998095262	0.09890606827870795	0.447993907661529
0.09125000000000001	0.3019670852461602	-0.1886692987588935	0.4377366882906832	0.09868977399237862	0.450562322255635
0.09250000000000001	0.3017297165387658	-0.1911176502016076	0.4391832246494562	0.09847003103200394	0.453130736849741
0.09375	0.3014892983940598	-0.1935485745564977	0.4408010574947488	0.0982467780567116	0.4568449797477298
0.095	0.3012458521193034	-0.1959626582822067	0.4426293892844123	0.0980199288175588	0.4605592226457185
0.09625	0.300999398508796	-0.1983605577361827	0.4447243097751052	0.0977893840421945	0.4658083634933382
0.0975	0.3007499571269469	-0.2007430924287276	0.4471336814599533	0.09755501929878331	0.4710575043409578
0.09875	0.300497546833923	-0.2031111783652772	0.4500763137084934	0.09731665646555022	0.4812546377977601
0.1	0.3002421846761442	-0.2054660760367902	0.4537382299060234	0.09707396806550296	0.4914517712545622
