PathFileType	4	(X/Y/Z)	teacher.trc
DataRate	CameraRate	NumFrames	NumMarkers	Units	OrigDataRate	OrigDataStartFrame	OrigNumFrames
200.00	200.00	21	1	m	200.00	1	21
Frame#	Time	load_marker		
		X1	Y1	Z1

1	0.000000000	0.310000	0.000000	0.000000
2	0.005000000	0.309991	0.000000	0.000000
3	0.010000000	0.309958	0.000000	0.000000
4	0.015000000	0.309890	0.000000	0.000000
5	0.020000000	0.309778	0.000000	0.000000
6	0.025000000	0.309616	0.000000	0.000000
7	0.030000000	0.309398	0.000000	0.000000
8	0.035000000	0.309123	0.000000	0.000000
9	0.040000000	0.308787	0.000000	0.000000
10	0.045000000	0.308390	0.000000	0.000000
11	0.050000000	0.307933	0.000000	0.000000
12	0.055000000	0.307415	0.000000	0.000000
13	0.060000000	0.306838	0.000000	0.000000
14	0.065000000	0.306203	0.000000	0.000000
15	0.070000000	0.305512	0.000000	0.000000
16	0.075000000	0.304765	0.000000	0.000000
17	0.080000000	0.303964	0.000000	0.000000
18	0.085000000	0.303110	0.000000	0.000000
19	0.090000000	0.302204	0.000000	0.000000
20	0.095000000	0.301247	0.000000	0.000000
21	0.100000000	0.300241	0.000000	0.000000
